EVENT_NAME: 202504231212
EVENT_ID: 18670
EVENT_DATE_YYYYMMDD: 20250423
EVENT_TIME_HHMMSS: 121257
EVENT_LATITUDE_DEGREE: 40.83333
EVENT_LONGITUDE_DEGREE: 28.31417
EVENT_DEPTH_KM: 7.02
HYPOCENTER_REFERENCE: AFAD
MAGNITUDE_W: 4.9
MAGNITUDE_W_REFERENCE: AFAD
MAGNITUDE_L: 
MAGNITUDE_L_REFERENCE: 
FOCAL_MECHANISM: 
NETWORK: TK
STATION_CODE: 3429
STATION_NAME: 
STATION_LATITUDE_DEGREE: 41.08492
STATION_LONGITUDE_DEGREE: 28.25964
STATION_ELEVATION_M: 5.0
LOCATION: Istanbul_Buyukcekmece_Turkiye
SENSOR_DEPTH_M: 
VS30_M/S: 230
SITE_CLASSIFICATION_EC8: unknown
MORPHOLOGIC_CLASSIFICATION: 
EPICENTRAL_DISTANCE_KM: 28.35
EARTHQUAKE_BACKAZIMUTH_DEGREE: 
DATE_TIME_FIRST_SAMPLE_YYYYMMDD_HHMMSS: 20250423_121232
DATE_TIME_FIRST_SAMPLE_PRECISION: millisecond
SAMPLING_INTERVAL_S: 0.01
NDATA: 10501
DURATION_S: 
STREAM: HNN
UNITS: cm/s^2
INSTRUMENT: sensor = CMG-5T/GURALP | digitizer = 
INSTRUMENT_ANALOG/DIGITAL: 
INSTRUMENTAL_FREQUENCY_HZ: 
INSTRUMENTAL_DAMPING: 
FULL_SCALE_G: 
N_BIT_DIGITAL_CONVERTER: 
PGA_CM/S^2: 24.351
TIME_PGA_S: 
BASELINE_CORRECTION: -
FILTER_TYPE: BUTTERWORTH
FILTER_ORDER: 
LOW_CUT_FREQUENCY_HZ: 
HIGH_CUT_FREQUENCY_HZ: 
LATE/NORMAL_TRIGGERED: 
DATABASE_VERSION: 
HEADER_FORMAT: DYNA 1.2
DATA_TYPE: Acceleration
PROCESSING: Unprocessed
DATA_TIMESTAMP_YYYYMMDD_HHMMSS: 
DATA_LICENSE: U (unknown license)
DATA_CITATION: Turkish Accelerometric Archive v 1.0 - Disaster And Emergency Management Presidency, Earthquake Department
DATA_CREATOR: AFAD
ORIGINAL_DATA_MEDIATOR_CITATION: : AFAD - Disaster And Emergency Management Presidency
ORIGINAL_DATA_MEDIATOR: AFAD PROCESS SERVICE
ORIGINAL_DATA_CREATOR_CITATION: AFAD PROCESS SERVICE
ORIGINAL_DATA_CREATOR: network: TK
USER1: GuestUser
USER2: 
USER3: 
USER4: 
USER5: 
[...]
0.033499
0.123525
0.191354
0.133195
0.049087
-0.018138
0.022805
0.082506
0.045918
0.083110
0.090602
0.035569
0.047125
0.028669
0.032410
0.055534
0.075531
0.022374
0.022050
0.053927
-0.001731
0.077353
0.001999
-0.176209
-0.158401
0.093879
0.369292
0.461194
0.313310
-0.155328
-0.478283
-0.230380
0.216040
0.377970
0.242279
-0.052851
-0.230434
-0.049434
0.245362
0.234722
0.034630
-0.126696
-0.138274
0.001772
0.142131
0.123987
0.082710
0.063629
0.050800
0.035783
0.030145
0.052644
0.015117
0.038241
0.022912
0.000392
0.058217
0.040386
0.065698
0.096637
0.022847
-0.038439
-0.050642
0.040947
0.063445
0.092508
0.099375
0.044655
0.031514
0.037756
0.076198
0.080876
0.072112
0.070225
0.029886
0.005490
0.021111
0.008282
0.066107
0.102049
0.098912
0.063574
0.025735
0.057925
0.038531
0.082601
0.066333
0.012238
0.073502
0.066301
0.050972
0.044708
0.050637
0.049376
0.050928
0.058108
0.033712
0.017757
0.048384
0.037744
0.066182
0.089306
0.028333
0.008626
0.004864
0.041118
0.020786
0.011397
0.010761
0.009812
0.013240
0.011979
0.026661
0.036029
0.044147
0.080088
0.069761
0.046303
0.058797
0.044093
0.076283
0.029378
0.031555
0.050615
0.039662
0.065599
0.037139
0.024311
0.015234
0.016786
0.025216
0.047715
0.064586
0.010491
0.019546
0.038293
0.030154
0.077349
0.037010
0.050442
0.085445
0.044793
0.055724
0.085413
0.066957
0.058818
0.105076
0.088809
0.078168
0.085661
0.030628
0.011234
0.055303
0.039974
0.075290
0.096850
0.010242
0.043682
0.026477
0.009584
0.099297
0.060208
0.034562
0.054872
0.005779
0.026089
0.023577
0.004496
0.068573
0.037300
-0.013669
0.007891
-0.003374
0.031629
0.054440
0.000970
0.023781
0.013141
0.000313
0.079397
0.047185
0.007471
0.031220
-0.019124
0.046517
0.058386
0.030864
0.090877
0.035844
0.092419
0.073338
0.042689
0.105829
0.060175
0.067355
0.033893
0.042323
0.053879
0.036361
0.098876
0.086360
0.049772
0.084150
0.020363
0.016288
0.024406
-0.046884
0.026573
0.002489
0.088451
0.096569
0.030281
0.096547
0.019630
0.085896
0.047745
0.023349
0.084613
-0.030444
0.045513
0.035498
0.025796
0.067365
-0.000799
0.096730
0.040759
0.038872
0.094509
0.027596
0.064788
0.009130
0.075083
0.064130
0.019726
0.067548
0.018454
0.068776
0.009679
0.048121
0.042171
0.025278
0.061219
-0.036956
0.025558
0.022109
0.051172
0.052099
0.046774
0.059893
-0.022964
0.045803
0.017656
0.054848
0.025138
0.048886
0.074824
0.075438
0.111692
0.061973
0.059149
0.001302
0.040995
0.013160
0.040036
0.054718
0.091285
0.028749
0.060938
0.020286
0.044973
-0.007247
0.049641
0.071201
-0.001027
0.104005
0.004579
0.115238
0.031756
0.060194
0.037362
0.026721
0.012642
0.031077
0.019186
0.065131
0.022603
0.051979
0.041339
0.011629
0.077582
0.017860
0.117890
0.026904
0.079728
0.017817
-0.009080
-0.005965
-0.002537
0.007144
0.074661
0.056830
0.073076
0.050243
0.058986
0.077733
0.039269
0.082088
0.058005
0.078315
0.062985
0.074542
0.071092
0.051386
0.036682
0.039484
-0.010547
0.063222
0.016630
-0.002451
0.011294
0.025977
0.050663
0.035959
0.040638
0.063761
0.020608
0.019347
0.046222
0.019638
0.034633
0.035873
0.055870
0.026472
0.039279
0.027388
0.055201
0.053940
0.053929
0.039850
0.017956
0.054835
0.070143
0.073571
0.077311
0.023529
0.022893
0.042265
0.044442
0.081947
0.025350
0.042534
0.064095
0.030945
0.025620
0.006851
0.028099
0.021836
0.038082
0.052452
0.018677
0.008975
0.016467
0.058036
0.076783
0.055826
0.049562
0.038610
0.034847
0.052031
0.059211
0.069517
0.061690
0.063242
0.048538
0.030082
0.025695
0.037564
0.018483
0.040356
0.049411
0.043148
0.042512
0.042188
0.057809
0.045918
0.041531
0.047147
0.071209
0.052128
0.060245
0.044290
0.032712
0.041455
0.036755
0.041121
0.029543
0.033596
0.052030
0.036701
0.042005
0.027300
0.038857
0.041034
0.006947
0.025069
0.026934
0.032863
0.024724
0.025651
0.049712
0.039072
0.030620
0.045928
0.041853
0.048408
0.039331
0.064955
0.071510
0.042424
0.031472
0.024896
0.022071
0.034566
0.024238
0.020788
0.118942
0.173329
0.038888
-0.060225
-0.049919
0.026038
0.165772
0.141063
0.071649
-0.026839
-0.064678
0.005653
0.103807
0.161319
0.109100
0.009048
-0.078811
-0.059751
-0.004427
0.083098
0.115287
0.096519
0.011786
-0.025427
0.023957
0.038327
0.039567
-0.001711
0.004844
0.030156
0.073287
0.075777
0.034187
0.022609
-0.005851
0.009145
0.026954
0.060081
0.127285
0.147283
0.118510
0.048471
-0.098787
-0.088794
0.047813
0.135025
0.104064
0.000887
-0.000375
0.028689
0.133095
0.160596
0.054605
-0.047635
-0.038893
0.069266
0.140221
0.072995
0.003581
-0.006746
0.011688
0.068888
0.070753
0.032602
0.052286
0.066656
0.026004
0.013801
0.008475
0.046292
0.085047
0.081598
0.017186
0.004045
0.025605
0.004648
-0.014745
-0.001001
0.062139
0.074321
0.013973
0.003645
0.052717
0.114919
0.111782
0.058625
0.011095
-0.044877
-0.010811
0.037323
0.052005
0.047305
0.032288
0.085737
0.128556
0.129795
0.049127
-0.009345
-0.013420
-0.008116
0.020635
0.002491
0.039996
0.048113
0.070299
0.068100
0.032450
0.025248
0.029614
0.026165
0.049913
0.057406
0.020818
0.034562
0.036740
0.081747
0.059853
0.028579
0.026067
0.035748
0.023857
-0.013669
0.035090
0.113236
0.097907
0.064445
0.032233
0.023156
0.000324
-0.011879
0.048134
0.044059
0.061556
0.080302
0.089983
0.057146
0.019933
0.005854
0.036793
0.050225
0.077726
0.092721
0.062385
0.016418
-0.049869
-0.048942
-0.007686
0.047013
0.079828
0.100450
0.064487
0.035090
0.025387
0.033505
0.026616
0.031920
0.040350
0.041277
0.032513
0.006241
0.013421
0.052489
0.074362
0.085605
0.052144
0.005239
0.004290
-0.002911
0.046786
0.055528
0.085217
0.092084
0.043616
0.004840
0.008893
0.052337
0.080775
0.093270
0.075439
0.070739
0.021958
0.013819
0.012558
0.020675
0.031294
0.055043
0.070038
0.041266
0.034064
0.012170
0.023101
0.014962
0.019015
-0.013196
-0.019772
0.004914
0.063990
0.106809
0.100546
0.058643
-0.036094
-0.048610
-0.057687
0.029213
0.138621
0.178627
0.153293
0.062308
-0.028365
-0.023999
0.015694
0.088213
0.103521
0.051614
0.035034
-0.016873
-0.011569
-0.004702
0.053123
0.058114
0.072172
0.054341
0.039949
0.025870
0.019920
0.042418
0.000515
0.028641
0.006434
0.069886
0.052055
0.059860
0.071104
0.033265
0.044197
0.051376
0.065434
0.032910
0.032899
-0.005878
0.007242
0.005042
0.088503
0.096933
0.053780
0.032510
-0.009392
0.018108
0.019973
0.074672
0.079350
0.084029
0.042439
-0.027913
-0.069191
-0.031686
0.051774
0.102097
0.123344
0.040487
0.037038
-0.011743
-0.005501
0.027314
0.025427
0.086066
0.019466
0.034774
0.056959
0.085710
0.086325
0.074434
0.053477
0.012200
0.027820
0.005613
0.008416
-0.010978
0.047785
0.036520
0.053391
0.069011
0.062435
0.069302
0.013331
0.049585
0.029879
0.059255
0.045489
0.040163
0.037651
0.021697
0.029814
-0.008337
0.034794
0.046351
0.080104
0.057896
0.074768
0.073506
0.024413
0.032530
0.022203
0.075026
0.055632
0.069690
0.045294
0.017460
-0.003185
-0.016326
0.057131
0.038988
0.053670
0.027086
0.079597
0.046760
0.016424
0.069873
0.027345
0.065162
0.018882
0.053886
0.019486
0.020413
0.050414
0.025081
0.055395
0.005989
0.026299
0.010031
0.047848
0.039397
0.030632
0.052193
0.018418
0.024973
0.009643
0.055901
0.042760
0.039623
0.055556
0.027409
0.029586
0.017383
0.051761
0.032368
0.045487
0.066110
0.032022
0.030761
0.006678
0.051373
0.066056
0.092931
0.087293
0.060396
0.030998
-0.021847
-0.000286
-0.027496
0.015324
0.037197
0.063759
0.087508
0.044667
0.051222
0.009006
0.039945
0.018676
0.022104
0.055857
0.042091
0.090850
0.051760
0.047060
-0.006410
-0.010172
0.037649
0.037326
0.059199
0.038867
0.063866
0.038533
0.039772
0.051954
0.047879
0.071628
0.050671
0.072544
0.023764
0.039384
0.040624
0.013102
0.061861
0.011517
0.032452
-0.002260
0.002106
0.009598
-0.006357
0.056783
0.050833
0.063327
0.020486
-0.004222
0.012024
0.038586
0.097662
0.121411
0.101704
0.032916
0.000704
0.006633
0.022879
0.048504
0.053495
0.058486
0.023774
0.015635
0.008121
0.028118
0.054055
0.031848
0.037464
0.034953
0.042445
0.028991
0.034608
0.036785
0.018955
0.024571
0.023622
0.063315
0.071120
0.061105
0.048277
0.019504
0.021682
-0.007403
0.046670
0.063229
0.049775
0.030069
0.018178
0.048805
0.011904
0.053160
0.037205
0.039383
0.033432
0.035609
0.040288
-0.005366
0.029637
0.004304
0.016485
0.022414
0.028656
0.036774
0.021444
0.043630
0.053623
0.071432
0.050162
0.044524
0.053267
0.015741
0.021045
0.019158
0.060727
0.080724
0.039759
0.071949
0.047866
0.040352
0.035652
0.036266
0.059390
0.050938
0.055617
0.046852
0.028397
0.004626
0.018058
0.025551
0.025540
0.011773
0.023955
0.087720
0.087709
0.071129
0.059551
0.062979
0.024828
-0.012385
-0.003330
-0.016159
0.007590
0.022586
0.058527
0.083839
0.047251
-0.009346
-0.055938
0.045030
0.124739
0.061578
-0.096935
-0.262638
-0.099145
0.102801
-0.018509
-0.078232
-0.031974
0.038982
0.205289
0.153382
-0.009508
-0.095491
-0.002026
-0.043304
-0.220262
-0.143053
-0.101798
-0.337842
-0.536058
-0.298785
-0.352880
-0.522022
-0.205342
0.014737
-0.003719
0.006899
0.050969
0.125989
0.449234
0.990068
0.780597
0.123444
0.673657
0.897175
0.235958
0.054311
0.429140
0.519791
0.424741
0.756115
0.516945
0.551323
0.919899
0.335276
-0.757992
-0.608254
0.313047
0.391193
-0.415708
-0.982199
-1.236063
-0.725554
-0.404184
-0.715884
-0.360438
-0.798752
-0.192266
0.563968
-0.318589
-1.264922
-0.667503
0.587371
0.663954
0.245648
-0.190790
0.391624
1.113781
0.485703
0.140864
0.144292
0.076442
1.017438
1.309421
0.298687
-0.451629
-0.170900
0.013539
0.126386
0.260492
-0.045893
-0.190963
-0.378862
-0.643356
-0.751848
-0.286045
0.235094
0.334811
-0.203856
-0.042864
0.908137
0.038397
-1.602905
-1.568840
-0.752894
-0.062624
-0.258340
-1.501355
-0.762941
1.029964
0.771411
0.182723
0.588502
0.112673
0.701339
1.647963
0.414013
-0.461979
0.187649
1.171788
0.349256
-0.469212
-0.041549
0.724063
1.146412
0.377964
-1.253648
-1.520017
0.058114
1.170117
1.031613
-0.139499
-0.453700
-0.413382
-0.414018
0.201221
0.929319
0.436608
0.126471
0.637293
0.142393
0.849545
1.386315
0.429978
-0.258750
-0.158720
0.122946
0.535915
0.750366
0.003177
-0.931276
-1.004754
0.167586
0.373597
-0.185704
-0.292946
-0.543058
-0.521497
0.641777
0.696163
-0.974526
-1.400648
-1.174942
-0.862638
-0.697895
-0.625063
-0.341209
0.115216
0.685749
0.593513
0.751692
0.838904
0.502194
0.405269
-0.160910
-0.681132
0.167640
0.561226
0.436165
0.671249
0.004405
-0.022492
0.586495
0.325753
-0.118188
0.637733
0.920025
0.743380
0.752123
-0.098546
0.181244
0.568891
0.278137
-0.043880
-0.499701
-0.953646
-1.045257
-0.855815
-0.827690
-0.639499
-0.567918
-0.973094
-1.830640
-1.629320
-0.987194
0.176392
1.637600
1.284321
0.698135
0.953227
0.699676
1.009479
2.414414
1.743818
0.051244
-0.043492
0.546111
0.801517
0.752111
0.057443
-0.240814
-0.128904
-0.459049
-1.440084
-2.108178
-0.955533
0.543190
0.658538
-0.756735
-0.916811
-0.115559
-0.510105
-0.950607
-0.919980
-1.021595
-0.457001
0.556837
0.532441
-0.007164
0.050036
-0.133487
0.147554
0.875964
1.272677
0.750267
-0.273285
-0.380527
-0.663778
-0.957345
-0.605338
0.496661
0.571681
0.171820
0.115537
-0.314024
0.455653
1.362573
0.047028
-1.000908
0.363072
1.236229
0.596583
0.959220
0.756314
0.641882
1.865180
1.801706
0.247627
-0.361069
0.977902
0.634314
-1.430286
-2.939972
-1.951769
0.072480
0.498580
1.024407
0.406646
-1.007690
-0.981127
-1.137764
-0.904868
0.160867
0.272151
-0.775473
-0.239641
1.361937
1.799916
1.685796
0.551888
-0.685814
-1.942272
-0.875600
1.581012
0.722528
-0.405441
-1.009135
-0.291041
1.302720
0.465807
-1.236458
-0.845060
0.243184
0.772451
1.543378
-0.220161
-1.279665
0.285647
0.991548
0.133064
-1.087755
-1.263150
0.124590
0.329038
-0.435346
0.107676
0.270231
-0.148700
-0.161528
-0.318165
-0.078391
1.066751
1.426574
0.203566
-0.410131
1.145802
1.580343
0.373905
-0.473951
-0.141952
0.009974
-0.458664
0.392296
1.137275
1.033472
0.906847
-0.046989
-1.333459
-0.502820
1.206301
0.803939
-0.210859
-1.126242
-1.552363
-0.103661
0.881416
-0.016459
0.028861
0.383994
0.668474
0.630010
0.445237
0.746598
-0.306965
-0.498929
0.336712
-0.139430
-1.041057
-1.965818
-3.079094
-2.379133
-1.120507
-0.649702
-1.422214
-1.842708
-0.655362
0.943090
0.183708
-1.560762
-1.199063
0.007979
1.829020
2.864118
2.087854
1.430701
1.068043
0.864512
1.808635
1.137726
0.969210
0.765053
-0.075611
0.723452
1.233336
0.752505
0.552726
0.431728
-1.289294
-2.198112
-1.195840
0.231916
1.732515
1.224485
0.594531
0.598272
-0.713834
-1.590139
-2.570548
-1.228451
0.605721
0.850810
1.157486
2.481763
3.996743
3.091052
1.452563
-0.970933
-2.094838
-0.345700
1.603831
0.269841
-2.888015
-4.641551
-4.763487
-2.501016
-0.335147
-0.371422
-1.078908
-0.084452
1.235448
1.595896
0.929365
1.110365
1.877854
0.766454
0.167762
1.381369
2.248899
1.527345
-0.553199
-3.681668
-3.904582
-1.702448
-0.118691
0.532501
-0.352557
-1.010023
1.134900
3.874753
3.697795
3.000626
1.734476
-1.486844
-3.157846
-5.317797
-8.753266
-10.171040
-9.061225
-8.973387
-10.213277
-11.546642
-12.963791
-10.990500
-9.122565
-8.876225
-8.748059
-6.852925
-1.944379
4.498227
10.914261
17.466599
22.662449
24.157421
24.350926
23.676266
22.195966
21.042362
19.516419
16.838758
14.719448
13.046883
9.316294
5.242441
1.113565
-3.601486
-8.214933
-11.000451
-13.625278
-19.116270
-23.078202
-23.135424
-18.154974
-13.286757
-11.100255
-11.714890
-13.628803
-12.086000
-8.893464
-5.631212
-2.522147
1.032724
6.892594
13.689094
19.130981
22.669596
21.958984
18.949938
14.501557
10.032856
6.841862
4.870112
2.356893
-2.144321
-7.055390
-11.592869
-14.533762
-14.642254
-13.565578
-13.074139
-12.431076
-11.454440
-9.321397
-8.748362
-9.176672
-8.695550
-6.735702
-2.824124
2.184150
7.096447
9.833798
10.349310
9.528966
7.740416
5.762726
4.007628
2.870592
2.557955
3.705597
4.268315
1.519375
-0.751558
-0.764074
-0.136330
-0.025045
-1.143636
-3.272636
-3.454909
0.231265
4.812491
7.563598
7.867148
6.704790
6.963947
7.287817
6.137339
4.025533
2.814405
2.786883
2.372329
0.433718
-3.456936
-5.041028
-5.273633
-3.564825
-2.459386
-5.223020
-8.720076
-9.984351
-7.585262
-4.139810
-1.544079
-1.010748
-1.224283
-0.546832
1.325793
3.639848
3.953089
0.475103
-3.126058
-3.106999
0.042707
4.387274
7.182149
8.648358
9.529956
7.706079
1.576391
-6.412491
-11.326060
-11.557415
-9.527851
-8.063517
-8.000690
-8.055098
-7.946627
-8.026045
-7.523352
-6.868722
-6.943450
-5.811126
-2.229369
2.600395
6.551364
8.972649
8.835082
7.056224
6.612283
7.536085
10.388483
14.628945
16.807006
15.292005
12.203239
9.609675
8.784641
9.232938
8.973134
7.002010
2.820925
-1.294195
-3.841490
-6.443808
-8.451197
-9.127420
-9.107110
-8.661940
-7.463026
-5.610097
-4.096055
-3.121295
-4.655679
-7.343969
-7.584703
-5.811494
-3.750667
-2.644291
-3.464635
-5.958784
-6.936380
-5.470482
-2.349538
1.073092
3.389335
4.517595
6.506517
8.077457
7.007011
4.390000
1.366260
-0.783686
-2.498144
-3.245646
-3.843399
-3.472322
-2.188061
0.227597
3.060300
3.732437
3.659271
4.783155
5.676632
5.139840
3.934965
2.113277
2.129835
2.956098
2.149197
0.120549
-2.301383
-4.184346
-5.109733
-5.077231
-3.500038
-1.833435
-1.492682
-2.356794
-4.130650
-5.655343
-5.742889
-3.629229
-2.104870
-0.469842
2.346916
4.303638
4.681281
3.121886
2.089581
1.478385
1.598423
2.021396
1.790667
2.948314
4.278218
4.353550
3.828639
4.398547
5.104448
4.344754
1.950958
-1.456687
-3.659468
-3.856747
-3.115519
-2.388046
-1.347947
-0.252826
0.154517
-0.377585
-1.099765
-1.647498
-3.293803
-5.062344
-6.295043
-5.678554
-2.768945
0.616169
2.431271
1.987330
1.218257
0.363211
-0.105740
1.271371
3.673273
5.567782
7.021487
6.961139
5.370169
4.278152
4.070557
3.374639
2.987908
1.445708
-1.843764
-4.307275
-5.294875
-4.852518
-4.710909
-5.179860
-5.952060
-7.058770
-7.103487
-5.674792
-3.788412
-2.018328
0.035620
2.129585
3.604548
4.556487
4.366711
2.617240
-0.158273
-2.353864
-4.242454
-4.970573
-3.795732
-1.962498
-0.668546
-0.152722
1.157800
2.278244
3.252692
4.379701
5.340081
6.098503
5.372260
4.280243
3.904767
4.620047
5.788010
4.522798
1.762916
-1.034794
-2.773636
-2.542616
-1.142370
0.982545
2.020143
0.821520
-1.762040
-3.829140
-4.220560
-4.223697
-5.180347
-6.406481
-7.807998
-7.969012
-6.664430
-5.040969
-3.561316
-3.623540
-2.632211
0.167666
2.331034
3.047564
3.101638
3.150710
3.591190
5.354396
6.950033
6.946271
5.199613
3.116256
2.581653
3.162190
4.023780
4.285438
2.665394
0.451046
-0.697869
-0.399321
0.805532
1.045307
0.512267
-0.494090
-1.596111
-1.991283
-2.630303
-2.756615
-2.138563
-1.395146
-0.983427
-0.911221
-1.341094
-2.687590
-2.916131
-1.361135
0.594962
0.852868
-0.134732
-1.584706
-2.526662
-2.224050
-1.156752
0.233489
0.856544
1.766278
2.008553
1.832220
1.930062
0.802093
-2.074399
-4.562296
-4.744881
-4.212175
-3.290874
-2.264218
-2.197639
-2.601251
-1.808127
0.146093
2.176907
3.632801
4.394349
4.213953
3.938517
5.269672
6.832171
7.461166
6.858410
4.998269
3.046215
1.785380
1.010054
0.665841
0.521083
0.181247
-0.215800
-0.717890
-1.165895
-1.059925
-0.110801
0.678572
-0.063615
-2.439279
-4.665819
-5.846310
-5.691883
-4.314146
-3.386280
-3.701732
-5.393367
-6.905242
-6.413178
-4.855994
-2.807985
-0.853452
0.597752
1.830429
2.203070
2.704826
2.797665
2.295263
1.517748
-0.550290
-3.449291
-5.591735
-5.315696
-3.655345
-1.554189
0.387213
1.409806
1.129994
0.092686
-0.729846
-1.064680
0.477810
3.111995
5.037454
5.528893
4.891123
3.707193
3.137576
4.069194
4.592521
4.274568
2.897435
1.658796
1.836983
2.984626
5.098912
5.994264
4.811273
2.405910
0.204067
-0.788222
-1.351274
-2.571780
-4.543530
-6.275807
-7.039565
-6.190794
-4.582964
-3.418439
-3.037358
-3.404392
-3.122101
-1.722793
0.209543
1.520690
1.997435
1.877376
1.528473
1.519709
2.073673
3.431402
3.710879
3.532046
3.263801
3.070274
3.258777
2.958957
2.730103
2.250210
2.029797
1.245718
0.071168
-1.939660
-4.701105
-6.106374
-6.473097
-6.234573
-6.411531
-7.336918
-8.049718
-6.882380
-4.834371
-3.029586
-1.374549
-0.055587
1.382799
2.935919
4.206425
4.867933
5.077695
4.878228
4.944494
4.691255
4.297960
3.788054
2.288684
0.788376
0.717087
2.188298
3.816762
3.853328
2.123865
-0.211157
-0.997737
-0.450026
-0.218693
-0.375017
-1.860319
-3.307792
-3.941811
-3.495078
-1.614012
0.448378
3.072871
5.271253
5.643581
3.960074
0.892254
-1.608147
-2.315946
-1.247710
-0.579950
-0.605283
-1.138636
-1.479097
-0.573428
0.831507
1.825963
1.781872
0.876806
-0.474379
-1.192181
-1.813695
-2.322975
-2.227634
-1.390118
-0.095853
1.219984
1.395357
0.399941
-0.832132
-1.819107
-1.916344
-2.106432
-2.476906
-2.671371
-1.854175
-0.190697
1.031663
1.070418
-0.455525
-1.908001
-2.491374
-2.779939
-3.501806
-4.093307
-2.822176
-0.471232
1.252583
1.125958
0.408155
0.520690
