EVENT_NAME: 202504231212
EVENT_ID: 18670
EVENT_DATE_YYYYMMDD: 20250423
EVENT_TIME_HHMMSS: 121257
EVENT_LATITUDE_DEGREE: 40.83333
EVENT_LONGITUDE_DEGREE: 28.31417
EVENT_DEPTH_KM: 7.02
HYPOCENTER_REFERENCE: AFAD
MAGNITUDE_W: 4.9
MAGNITUDE_W_REFERENCE: AFAD
MAGNITUDE_L: 
MAGNITUDE_L_REFERENCE: 
FOCAL_MECHANISM: 
NETWORK: TK
STATION_CODE: 3429
STATION_NAME: 
STATION_LATITUDE_DEGREE: 41.08492
STATION_LONGITUDE_DEGREE: 28.25964
STATION_ELEVATION_M: 5.0
LOCATION: Istanbul_Buyukcekmece_Turkiye
SENSOR_DEPTH_M: 
VS30_M/S: 230
SITE_CLASSIFICATION_EC8: unknown
MORPHOLOGIC_CLASSIFICATION: 
EPICENTRAL_DISTANCE_KM: 28.35
EARTHQUAKE_BACKAZIMUTH_DEGREE: 
DATE_TIME_FIRST_SAMPLE_YYYYMMDD_HHMMSS: 20250423_121232
DATE_TIME_FIRST_SAMPLE_PRECISION: millisecond
SAMPLING_INTERVAL_S: 0.01
NDATA: 10501
DURATION_S: 
STREAM: HNZ
UNITS: cm/s^2
INSTRUMENT: sensor = CMG-5T/GURALP | digitizer = 
INSTRUMENT_ANALOG/DIGITAL: 
INSTRUMENTAL_FREQUENCY_HZ: 
INSTRUMENTAL_DAMPING: 
FULL_SCALE_G: 
N_BIT_DIGITAL_CONVERTER: 
PGA_CM/S^2: 10.595
TIME_PGA_S: 
BASELINE_CORRECTION: -
FILTER_TYPE: BUTTERWORTH
FILTER_ORDER: 
LOW_CUT_FREQUENCY_HZ: 
HIGH_CUT_FREQUENCY_HZ: 
LATE/NORMAL_TRIGGERED: 
DATABASE_VERSION: 
HEADER_FORMAT: DYNA 1.2
DATA_TYPE: Acceleration
PROCESSING: Unprocessed
DATA_TIMESTAMP_YYYYMMDD_HHMMSS: 
DATA_LICENSE: U (unknown license)
DATA_CITATION: Turkish Accelerometric Archive v 1.0 - Disaster And Emergency Management Presidency, Earthquake Department
DATA_CREATOR: AFAD
ORIGINAL_DATA_MEDIATOR_CITATION: : AFAD - Disaster And Emergency Management Presidency
ORIGINAL_DATA_MEDIATOR: AFAD PROCESS SERVICE
ORIGINAL_DATA_CREATOR_CITATION: AFAD PROCESS SERVICE
ORIGINAL_DATA_CREATOR: network: TK
USER1: GuestUser
USER2: 
USER3: 
USER4: 
USER5: 
[...]
0.019719
-0.040927
-0.058747
-0.045931
-0.041243
-0.024989
-0.010298
-0.010924
-0.032807
-0.006237
0.009079
0.004389
0.019706
0.021268
-0.027812
-0.039067
-0.021562
-0.032504
-0.022502
0.002505
-0.006561
-0.025944
-0.003438
-0.020632
-0.022508
-0.003128
-0.010319
-0.017823
0.005309
0.022501
-0.012512
-0.022203
-0.006574
-0.014703
-0.006576
0.010303
-0.036588
-0.049094
-0.024086
-0.029714
-0.023151
0.004670
0.006544
-0.020653
-0.009713
-0.018780
-0.037224
-0.010654
0.013415
0.014664
0.001847
-0.021912
-0.064427
-0.048486
0.009032
0.015596
0.022472
0.032474
0.005277
0.009027
0.002461
-0.038178
-0.039430
-0.030991
-0.033492
-0.020989
-0.002547
-0.018178
-0.013490
-0.020368
-0.015368
0.026520
0.008388
0.007136
0.020890
-0.023814
-0.044134
-0.007873
0.004005
0.002128
0.023071
-0.002876
-0.045703
-0.047893
-0.063524
-0.043206
0.004934
0.012123
0.026189
0.012433
-0.034145
-0.020705
-0.020706
-0.014767
0.009927
-0.022897
-0.029463
-0.017272
-0.041657
-0.016024
0.008670
0.004293
0.031801
0.000852
-0.020093
-0.001964
-0.025097
-0.021034
-0.002905
-0.022912
-0.004157
-0.011348
-0.019477
0.004280
-0.031045
-0.030421
-0.023232
-0.016669
0.032409
0.016465
-0.002917
0.004271
-0.025427
-0.026678
-0.046373
-0.044811
-0.006675
-0.006051
-0.007928
-0.013556
-0.011056
0.002385
-0.003555
0.008322
0.001444
-0.030130
-0.031381
-0.046075
-0.029508
-0.012316
-0.023258
0.003312
0.011439
0.014564
0.002059
-0.025764
0.005182
-0.002634
-0.019203
-0.032646
-0.037023
-0.007014
-0.013893
0.014866
0.003611
-0.025775
-0.008895
-0.010772
0.009233
-0.004210
-0.007337
-0.009839
-0.029534
-0.010466
-0.019532
-0.018908
-0.009219
0.010162
0.020476
0.004845
-0.007347
-0.021416
-0.008913
0.008592
0.015781
0.001713
-0.025797
-0.022672
-0.018922
-0.015485
-0.037681
-0.039870
-0.015175
-0.008299
-0.003924
-0.027057
0.000763
0.020143
0.020142
-0.000491
-0.015809
-0.021124
-0.045196
-0.048948
-0.033944
-0.013939
-0.019254
-0.000499
0.016380
0.030759
0.002936
-0.029888
-0.038329
-0.025514
-0.018325
-0.022702
-0.034270
-0.031457
-0.020517
-0.018956
0.012304
0.010427
-0.002703
0.010425
0.016676
-0.003957
-0.013649
-0.027092
-0.024592
-0.023655
-0.018342
-0.025533
-0.032724
-0.033975
-0.030850
-0.013033
-0.008033
-0.006471
-0.003971
-0.003972
0.008531
0.016658
0.022909
0.024471
0.001024
-0.016170
-0.048682
-0.052434
-0.045558
-0.028678
-0.021177
-0.018990
-0.017115
-0.016804
-0.021494
0.002263
0.022894
0.012264
-0.002117
-0.001180
0.010698
-0.011185
-0.004622
-0.010562
-0.021505
-0.027445
-0.017130
-0.008066
-0.022134
-0.027762
-0.023387
-0.018699
-0.013385
-0.011511
-0.004322
0.015371
0.009743
-0.001825
0.000988
0.004113
-0.012144
-0.017772
-0.004331
-0.007770
-0.019025
-0.030280
-0.034970
-0.021529
-0.025594
-0.041538
-0.035287
-0.008717
0.014727
0.013163
0.008473
0.008159
0.021600
0.021599
-0.004660
-0.026544
-0.046239
-0.058431
-0.051243
-0.040615
-0.031863
-0.012483
0.021590
0.040970
0.032841
0.017210
-0.007174
-0.022805
-0.031247
-0.026871
-0.027185
-0.023435
-0.014058
-0.009370
-0.000618
0.005633
0.012822
0.008444
-0.002185
0.000002
-0.010940
-0.037200
-0.050956
-0.053770
-0.037516
-0.020636
-0.012510
-0.013761
0.001243
0.019685
0.013745
0.009992
0.019682
0.016867
0.010302
0.000610
-0.034403
-0.045970
-0.036280
-0.022214
-0.015651
-0.006274
-0.009401
-0.018155
-0.007840
0.002162
0.004037
0.007474
-0.001280
-0.020350
-0.014411
-0.014725
-0.007223
-0.008788
-0.017541
-0.036299
-0.042864
-0.018170
0.018404
0.020903
-0.000042
-0.018174
-0.012236
0.019023
-0.027868
-0.050689
-0.054441
-0.033498
0.002137
-0.003490
-0.009118
0.050275
0.083722
0.000569
-0.100090
-0.133852
-0.050701
0.075277
0.157803
0.034949
-0.140735
-0.171683
-0.049770
0.129351
0.171551
-0.004133
-0.240774
-0.271410
-0.106982
0.129657
0.236566
0.139033
-0.019458
-0.087294
-0.031651
0.034307
0.037744
-0.018213
-0.064792
-0.063542
-0.043537
-0.026345
-0.028221
-0.047916
-0.041978
-0.011031
0.040859
0.075557
0.041483
0.007408
-0.022291
-0.010725
0.000840
-0.018230
-0.052930
-0.034800
-0.000415
-0.019485
-0.053247
-0.095449
-0.067629
0.038968
0.145564
0.064912
-0.080762
-0.121714
-0.016993
0.123677
0.120550
-0.069201
-0.264892
-0.223942
-0.017938
0.173999
0.175874
0.029575
-0.085464
-0.076087
0.012066
0.060518
0.024880
-0.034515
-0.060462
-0.045146
-0.032643
-0.036083
-0.027956
0.001115
0.017682
-0.006702
-0.020458
-0.000765
0.022367
0.044248
0.053625
0.019237
-0.034844
-0.062979
-0.071733
-0.075173
-0.059231
-0.030785
-0.004841
0.019541
0.028293
0.022978
0.011723
0.013285
0.009845
-0.012350
-0.032046
-0.045176
-0.044552
-0.045178
-0.036114
-0.025174
0.001084
0.023278
0.023277
0.004832
-0.011737
0.006705
0.006392
-0.016117
-0.035187
-0.026122
-0.027061
-0.040817
-0.048633
-0.045195
-0.016124
0.027639
0.053584
0.030450
0.000439
-0.008627
0.007315
0.011065
-0.029262
-0.083343
-0.091160
-0.056149
-0.004258
0.023562
0.007931
-0.015515
-0.010202
0.008866
0.041063
0.047001
0.020741
-0.011458
-0.043032
-0.051473
-0.063666
-0.048349
-0.019591
-0.003024
-0.008027
-0.007402
-0.005528
0.010101
0.016040
0.014163
0.014162
0.003220
-0.008035
-0.023979
-0.035859
-0.047739
-0.050866
-0.032111
-0.013668
0.005087
0.027593
0.012274
-0.004607
-0.023677
-0.011487
0.007894
0.020084
0.009142
-0.017430
-0.051505
-0.074014
-0.062761
-0.022436
0.013199
0.028203
0.035079
-0.003372
-0.010563
-0.011502
-0.006814
-0.014005
-0.008379
-0.011506
-0.031201
-0.045582
-0.054023
-0.035268
-0.004947
0.022561
0.010056
0.002553
-0.009953
0.010366
0.042250
0.053503
0.016614
-0.058724
-0.096550
-0.088423
-0.051225
-0.020591
-0.002773
0.003165
0.012542
0.013479
0.013790
0.003161
0.000659
-0.001843
-0.011535
-0.031855
-0.059678
-0.061554
-0.056241
-0.022481
0.003151
0.013778
0.004087
0.002835
0.002834
0.002520
0.006583
-0.008110
-0.009362
-0.021242
-0.023431
-0.028746
-0.023120
-0.023434
-0.028124
-0.035628
-0.023750
0.007197
0.020325
0.023450
-0.006561
-0.026569
-0.049702
-0.047828
-0.023446
0.009689
0.015315
-0.018447
-0.032828
-0.036268
-0.004384
0.029376
0.019685
-0.009701
-0.020643
-0.031585
-0.029086
-0.023772
-0.016896
0.022491
0.031242
0.023426
-0.014087
-0.012213
0.015608
0.006541
-0.005651
-0.034412
-0.045979
-0.049106
-0.036916
-0.026913
0.000907
0.016849
0.000905
-0.019728
-0.022230
-0.003162
-0.007227
0.005276
-0.001290
-0.002229
-0.011920
-0.026614
-0.015986
-0.007547
0.007144
-0.003798
-0.001298
-0.006301
-0.018494
-0.030374
-0.039753
-0.034440
-0.033503
-0.014748
0.002132
0.018386
0.004630
-0.001935
0.003065
-0.004751
-0.019444
-0.036326
-0.013820
-0.003817
0.000245
-0.016949
-0.022577
-0.007260
-0.027893
-0.033208
-0.017267
0.004614
-0.001014
-0.003515
-0.019147
-0.021649
-0.002893
-0.009772
-0.002583
-0.008836
-0.010713
-0.032596
-0.040725
-0.015405
-0.001339
0.007100
-0.004780
-0.003530
-0.012597
-0.015724
-0.009473
-0.003222
-0.003536
-0.023231
-0.030734
-0.037925
-0.013856
0.005524
-0.003542
-0.000417
0.004583
0.005520
-0.001046
-0.003548
-0.010113
-0.025119
-0.031372
-0.037313
-0.029812
-0.021685
-0.015747
-0.011684
-0.009184
0.001443
0.011133
0.022698
0.007067
-0.020756
-0.052330
-0.048892
-0.034201
-0.015133
-0.004193
-0.014510
0.007371
0.008308
0.013934
0.008618
-0.010764
-0.027646
-0.040776
-0.028898
-0.026086
-0.022023
-0.012646
-0.015461
0.001419
0.013609
0.008919
0.014545
0.021108
-0.000775
-0.050480
-0.064861
-0.052983
-0.027663
-0.004531
0.011723
-0.014224
-0.040797
-0.041423
-0.023918
0.020470
0.023283
0.018280
0.008276
-0.011732
-0.020486
-0.028615
-0.020801
-0.013299
0.004205
0.007643
-0.005800
-0.011428
-0.013305
-0.004240
-0.018309
-0.030814
-0.042381
-0.042070
-0.020814
-0.004872
0.007006
0.003566
0.003565
-0.000812
-0.006440
-0.018633
-0.029262
-0.030514
-0.043957
-0.038644
-0.027391
-0.009574
0.005430
0.019809
0.031374
0.020744
-0.000514
-0.017083
-0.008956
-0.019586
-0.017086
-0.015211
-0.021777
-0.021466
-0.037409
-0.023656
-0.015842
-0.005840
0.007914
-0.003341
-0.018972
-0.035854
-0.033979
-0.013661
0.011658
0.012283
0.007592
0.003215
-0.004914
0.002275
0.004775
-0.002416
-0.022736
-0.040243
-0.044621
-0.033681
-0.017114
-0.007424
-0.006487
0.007579
0.015705
0.016329
0.001948
-0.014621
-0.017748
-0.018999
-0.032755
-0.038070
-0.020253
-0.027131
-0.018692
-0.019318
-0.028697
-0.018695
0.013502
0.030694
0.026629
0.009435
-0.004946
-0.007135
-0.014639
-0.034959
-0.050278
-0.062470
-0.038401
-0.014957
-0.009331
0.008799
0.020677
0.012235
-0.023715
-0.081860
-0.225971
-0.472615
-0.650175
-0.291308
0.385788
0.655250
0.389850
0.031919
-0.034979
0.381719
0.133511
-0.754281
-0.555780
-0.310388
-0.480757
-0.263812
-0.418551
-0.598299
-0.910277
-1.113157
-1.161924
-1.498286
-0.509838
0.117867
-0.157849
0.536753
1.158518
0.298547
-0.259762
0.969390
1.330133
0.335743
-0.059075
0.072842
0.209135
0.995017
1.835917
0.904673
0.762438
3.441441
1.938759
-1.382332
-0.134423
0.460146
-1.260107
-1.996913
0.166921
0.926544
0.733355
0.933107
-1.709011
-3.301097
-0.513934
1.074712
-0.088171
-0.793091
-0.757143
0.042494
-0.075046
-0.562707
-0.743080
0.366658
-0.325758
1.481084
3.098489
-1.443940
-2.440518
1.458260
2.942808
0.018723
-1.575551
0.143762
1.580795
-0.227612
-0.955977
0.362892
-0.425180
-2.051965
0.634228
1.663627
-2.248908
-2.246408
0.707685
1.381343
-0.132280
-0.233877
1.186588
1.518571
-0.410813
-1.226707
-0.478963
-0.190432
-1.624966
-2.448050
-0.152297
2.780226
2.772723
-1.958206
-2.465873
1.041214
1.173131
0.755180
-1.017903
-2.897896
1.418832
2.923075
0.161855
1.431021
2.223154
0.352227
0.064006
-0.277982
-3.841652
-2.081388
3.296000
3.195028
-2.230503
-3.316173
0.222175
0.843002
0.617615
-0.950088
-1.949792
-0.983539
-0.143577
0.492881
1.643883
0.680753
-0.002910
-0.410857
0.039289
2.306907
1.188414
-1.419317
-1.555301
-0.121394
-0.782862
1.093378
2.420062
0.284985
-0.805374
-1.752560
-0.887590
1.639175
2.069315
0.191511
-1.623148
-1.348059
0.344058
-0.428384
-0.896039
-2.306503
-3.643818
-0.213943
2.595415
0.082402
-2.188344
0.944245
1.281542
-1.305245
-1.041723
0.641329
1.937690
1.209951
-0.451846
-0.161752
0.930168
0.415623
1.231515
2.637288
-0.071415
-1.630365
0.862014
0.562540
-0.326503
0.881392
-0.047351
0.540653
1.475334
-0.616916
-1.066127
-0.670686
-1.522841
-1.044248
0.188968
-0.790104
-1.430941
-1.637572
-0.415922
1.036428
0.624417
0.559395
1.140522
1.379036
-0.966109
-0.492830
1.982669
1.281188
-0.404367
-0.303084
-0.379361
-0.360918
0.680673
-0.053632
0.218019
-0.657582
-2.722323
0.854474
3.589433
-2.047730
-4.517917
-0.015503
1.266167
-1.276544
-0.074588
2.845119
1.755073
-0.200570
-0.041769
-0.456281
-2.258749
-0.700426
2.056728
0.068574
-3.552615
0.400869
3.942655
0.189547
-1.113381
0.914470
-0.158383
-2.823321
-1.069621
2.403392
1.331164
-1.528213
-1.621369
0.819118
1.680962
0.176405
0.591228
1.937293
2.225824
-1.260321
-3.035592
-0.455371
0.294874
-1.341289
-0.228738
1.711273
0.825044
1.456812
1.265811
-2.513243
-2.667982
1.521517
0.172636
-2.574204
-0.278765
0.338937
2.498707
4.102982
-2.106556
-4.673962
-0.475086
3.350544
0.812522
-1.330057
0.402698
-0.103406
-1.802090
-1.749261
2.243923
1.791899
-2.562344
-1.143129
0.329541
0.743113
1.927563
-0.530120
-1.738642
-0.290981
1.061024
0.564298
-0.433531
0.045375
-0.932134
-2.166603
3.700009
6.472167
-1.172217
-3.842782
-2.098773
1.418005
1.117280
-4.053793
-1.060937
2.163557
-0.117192
-0.017785
0.795293
-3.995343
-3.769645
3.824721
4.669685
-1.155978
-1.845580
2.390496
1.975359
-2.290417
-1.153482
5.322079
2.812192
-3.310756
-3.094123
-1.799325
-0.424187
1.206972
2.742162
2.381730
-0.408874
0.333244
-0.722104
-2.952524
-0.241948
0.844345
-1.347626
-3.287638
-0.058142
2.760594
1.141624
1.567075
-0.713049
-3.091330
1.112861
1.387012
-0.059714
1.643656
0.920606
1.314484
2.604594
2.082234
0.797749
0.511404
-0.517060
-2.702466
-1.389849
-0.467359
-2.646200
-4.333630
-0.776214
1.901539
-0.663992
-1.868138
-3.242027
-3.919751
1.315716
2.611765
-0.394535
-1.303897
-1.627754
1.026553
1.447003
-1.511782
-0.518644
3.145682
2.174737
0.163764
-0.725904
-2.307049
-3.322071
-2.583392
0.829289
4.516748
3.232888
2.873707
1.039979
-1.851283
0.361317
-2.654674
-2.813164
3.791189
5.213530
-0.167612
-3.309269
-2.212035
-1.110112
-0.538050
0.103096
3.069381
4.540488
0.896791
-0.877542
0.162798
1.696425
-0.803146
-4.810399
-2.854446
0.128719
1.280033
1.342865
1.202506
-3.564059
-4.746949
2.488549
5.955936
1.616699
-2.545918
-4.258981
-3.275222
2.848661
4.256935
2.705174
2.397885
0.218419
-3.317743
-4.636301
0.189031
5.495146
2.558556
-4.454058
-3.645669
1.118393
0.977721
-0.610301
0.392839
-0.905400
-1.159860
-0.339904
-1.300846
-1.175181
-4.105518
-2.663484
2.582612
1.341266
0.647912
3.830518
0.681359
-2.566896
2.211233
-0.119845
-7.497892
-5.414397
2.055553
3.240003
-0.796322
-3.726347
-1.982339
4.714233
2.981163
1.155563
6.180023
6.518258
4.152168
1.678855
2.867056
6.871182
5.452590
2.854862
4.203428
3.044297
1.121165
1.683536
-0.944515
-5.785792
-4.571958
-2.677587
-8.145945
-10.595500
-8.040288
-6.045572
-4.627607
-4.012094
-4.221851
-6.527922
-8.552962
-8.315385
-4.811112
-1.162103
1.385920
1.783862
3.287166
7.574197
9.140647
8.923388
6.815820
6.079952
9.292568
8.974963
4.671675
1.273371
-1.464716
2.424372
5.115253
1.420915
-1.901426
-2.013964
-2.405344
-5.953696
-5.656100
-1.229336
1.169575
-0.963001
-1.372824
0.016694
0.346176
-2.139328
-3.211869
-2.103069
-1.186206
0.475900
-0.815149
-1.964277
-2.105575
-3.877407
-5.214722
-2.320649
3.063930
6.221840
6.103050
4.408430
2.291484
1.631579
2.792272
2.170504
0.438372
1.065452
0.803177
0.615302
2.499669
-0.283120
-5.781800
-5.052187
0.540272
2.405258
-0.727959
-4.354150
-4.590166
0.479622
2.652834
0.673433
-1.452265
-3.244417
-2.372882
-2.240652
-4.966548
-5.756808
-1.679534
-0.746416
0.820347
2.627814
-0.073699
-1.260964
-2.388210
-4.318532
-4.030939
-0.476649
3.296150
5.608471
4.974824
5.252102
8.762002
7.882025
2.473061
2.717516
6.305567
3.748789
-1.682994
-4.218827
-2.365720
-1.112185
-3.875280
-3.667401
-0.723311
0.712785
1.908801
3.262682
3.111068
1.826271
0.908468
-0.780837
-1.945908
0.182602
1.711853
-2.692719
-6.594625
-6.840019
-6.706226
-4.497065
-0.346954
1.119463
1.631818
2.966317
1.741852
1.648695
3.078538
2.615260
1.258877
-0.070623
-1.836204
-2.440465
-1.508598
-2.384512
-3.458928
-1.854965
0.612093
-0.551727
-4.038810
-2.704936
0.151625
0.816843
1.046604
0.641158
0.734625
1.605535
1.976593
1.065668
2.733089
3.930981
0.284471
0.647401
5.970397
5.558698
-0.182249
-2.029106
0.070957
2.339825
1.755570
-1.511441
-1.775278
0.924669
-0.998776
-3.606820
-1.707760
-1.696508
-1.069428
2.934697
3.266367
-2.052879
-4.483365
-3.191067
-0.643045
0.230679
-2.859712
-2.432385
-1.093509
-3.624028
-2.345485
1.715222
0.946218
-0.067240
0.002156
-0.417045
0.414164
1.174725
2.254141
2.885910
2.896225
3.456095
2.113466
0.641732
1.315389
1.355401
2.419187
3.933120
1.659873
-2.948515
-2.602778
0.456037
-2.074794
-5.573131
-6.331506
-4.233631
-3.862260
-5.224896
-3.995744
-0.858465
2.496697
1.256602
0.053393
2.419794
4.583628
4.686785
4.769311
4.015313
3.010920
3.558286
2.434478
-0.555566
-1.307064
1.655470
2.886497
0.474455
-1.742836
-0.841917
0.942418
-1.027605
-3.418078
-2.528099
-0.650922
-0.401153
-2.732232
-3.792268
-2.344919
-1.886020
-3.754134
-2.946995
-0.585909
-3.110488
-4.571281
-1.090140
0.705448
0.455677
1.701085
3.733313
5.305390
7.151933
6.035628
2.878028
1.832684
1.632305
3.085593
3.366309
1.115882
-0.268948
0.554446
0.985836
-0.918227
-3.350589
-3.150524
-2.114248
-3.945162
-5.809837
-5.365318
-4.963937
-3.487204
-0.241452
1.002705
-0.957627
-0.825397
1.858920
1.243717
-0.200508
0.785127
3.207484
2.251856
-0.388073
0.279645
2.384397
1.402824
-1.716639
0.173981
3.539146
3.615108
2.481297
1.542238
2.596020
3.282494
3.666682
5.124972
4.165906
1.325285
-1.084569
-2.695411
-3.976770
-4.191529
-3.294361
-2.809828
-3.363761
-4.201537
-5.129968
-4.722335
-3.865492
-2.592576
0.443107
0.081425
0.502812
1.981421
0.935139
2.126154
3.232766
1.495632
0.703496
2.796995
3.760747
2.034555
-0.501904
-1.304043
-0.415315
0.591577
1.847613
1.926075
-0.276524
-1.169943
0.686603
1.437160
-0.031135
-1.904563
-1.812034
-1.621035
-3.484460
-4.048396
-3.514784
-3.653268
-4.699863
-5.212220
-2.626685
-0.610712
-2.481014
-4.135308
-0.253410
4.337783
3.755716
1.891353
3.089557
3.345578
2.380260
3.730702
4.891082
3.548140
1.072639
1.771305
1.885716
0.978230
1.640946
0.680943
-0.296879
1.328966
2.004186
0.112002
0.196091
1.580606
2.595001
2.886345
1.841626
0.175766
-1.361302
-1.990259
-2.143123
-3.355084
-3.577658
-1.878352
-2.354134
-3.894015
-3.562032
-1.556375
-0.146539
-0.873966
-1.916809
-1.645471
-1.856479
-2.428230
-1.378199
-0.562933
-0.803013
-0.321606
0.441769
-1.143128
-3.000926
-1.463547
1.010076
0.805945
1.049774
4.318658
6.356826
4.632196
2.156383
2.806595
4.960426
4.335532
2.131058
0.694023
-0.637665
-2.667082
-4.921886
-5.001288
-4.827794
-5.059434
-3.457034
-2.825266
-2.598005
-0.251923
1.636508
1.796872
2.448022
3.288296
2.746868
1.058813
0.678062
1.417991
1.007855
0.896568
0.151947
-0.068751
2.386741
3.596512
1.887513
0.016585
-0.086575
0.584894
2.115083
3.314225
2.967548
1.245107
0.009700
1.363581
1.488621
-0.803070
-2.994415
-1.742130
0.813083
-0.589879
-2.638365
-1.844668
-1.869677
-3.604310
-2.772163
-1.585837
-2.501764
-3.206996
-1.732451
0.173173
-1.709321
-4.007576
-3.219506
-1.828425
-2.005672
-2.662764
-1.364214
0.623312
0.462634
-1.798422
-1.021606
2.371694
4.494265
4.691203
3.300121
3.074421
3.059102
3.024715
4.054426
4.523642
1.647697
-0.480190
1.778363
1.423558
-1.201367
-1.673398
-1.211685
-0.453938
0.863056
0.134066
-2.120738
-3.482748
-4.360537
-2.589645
-0.798746
-1.673721
-1.498040
-0.326719
0.225336
0.466664
0.595455
2.356345
3.676777
2.949662
2.579540
2.525146
2.086876
1.499495
1.031840
0.394130
-0.362995
0.407257
1.052467
0.299094
-0.322361
-1.738139
-1.473053
-1.262047
-2.507457
-2.483075
-2.271132
-0.725313
-0.438658
-2.080760
-2.314275
-3.512794
-4.040156
-1.387412
0.296890
-1.198914
-2.454015
-2.653456
-1.726903
0.046490
1.121842
2.216887
2.284721
1.340035
0.453493
0.858312
0.369713
0.002717
1.360349
1.654507
1.606052
2.323162
2.198119
2.442261
2.500404
0.870493
1.059617
1.806423
1.485379
0.266228
-0.624690
-0.107959
0.028334
-0.788185
-1.299916
-0.097648
1.800161
1.675432
0.386570
-0.104842
0.918618
2.389099
1.855486
0.304351
0.722612
1.127118
-0.736619
-1.912319
-1.246789
-1.239913
-3.337789
-4.040834
-3.814511
-3.890787
-2.252125
-0.605961
0.287456
-0.105174
-1.548461
-0.719753
