EVENT_NAME: 202504231212
EVENT_ID: 18670
EVENT_DATE_YYYYMMDD: 20250423
EVENT_TIME_HHMMSS: 121257
EVENT_LATITUDE_DEGREE: 40.83333
EVENT_LONGITUDE_DEGREE: 28.31417
EVENT_DEPTH_KM: 7.02
HYPOCENTER_REFERENCE: AFAD
MAGNITUDE_W: 4.9
MAGNITUDE_W_REFERENCE: AFAD
MAGNITUDE_L: 
MAGNITUDE_L_REFERENCE: 
FOCAL_MECHANISM: 
NETWORK: TK
STATION_CODE: 3429
STATION_NAME: 
STATION_LATITUDE_DEGREE: 41.08492
STATION_LONGITUDE_DEGREE: 28.25964
STATION_ELEVATION_M: 5.0
LOCATION: Istanbul_Buyukcekmece_Turkiye
SENSOR_DEPTH_M: 
VS30_M/S: 230
SITE_CLASSIFICATION_EC8: unknown
MORPHOLOGIC_CLASSIFICATION: 
EPICENTRAL_DISTANCE_KM: 28.35
EARTHQUAKE_BACKAZIMUTH_DEGREE: 
DATE_TIME_FIRST_SAMPLE_YYYYMMDD_HHMMSS: 20250423_121232
DATE_TIME_FIRST_SAMPLE_PRECISION: millisecond
SAMPLING_INTERVAL_S: 0.01
NDATA: 10501
DURATION_S: 
STREAM: HNE
UNITS: cm/s^2
INSTRUMENT: sensor = CMG-5T/GURALP | digitizer = 
INSTRUMENT_ANALOG/DIGITAL: 
INSTRUMENTAL_FREQUENCY_HZ: 
INSTRUMENTAL_DAMPING: 
FULL_SCALE_G: 
N_BIT_DIGITAL_CONVERTER: 
PGA_CM/S^2: 36.808
TIME_PGA_S: 
BASELINE_CORRECTION: -
FILTER_TYPE: BUTTERWORTH
FILTER_ORDER: 
LOW_CUT_FREQUENCY_HZ: 
HIGH_CUT_FREQUENCY_HZ: 
LATE/NORMAL_TRIGGERED: 
DATABASE_VERSION: 
HEADER_FORMAT: DYNA 1.2
DATA_TYPE: Acceleration
PROCESSING: Unprocessed
DATA_TIMESTAMP_YYYYMMDD_HHMMSS: 
DATA_LICENSE: U (unknown license)
DATA_CITATION: Turkish Accelerometric Archive v 1.0 - Disaster And Emergency Management Presidency, Earthquake Department
DATA_CREATOR: AFAD
ORIGINAL_DATA_MEDIATOR_CITATION: : AFAD - Disaster And Emergency Management Presidency
ORIGINAL_DATA_MEDIATOR: AFAD PROCESS SERVICE
ORIGINAL_DATA_CREATOR_CITATION: AFAD PROCESS SERVICE
ORIGINAL_DATA_CREATOR: network: TK
USER1: GuestUser
USER2: 
USER3: 
USER4: 
USER5: 
[...]
-0.037076
-0.052104
-0.070573
0.004485
-0.040885
-0.105022
-0.054362
-0.074083
-0.061272
-0.022498
-0.065991
-0.107920
-0.071336
-0.066033
-0.092947
-0.078885
-0.022595
-0.063898
-0.119590
-0.041404
-0.068631
-0.073963
-0.036128
-0.056161
-0.102156
-0.069013
-0.071217
-0.110643
-0.065301
-0.055305
-0.095357
-0.051579
-0.007489
-0.051294
-0.042550
-0.094175
-0.092312
-0.024136
-0.030406
-0.115188
-0.068595
-0.073300
-0.093959
0.005184
-0.004526
-0.066787
-0.063673
-0.064312
-0.127824
-0.051202
-0.076552
-0.130055
-0.089092
-0.075343
-0.088181
-0.014687
-0.055678
-0.125133
-0.042568
-0.094819
-0.112349
-0.036666
-0.093609
-0.106135
0.002080
-0.060494
-0.035484
-0.008910
-0.132792
-0.117165
-0.074639
-0.120947
-0.045263
-0.045903
-0.104722
-0.012461
-0.047508
-0.076299
-0.045972
-0.119180
-0.057260
-0.000970
-0.054785
-0.039785
-0.075457
-0.111130
-0.036072
-0.064864
-0.052678
-0.045185
-0.147797
-0.038331
-0.081824
-0.112492
-0.033680
-0.049647
-0.066552
-0.059058
-0.116940
-0.105380
-0.062541
-0.089142
0.012191
-0.075094
-0.051022
-0.027263
-0.079827
-0.003205
-0.076101
-0.080181
-0.060802
-0.143707
-0.070839
-0.032066
-0.053663
0.003879
-0.059633
-0.034623
-0.055282
-0.100964
-0.018399
-0.112565
-0.072228
-0.058479
-0.110417
-0.038487
-0.115136
-0.022249
-0.110472
-0.151775
-0.054822
-0.129907
-0.014498
-0.091460
-0.086469
-0.054891
-0.100886
-0.015506
-0.096221
-0.093420
-0.060277
-0.093135
-0.040911
-0.060318
-0.043441
-0.042829
-0.108531
-0.061625
-0.107933
-0.065719
-0.089505
-0.091083
-0.027912
-0.046693
0.016791
-0.083005
-0.056119
-0.104616
-0.066156
-0.071174
-0.102468
-0.002699
-0.068088
-0.030253
-0.116912
-0.057494
-0.057508
-0.122584
-0.035952
-0.111976
-0.037544
-0.113880
-0.039448
-0.031016
-0.080140
-0.028542
-0.111447
-0.033261
-0.148698
-0.027971
-0.135588
-0.051146
-0.098079
-0.036472
-0.030855
-0.045571
-0.043708
-0.135997
-0.033100
-0.145721
-0.017175
-0.163891
0.033158
-0.109805
0.010296
-0.072296
-0.059798
-0.047300
-0.129893
-0.089868
-0.097702
-0.027962
-0.071142
-0.012350
-0.120279
-0.005183
-0.132505
-0.055571
-0.145983
-0.016186
-0.105034
-0.074394
-0.078161
-0.091313
-0.059421
-0.062876
-0.037865
-0.075728
-0.045087
-0.078571
-0.023532
-0.107063
-0.045455
-0.093953
-0.047360
-0.104616
-0.078042
-0.065856
-0.038031
-0.047116
-0.029300
-0.076547
-0.076248
-0.101285
-0.059384
-0.070346
-0.079744
-0.040658
-0.110738
-0.053510
-0.091685
-0.071054
-0.098281
-0.090475
-0.089863
-0.049213
-0.073625
-0.051743
-0.062705
-0.037382
-0.045842
-0.069941
-0.086846
-0.086547
-0.069982
-0.082821
-0.056872
-0.050943
0.010665
-0.040648
-0.083828
-0.094790
-0.084168
-0.071045
-0.075751
-0.102665
-0.062641
-0.097688
-0.103019
-0.067687
-0.084279
-0.029553
-0.055216
-0.056168
-0.069632
-0.065580
-0.080295
-0.127229
-0.115043
-0.102232
-0.088483
-0.057217
-0.049098
-0.038164
-0.040993
-0.057898
-0.053533
-0.074817
-0.094849
-0.129271
-0.101759
-0.095516
-0.068317
-0.054880
-0.032998
-0.019249
-0.041784
-0.043987
-0.068400
-0.064347
-0.082190
-0.084394
-0.053440
-0.045634
-0.051904
-0.060989
-0.064131
-0.033490
-0.080737
-0.069802
-0.102034
-0.094854
-0.097057
-0.085185
-0.058611
-0.080208
-0.036742
-0.055837
-0.068363
-0.109353
-0.078087
-0.088736
-0.073735
-0.085948
-0.068133
-0.036867
-0.056274
-0.085378
-0.107287
-0.070391
-0.059770
-0.059471
-0.091077
-0.097034
-0.090166
-0.052019
-0.051407
-0.050795
-0.055814
-0.063335
-0.026125
0.007330
-0.048675
-0.124385
-0.143793
-0.113152
-0.076256
-0.054061
-0.103810
-0.069729
0.002201
-0.023775
-0.129827
-0.289368
-0.125788
0.044047
0.072811
-0.078284
-0.248460
-0.222825
0.008632
0.250411
0.125904
-0.163761
-0.358023
-0.259192
-0.027735
0.119266
-0.014938
-0.181673
-0.182626
0.046016
0.177690
0.052870
-0.182055
-0.343473
-0.197410
0.065640
0.227968
0.073432
-0.163057
-0.262541
-0.186545
-0.065506
0.016434
-0.012357
-0.081812
-0.111229
-0.075271
0.019180
-0.031507
-0.123796
-0.161659
-0.138838
-0.036254
-0.017187
-0.084453
-0.240866
-0.147978
0.013412
0.031853
-0.101726
-0.274404
-0.207792
0.056822
0.325501
0.146880
-0.229430
-0.460602
-0.255420
0.092711
0.122413
-0.086863
-0.250157
-0.120360
0.152073
0.229946
-0.008107
-0.304340
-0.299975
-0.103864
0.100066
0.067209
-0.114228
-0.181806
-0.098616
0.026177
0.022097
-0.053927
-0.144652
-0.168439
-0.128727
-0.045537
0.011379
0.007924
-0.049019
-0.076559
-0.114108
-0.162919
-0.182639
-0.123847
-0.058798
-0.011580
-0.001584
-0.022242
-0.041962
-0.046043
-0.085156
-0.093616
-0.122094
-0.089890
-0.062690
-0.052694
-0.046452
-0.061480
-0.084015
-0.114058
-0.105939
-0.134730
-0.073123
-0.087838
-0.045937
-0.086614
-0.045026
-0.036907
-0.053499
-0.109817
-0.197727
-0.131427
-0.061687
-0.017909
-0.053895
-0.038581
-0.021704
0.009249
-0.023921
-0.098068
-0.157826
-0.118740
-0.079029
-0.059024
-0.062165
-0.054046
-0.071577
-0.083164
-0.118524
-0.095078
-0.086959
-0.065703
-0.003782
0.006839
0.005261
-0.082962
-0.117070
-0.159625
-0.093325
-0.073633
-0.033609
-0.053641
-0.059911
-0.051167
-0.059000
-0.079972
-0.112516
-0.071866
-0.062809
-0.057505
-0.069093
-0.041580
-0.046912
-0.056622
-0.102304
-0.087304
-0.130484
-0.093900
-0.104549
-0.042316
-0.022311
-0.018571
-0.030158
-0.061452
-0.109637
-0.168457
-0.103096
-0.135953
-0.058706
-0.111270
-0.002430
-0.035600
-0.014344
-0.084111
-0.108836
-0.102907
-0.097916
-0.016602
-0.050711
-0.025388
-0.135194
-0.075463
-0.139601
-0.054221
-0.105846
-0.083964
-0.124329
-0.061470
-0.001740
-0.008322
0.017939
-0.095620
-0.061539
-0.149449
-0.114430
-0.159799
-0.080049
-0.063172
0.005317
-0.054754
-0.075413
-0.128602
-0.154891
-0.089530
-0.073278
0.008035
-0.047656
-0.012011
-0.111182
-0.061774
-0.130290
-0.076190
-0.099038
-0.064644
-0.064345
-0.096890
-0.023396
-0.084406
-0.023424
-0.111647
-0.025954
-0.110110
-0.092607
-0.102631
-0.067611
-0.064184
-0.100795
-0.032306
-0.085496
-0.009499
-0.048926
-0.007963
-0.154992
-0.122788
-0.062119
-0.046492
-0.040250
-0.078113
-0.034335
-0.143828
-0.095983
-0.118519
-0.018750
-0.049418
-0.063195
-0.090735
-0.178645
-0.122668
-0.133004
0.017751
-0.019486
0.006463
-0.077068
-0.108362
-0.099617
-0.133726
-0.060232
-0.098720
-0.037113
-0.102502
-0.033387
-0.084387
-0.070012
-0.071277
-0.093812
-0.051598
-0.101972
-0.010962
-0.100749
-0.054156
-0.079819
-0.046363
-0.065145
-0.102695
-0.075808
-0.142448
-0.076148
-0.126522
-0.035825
-0.055858
-0.029284
-0.052132
-0.086553
-0.033704
-0.122240
-0.082841
-0.136343
-0.060973
-0.056920
-0.015019
-0.009715
-0.091369
-0.077620
-0.131435
-0.097041
-0.143349
-0.068604
-0.034523
-0.029845
-0.066769
-0.128716
-0.104958
-0.119047
-0.033042
-0.069027
-0.025875
-0.045595
-0.065002
-0.055006
-0.095684
-0.060352
-0.115731
-0.064133
-0.083227
-0.072919
-0.078876
-0.107354
-0.098297
-0.108633
-0.042646
-0.064556
-0.042048
-0.063958
-0.089621
-0.084317
-0.126246
-0.103738
-0.126586
-0.064666
-0.045912
-0.065945
-0.042499
-0.069413
-0.043152
-0.072882
-0.045369
-0.057269
-0.083245
-0.075752
-0.094847
-0.097363
-0.101130
-0.092073
-0.094276
-0.081778
-0.080541
-0.048962
-0.047724
-0.072136
-0.082160
-0.095311
-0.078747
-0.067500
-0.074082
-0.070968
-0.097882
-0.061612
-0.082896
-0.088227
-0.078544
-0.092321
-0.063557
-0.074832
-0.061708
-0.131476
-0.134618
-0.105854
-0.078342
-0.053644
-0.038957
-0.040847
-0.055875
-0.029927
-0.054339
-0.085007
-0.102537
-0.080655
-0.071598
-0.077555
-0.067246
-0.106360
-0.096051
-0.073857
-0.066989
-0.037287
-0.031983
-0.030433
-0.068921
-0.083323
-0.103669
-0.103683
-0.086493
-0.078061
-0.073696
-0.108743
-0.134719
-0.111898
-0.055296
-0.027470
-0.055949
-0.081925
-0.130422
-0.131062
-0.098857
-0.098558
-0.066667
-0.067619
-0.049490
-0.057011
-0.040447
-0.040461
-0.073318
-0.047683
-0.072720
-0.087436
-0.102464
-0.084335
-0.055571
-0.070912
-0.062481
-0.091585
-0.046243
-0.068778
-0.077863
-0.086948
-0.100099
-0.082283
-0.117956
-0.050406
-0.082012
-0.071703
-0.087357
-0.063911
-0.057669
-0.080517
-0.024540
-0.077104
-0.079933
-0.098402
-0.081837
-0.080287
-0.090310
-0.069679
-0.091589
-0.102551
-0.091929
-0.083498
-0.076004
-0.083838
-0.097615
-0.101070
-0.118600
-0.106102
-0.067329
-0.040755
-0.062664
-0.047664
-0.074578
-0.059578
-0.072416
-0.058354
-0.010197
-0.068078
-0.056206
-0.091253
-0.083447
-0.100977
-0.090669
-0.077232
-0.090384
-0.075383
-0.095103
-0.063837
-0.058533
-0.061362
-0.088590
-0.102679
-0.082361
-0.111465
-0.095839
-0.089910
-0.077724
-0.062098
-0.058984
-0.048363
-0.110311
-0.105320
-0.136301
-0.094399
0.007246
0.012237
-0.060346
-0.125422
-0.168289
-0.145781
-0.058211
-0.155818
-0.109851
0.009312
-0.181196
-0.081427
0.005830
-0.181863
-0.139962
-0.208791
-0.139990
-0.103093
0.018259
0.230948
-0.083428
-0.115347
0.038223
-0.333395
-0.534851
-0.199545
-0.113852
-0.261507
-0.213037
-0.096690
-0.158951
-0.173666
-0.002266
-0.146167
-0.275367
0.148461
0.105907
-0.505940
0.179699
0.560987
0.047671
0.117724
0.289749
0.075782
-0.054356
0.085763
-0.261456
-0.421310
0.189884
0.536450
0.294644
0.537987
0.042501
-0.363838
-0.292221
-0.329770
-0.256277
-0.089256
-0.483083
-0.709250
0.610745
0.181572
-0.805633
-0.023651
-0.021476
-0.775958
-0.460046
-0.484145
-0.537960
-0.282105
0.203656
0.616536
0.211136
-0.634684
-0.351928
0.392517
-0.528061
-0.509307
0.363386
0.160366
-0.313224
-0.027340
-0.003894
-0.026117
0.050192
0.110861
-0.070888
-0.500061
-0.229192
-0.041527
-0.021521
-0.143214
0.233382
0.061954
-0.309351
0.098211
0.077553
0.157928
0.459765
-0.101096
0.062171
0.292689
-0.852792
0.103106
0.784054
-0.922587
-1.444348
-0.310781
-0.189117
0.342626
1.138684
0.075156
-0.551705
-0.275831
-0.180441
-0.583339
-0.088193
0.646556
0.414446
0.047207
-0.344743
-0.644417
0.300219
0.102830
-0.908147
-0.347940
-0.207507
-0.282593
-0.119013
-0.140610
0.014837
0.593187
0.115218
-0.555435
-0.387789
-0.210759
0.052603
-0.282418
-0.938056
0.044742
1.233674
0.539248
-0.284676
-0.814257
-0.530250
-0.019778
-0.127707
-0.572832
-0.980422
0.212889
1.386807
0.817813
0.030799
0.017022
-0.160035
-0.352420
0.176508
0.139897
-0.197939
-0.039051
-0.245825
-0.215184
-0.096960
-0.761670
-0.900254
-0.146111
-0.322856
-0.990694
-0.281907
0.250149
0.141594
1.236374
1.253877
0.314217
0.721467
0.160293
-0.464066
0.006369
0.082365
0.651018
1.190581
-0.113175
-1.022806
-0.133222
0.419479
0.177672
-0.375056
-1.051027
-1.315042
-0.647858
-0.268447
-0.135209
-0.135536
-0.731743
-1.185314
-1.169688
-0.909141
-0.573835
0.222848
0.077696
-0.245751
0.277234
0.221542
0.503359
1.553722
0.540555
-0.366574
0.854889
0.848619
0.327484
0.893322
0.887678
-0.152077
-0.152404
-0.133649
-0.696387
-1.096782
-0.789941
0.045529
-0.027680
-0.942628
-0.976424
-0.448122
-1.242643
-1.367776
-0.083441
-0.068127
-0.588637
0.425128
1.257157
0.956857
0.128241
-0.133585
0.026554
-0.058854
-0.567477
-0.226854
0.334918
0.592337
0.802836
0.749960
0.405242
-0.392094
-0.865997
-0.795944
-0.356476
-0.320206
0.455520
0.927206
-0.105668
-0.313066
0.912463
0.391327
-0.582740
-0.052248
-0.576199
-1.112348
0.253940
-0.474893
-1.341984
0.016485
0.408094
0.312677
0.634533
0.339550
-0.751504
-0.758086
-0.708052
-0.328642
0.297566
-0.472557
-0.500409
0.494900
0.588413
0.772638
-0.288387
-1.389763
-0.850200
-0.753247
-0.620634
0.105669
0.731252
0.881381
0.054955
-0.324483
0.260748
-0.535650
-0.660783
-0.140613
-0.314856
0.771479
0.812128
0.295998
0.551540
-0.696225
-0.983701
0.916221
0.228364
-1.016899
0.664065
1.172973
0.633070
1.362189
1.411910
0.283320
-0.366375
-0.484314
0.533517
-0.067694
-1.138103
-0.078670
0.141213
-0.647364
-0.408400
-0.408414
-1.065617
-2.102557
-2.080987
-0.756614
-0.717528
0.326891
0.375987
-1.247449
-1.079803
0.647454
1.814803
0.476639
-0.685733
0.331160
0.358360
0.191312
-0.004514
-0.486236
0.768070
0.939783
-0.007071
0.168395
-0.308011
-0.628017
0.231851
0.027581
-0.770694
0.544295
1.218987
-0.349396
-1.085737
-0.595596
0.067835
-0.123924
-0.397949
-0.509945
-0.967895
0.287976
1.117816
-0.288226
0.202541
-0.082120
-1.154718
-0.536956
-0.659586
-0.468168
0.866528
0.208387
-0.593015
-0.125396
-0.106016
0.076331
0.563344
0.542060
0.390965
-0.352883
-1.156788
-0.700742
-1.584723
-0.466797
1.071531
0.686462
1.721810
1.745882
-0.394922
-0.390244
0.233462
0.204671
0.773324
0.298170
-0.144141
0.417631
0.344422
-0.346875
-0.078196
-0.335955
-0.414168
-0.682250
-0.576538
-0.070757
-0.208402
0.084989
0.646447
0.045861
-0.904746
-0.604786
-0.927608
-1.386809
-1.308311
-1.779086
-2.334316
-0.840093
0.565920
0.221516
0.420754
-0.024371
-1.212705
-0.786688
0.756332
1.767907
1.603361
-0.039781
-0.240611
1.636164
3.260824
4.168550
5.129452
4.380912
2.757789
1.779030
0.548781
0.285704
-0.898251
-2.373421
-1.791943
-0.548271
0.267493
2.077642
2.821462
4.032915
9.486537
13.740578
14.260435
16.957992
21.026856
22.446320
22.543274
21.260162
17.334532
14.643203
11.509577
5.822268
0.564743
-6.446641
-14.231888
-20.411541
-25.036588
-29.489284
-33.060826
-35.964858
-36.807550
-35.680552
-33.993333
-30.723355
-27.229726
-24.714218
-21.889664
-18.275921
-15.182987
-10.296781
-3.121831
2.418123
7.024062
10.774497
13.425448
15.120174
16.724189
19.825256
23.810916
27.168790
28.072451
28.222580
26.784007
25.714850
22.203677
16.317115
9.117739
2.497040
-0.546500
-2.424553
-5.543477
-8.745606
-9.526989
-8.706534
-6.311765
-6.108460
-7.638057
-9.762595
-10.555240
-10.375707
-7.464509
-3.365929
-1.195749
-1.661832
-3.874267
-6.078569
-5.963160
-4.273439
-3.541192
-2.276876
-2.383867
-0.753576
2.345926
6.459834
8.655663
6.611200
1.871044
-1.508128
-1.597602
-0.472481
-0.181280
-0.986436
-1.203532
-0.181634
0.713580
0.018216
0.646301
3.794913
8.302321
10.820645
11.101836
7.236263
-0.107000
-5.444288
-6.554735
-5.647009
-5.262906
-5.525983
-5.277636
-3.104641
-2.367076
-5.254217
-7.485733
-7.784156
-6.735670
-4.708127
-2.402193
-0.648034
1.469282
2.647579
1.506478
0.234314
-2.045998
-3.422011
-3.424840
-3.591575
-5.154954
-6.644825
-7.553205
-5.910090
-1.852174
1.747181
4.552966
5.904553
5.891714
5.356816
6.702460
7.851353
8.876692
9.956770
9.044324
7.413381
6.023292
6.194066
7.963864
9.484362
10.208163
10.760864
11.211279
11.207825
10.317275
7.730107
5.053167
4.291177
4.444434
2.106255
-1.956694
-5.330236
-8.941191
-12.542137
-14.320408
-15.158096
-16.355814
-16.584170
-16.345832
-15.051487
-11.890362
-8.979477
-6.689495
-4.426102
-3.871212
-4.727980
-5.340139
-5.799028
-4.664836
-0.735167
3.318058
5.320578
5.908937
6.986200
8.766320
9.700009
8.580178
4.966407
1.035459
-0.135983
1.431434
3.097696
3.491808
2.426091
-0.074744
-1.141399
1.285900
3.681920
3.032225
0.877657
-1.718581
-3.566919
-3.484980
-3.964826
-4.274510
-3.250735
-2.927941
-3.078098
-1.518813
-1.090919
-3.375298
-5.178593
-5.050359
-4.085078
-2.491698
0.439832
3.783318
8.245995
10.189396
9.413955
9.550947
9.884376
9.116756
8.338188
6.867084
6.108535
7.498909
7.093196
4.818827
2.035848
-0.297014
-1.230105
-0.681471
-0.906699
-3.028736
-6.189575
-8.079202
-8.645380
-9.328545
-9.777737
-11.038953
-12.978315
-14.772539
-14.456001
-12.707474
-9.873223
-6.240712
-2.788999
0.846015
2.812250
4.074064
5.930194
8.467599
10.362203
12.422904
14.970318
15.712261
13.549248
10.562638
8.251984
5.970421
4.635072
2.808630
0.550839
-0.276839
-0.679736
-2.788635
-4.809951
-5.909450
-6.353637
-6.788753
-7.814745
-8.796319
-8.558293
-7.715316
-6.576119
-4.656178
-1.972071
0.981668
2.780243
2.917861
2.033879
2.601907
3.442695
3.670085
4.111117
4.360716
4.049155
3.504247
1.354372
-2.070782
-4.325132
-6.182541
-8.617063
-9.370294
-8.455061
-7.174166
-6.334943
-6.314937
-5.689668
-3.544512
-1.626447
-1.483512
-1.867955
-2.405043
-2.836406
-2.798571
-2.531455
-2.538976
-2.384780
-1.526476
-0.210548
0.745349
1.316192
2.226421
4.231443
4.974950
5.215478
6.486989
8.596799
11.134516
13.162060
14.767013
14.249319
11.572378
8.077471
6.028629
5.309805
4.382345
2.521808
0.427298
-1.876161
-3.423275
-3.464265
-3.395463
-3.261912
-3.466496
-3.773678
-4.657972
-6.764055
-8.323993
-9.017481
-9.185467
-7.302749
-3.944249
-1.234805
0.306963
2.226591
4.729275
7.177845
8.611698
9.455927
10.830035
10.834713
9.726768
8.904721
7.295986
5.062907
3.062549
-0.189314
-4.352984
-8.644276
-11.933674
-13.555547
-14.444220
-15.168361
-15.767696
-16.140253
-16.927267
-16.624179
-15.063643
-12.347005
-8.533697
-3.875521
1.150506
4.808979
7.187482
8.043597
7.786463
8.337913
10.220318
12.376109
13.487780
13.176845
11.941278
11.359773
11.048212
9.640294
7.642751
5.674924
3.804378
2.086789
1.604128
1.520910
1.518394
1.040737
-0.469466
-2.490782
-4.177090
-4.482082
-4.855890
-5.107706
-4.219060
-3.153058
-2.780529
-2.546883
-2.378611
-2.630115
-3.122160
-3.749960
-4.784710
-5.637724
-6.325581
-6.716905
-5.726600
-4.359373
-2.989331
-2.306194
-3.030022
-4.429182
-5.500217
-5.129252
-3.763902
-2.606250
-1.653793
-0.955642
-0.907797
-0.449875
0.920793
2.674013
4.898932
7.186724
7.531726
6.101912
5.255154
5.500374
5.790011
5.679267
5.444967
4.583507
3.149627
1.360721
-0.145103
-1.190801
-1.843312
-2.319405
-3.000067
-4.120837
-5.992947
-7.335178
-7.144385
-6.187549
-6.017401
-5.765299
-5.210096
-4.427176
-2.525378
-0.194107
1.722394
3.512524
4.765892
4.714892
5.105250
7.219752
10.471900
12.871048
13.426251
12.002693
9.305108
7.096427
5.445464
4.619351
4.791376
5.330000
5.706596
5.697823
5.673724
5.131944
3.518205
0.586647
-3.133475
-6.443206
-8.886799
-10.501477
-10.755170
-10.121455
-10.504021
-11.934773
-13.288577
-13.927012
-13.659271
-11.762164
-9.438087
-7.924158
-6.227242
-3.844672
-1.130850
0.893566
2.635212
4.515115
5.200130
4.260157
2.703973
2.534110
3.820322
5.307663
6.332063
6.324230
6.167817
6.156229
6.461194
7.315432
7.862815
7.289442
5.494592
2.312170
-1.315676
-4.868451
-7.977679
-9.065291
-9.041533
-8.587676
-7.109406
-5.584529
-4.888254
-3.938300
-2.626126
-1.352113
0.891575
2.652614
3.562843
4.838420
5.608515
6.243169
7.651685
9.094922
9.817785
9.133681
6.880270
4.499549
2.989659
2.388134
2.101910
1.953943
2.422501
2.927030
2.064007
0.406788
-1.081206
-2.213237
-3.216707
-3.482912
-4.038142
-5.482032
-6.570271
-7.387000
-7.165866
-6.958182
-7.157761
-6.979792
-6.758658
-7.173129
-8.564782
-9.831941
-9.255781
-8.021493
-7.963639
-8.041227
-7.787561
-7.589574
-6.127256
-4.067807
-2.116274
-0.621738
0.166500
0.495862
1.038240
2.173058
2.799579
3.687599
4.206205
4.658810
6.228730
8.211231
9.608486
10.367321
9.841181
9.197115
8.882427
8.374116
7.984981
7.800104
7.915825
8.043433
7.755645
6.190702
3.631687
1.135231
-0.872634
-2.037821
-1.776961
