EVENT_NAME: 202504131443
EVENT_ID: 18606
EVENT_DATE_YYYYMMDD: 20250413
EVENT_TIME_HHMMSS: 144302
EVENT_LATITUDE_DEGREE: 40.80278
EVENT_LONGITUDE_DEGREE: 36.16944
EVENT_DEPTH_KM: 6.21
HYPOCENTER_REFERENCE: AFAD
MAGNITUDE_W: 4.6
MAGNITUDE_W_REFERENCE: AFAD
MAGNITUDE_L: 
MAGNITUDE_L_REFERENCE: 
FOCAL_MECHANISM: 
NETWORK: TK
STATION_CODE: 0509
STATION_NAME: 
STATION_LATITUDE_DEGREE: 40.76096
STATION_LONGITUDE_DEGREE: 36.32186
STATION_ELEVATION_M: 214.0
LOCATION: Amasya_Tasova_Turkiye
SENSOR_DEPTH_M: 
VS30_M/S: 373
SITE_CLASSIFICATION_EC8: B
MORPHOLOGIC_CLASSIFICATION: 
EPICENTRAL_DISTANCE_KM: 13.65
EARTHQUAKE_BACKAZIMUTH_DEGREE: 
DATE_TIME_FIRST_SAMPLE_YYYYMMDD_HHMMSS: 20250413_144234
DATE_TIME_FIRST_SAMPLE_PRECISION: millisecond
SAMPLING_INTERVAL_S: 0.01
NDATA: 10501
DURATION_S: 
STREAM: HNN
UNITS: cm/s^2
INSTRUMENT: sensor = AC-73,/GeoSig | digitizer = 
INSTRUMENT_ANALOG/DIGITAL: 
INSTRUMENTAL_FREQUENCY_HZ: 
INSTRUMENTAL_DAMPING: 
FULL_SCALE_G: 
N_BIT_DIGITAL_CONVERTER: 
PGA_CM/S^2: 301.389
TIME_PGA_S: 
BASELINE_CORRECTION: -
FILTER_TYPE: BUTTERWORTH
FILTER_ORDER: 
LOW_CUT_FREQUENCY_HZ: 
HIGH_CUT_FREQUENCY_HZ: 
LATE/NORMAL_TRIGGERED: 
DATABASE_VERSION: 
HEADER_FORMAT: DYNA 1.2
DATA_TYPE: Acceleration
PROCESSING: Unprocessed
DATA_TIMESTAMP_YYYYMMDD_HHMMSS: 
DATA_LICENSE: U (unknown license)
DATA_CITATION: Turkish Accelerometric Archive v 1.0 - Disaster And Emergency Management Presidency, Earthquake Department
DATA_CREATOR: AFAD
ORIGINAL_DATA_MEDIATOR_CITATION: : AFAD - Disaster And Emergency Management Presidency
ORIGINAL_DATA_MEDIATOR: AFAD PROCESS SERVICE
ORIGINAL_DATA_CREATOR_CITATION: AFAD PROCESS SERVICE
ORIGINAL_DATA_CREATOR: network: TK
USER1: GuestUser
USER2: 
USER3: 
USER4: 
USER5: 
[...]
0.020307
-0.008780
-0.021761
-0.003830
0.009945
0.007095
-0.001470
0.006331
0.011533
-0.001188
-0.010532
-0.001173
0.009225
0.014428
0.010279
-0.009457
-0.011268
0.006404
0.009009
-0.002413
0.000711
0.009031
-0.000833
-0.009917
-0.010949
-0.001330
0.018420
0.024402
0.000770
-0.021823
-0.003891
0.012482
0.006255
-0.005688
-0.003342
0.019785
0.012259
-0.006178
-0.009288
-0.000188
0.009950
-0.001213
-0.003284
0.005556
0.013616
0.006350
-0.011307
-0.008182
0.009489
0.016511
0.000152
-0.010231
-0.003210
0.006409
0.007715
0.004605
0.005911
0.006438
0.004367
-0.005237
-0.002372
0.005948
0.000240
-0.000791
0.005451
0.010913
0.002348
-0.008295
-0.001014
0.001851
0.002897
0.006801
0.003431
0.001620
0.001368
0.000336
0.005539
0.015937
0.004774
-0.017819
-0.009499
0.011290
0.012856
0.001953
0.003779
0.010021
0.001975
-0.008928
-0.009440
0.010830
0.015253
0.003051
-0.000059
-0.006805
0.003333
0.007497
0.000231
0.007511
0.008298
0.000772
-0.005455
-0.003370
-0.000764
0.004958
0.012758
0.011207
0.006798
-0.003585
-0.015527
-0.010325
0.003451
0.005796
0.010999
0.012565
0.006597
-0.000409
-0.013910
0.005061
0.017277
-0.001419
-0.006867
0.001973
0.015748
0.001728
-0.009955
0.001223
0.010322
0.007992
-0.010185
-0.006801
0.015028
0.010879
-0.010415
0.000243
0.013498
0.007531
0.000005
-0.006482
0.004955
0.000287
-0.002823
0.008874
0.005504
0.002394
-0.000975
0.001630
0.005534
0.002943
-0.001206
0.004517
0.015954
0.001414
-0.011827
0.001948
0.014944
0.003781
-0.003745
0.003017
0.001206
0.001473
0.003818
0.011099
0.004093
-0.005512
0.006445
0.001257
-0.003411
0.005428
0.001279
0.002066
0.017400
0.018186
-0.005186
-0.011413
-0.001794
0.002110
0.004975
0.004203
0.012523
0.017725
-0.000971
-0.007198
-0.003554
-0.001728
0.016983
0.000884
-0.018851
0.013108
0.022727
0.004551
0.006117
0.006644
-0.005558
-0.008668
-0.000348
0.007972
0.007460
0.003570
0.006175
0.005663
0.003592
0.002561
-0.004186
0.002056
0.010636
-0.003385
-0.000780
0.023127
0.016640
-0.008291
-0.008543
0.003673
0.008616
0.004467
-0.002020
0.000845
0.004489
0.004237
0.009440
0.007888
0.004259
-0.001189
-0.008715
0.007398
0.016498
0.005854
0.007420
0.006908
-0.004515
-0.006326
0.003034
0.012393
0.014998
-0.002400
-0.012264
0.010604
0.019963
0.005423
-0.007818
-0.004693
0.014017
0.015843
-0.000775
-0.005963
0.004175
0.004443
-0.000745
0.009653
0.010180
-0.001503
0.004479
0.004487
-0.007196
0.001124
0.012821
0.009711
0.001926
0.002712
0.007655
0.000649
-0.000643
0.003781
0.006386
0.008212
-0.003990
-0.001385
0.017585
0.011618
-0.008896
-0.007331
0.007744
0.016323
0.005940
-0.007821
0.002318
0.004923
0.006749
0.008315
0.010140
0.019759
-0.003353
-0.015295
-0.002819
0.008618
0.017977
0.004996
-0.003049
0.004751
0.006057
0.006325
0.011268
-0.000155
-0.006122
0.006354
0.010258
0.012084
0.005077
-0.003488
-0.001402
0.008216
0.019913
0.008491
-0.008127
-0.015913
-0.007333
0.028003
0.026712
-0.007051
-0.014318
0.003614
0.020766
0.002590
-0.002598
0.011177
-0.001285
0.005217
0.013277
0.003673
0.007577
0.009143
0.002916
-0.005390
-0.003304
0.016186
0.013076
-0.007179
-0.004314
0.007383
0.016223
0.014671
0.002729
-0.005836
-0.003231
0.008726
0.003538
-0.000092
0.008748
0.002261
0.002528
0.012926
0.006699
-0.003424
-0.004976
0.004383
0.021795
0.017387
-0.008583
-0.016629
0.004680
0.023131
0.018982
0.003143
-0.002045
-0.000219
-0.004888
0.004212
0.014090
0.010981
0.004753
-0.001474
-0.001986
-0.001719
0.008679
0.014402
-0.000138
-0.008444
0.009488
0.019367
0.005346
-0.000101
-0.009965
0.006408
0.024339
0.001746
-0.001364
0.008775
0.017614
0.002815
-0.017180
0.003089
0.008552
0.006481
0.016619
0.007795
-0.007265
-0.002841
0.007817
0.004707
0.004454
0.003942
0.004469
0.013568
0.013056
-0.004861
-0.013426
0.007623
0.020359
0.015691
0.000371
-0.010012
-0.000133
0.006368
0.014688
0.005604
-0.001143
0.015230
0.008483
-0.005537
-0.007088
0.008245
0.018903
0.008000
0.002293
-0.006792
0.002567
0.019979
0.000244
-0.011179
0.007013
0.018969
0.010404
-0.005954
-0.004128
0.009907
0.014071
0.006804
-0.007736
-0.003832
0.015139
0.012289
0.001646
-0.005101
0.008155
0.025047
0.007390
-0.008189
-0.004545
0.008451
0.020408
0.011063
-0.013088
-0.005807
0.020697
0.011872
-0.000070
-0.003440
-0.005510
0.010343
0.024638
0.015034
-0.006260
-0.010409
-0.008064
0.001815
0.019746
0.023130
0.010929
-0.005170
0.001332
0.008613
-0.002550
0.004471
0.015908
0.009162
0.006571
0.012034
0.002170
-0.001460
0.006341
-0.001705
-0.004555
0.007922
0.007929
0.011313
0.020153
0.001197
-0.004251
0.003290
-0.003717
0.013436
0.015521
-0.000058
0.011120
-0.000822
0.006718
0.037638
-0.004437
-0.019237
0.003630
-0.002857
0.018972
0.017940
0.006258
0.011720
0.000038
0.001344
0.002390
0.003177
0.000327
0.004231
0.013070
0.001388
0.007110
0.015171
0.005307
0.006353
0.006880
-0.004543
0.003518
0.009500
0.009247
0.012891
0.006404
0.010308
-0.008648
-0.008380
0.011369
0.003064
0.008786
0.004118
0.009321
0.017900
0.009855
0.012460
-0.002080
-0.002852
0.009105
0.006515
0.006782
0.007828
0.008355
0.003167
0.009149
0.000324
-0.004084
0.009431
-0.003550
0.008666
0.019584
0.013357
0.007390
-0.007670
0.002209
0.003255
0.004042
0.015479
0.009772
0.004583
-0.002423
-0.000337
0.012918
0.013965
0.013193
0.014239
0.003336
-0.001332
-0.001585
-0.003136
0.014016
0.017141
0.007017
-0.000249
-0.005697
0.012234
0.013281
-0.003077
0.007581
0.013303
0.006037
0.005265
0.001375
0.008916
0.011002
0.003476
0.012315
0.004010
0.005836
0.010259
-0.006099
0.002740
0.004047
0.011847
0.012894
-0.007101
0.013947
0.012656
-0.000585
0.007215
0.008262
0.024115
0.000743
-0.005484
0.019461
-0.003911
0.009085
0.013249
-0.005707
0.007029
-0.004394
0.003667
0.008610
0.002123
0.015898
0.002137
0.007080
0.014881
0.000341
0.013077
0.011526
0.002182
0.014138
0.009470
0.010256
0.004289
0.002998
0.010798
-0.011275
0.004319
0.014197
0.003814
0.011095
-0.006562
0.007472
0.015792
0.007487
0.013469
-0.001071
0.008289
0.010634
0.008563
0.010129
-0.003112
0.012482
0.006254
-0.005428
0.010945
0.008874
0.006544
0.005512
0.011754
0.014359
-0.004597
0.001645
0.004250
0.001919
0.013616
0.009727
0.006617
-0.001688
0.008190
0.010016
-0.000108
0.030553
0.008480
-0.028141
-0.001377
0.033699
0.026953
-0.007589
0.007485
-0.000041
-0.007827
0.020235
0.016866
0.017652
-0.017409
-0.014025
0.030143
0.013785
-0.001794
0.000811
0.016925
0.018490
-0.001764
-0.004095
0.014876
0.013065
0.006318
0.011261
0.002176
-0.001453
-0.003264
0.022980
0.021948
-0.003242
-0.000117
-0.008423
0.018860
0.017569
-0.006582
0.014466
0.012915
-0.004742
-0.006033
0.022289
0.023595
-0.008090
0.003607
0.013486
0.002843
0.000772
0.011950
0.021568
0.002093
-0.005433
0.003406
0.012766
0.020566
0.006026
-0.002019
-0.000973
0.005269
0.009173
0.008920
0.017760
0.004519
-0.010021
0.005053
0.015711
0.007925
0.005595
0.007680
0.005610
0.002759
0.004066
0.015503
0.023563
0.008244
-0.010712
0.001764
0.013721
0.006975
0.009060
0.010366
-0.001316
-0.000789
0.015324
0.015331
0.011702
0.009891
-0.000233
-0.003603
0.012770
0.024727
0.000576
-0.004612
0.013059
0.010729
0.000086
0.003730
0.011530
-0.004828
-0.001184
0.006617
0.015196
0.027413
0.012094
0.004828
0.002237
0.015233
0.007447
-0.003715
0.010839
0.007469
0.009555
0.004107
0.015285
0.013733
-0.008340
-0.004176
0.001806
0.017140
0.006496
0.006504
0.016382
-0.001015
0.000032
0.007572
0.016931
0.006288
0.004997
0.014096
0.007869
0.014890
0.000610
-0.003539
0.005041
0.008685
0.014927
0.006362
0.013643
-0.000118
-0.000370
0.018600
0.015750
0.006925
-0.009693
0.005901
0.008766
0.010851
0.018132
0.003073
0.003859
-0.000290
0.009070
0.003881
0.013500
0.021301
-0.004149
0.002872
0.005737
0.016395
0.010427
0.004460
0.013040
0.001617
0.010197
0.006827
0.008653
0.010219
0.005810
0.005038
-0.001968
0.012326
0.018828
0.012861
0.006893
0.006901
0.006388
0.001720
0.005364
0.013944
0.008496
-0.002407
0.006173
0.009817
0.011902
0.010871
0.003604
0.000754
0.007256
0.010640
0.003634
0.011175
0.015078
0.010670
0.004183
0.007567
0.010172
0.007322
0.010966
0.003700
0.005526
0.006832
0.006839
0.012042
0.010750
0.009979
0.002712
0.001940
0.008961
0.006631
0.005080
0.012101
0.011848
0.003803
0.001212
0.012390
0.014475
0.009028
0.015529
0.009302
0.006192
0.005680
0.006986
0.013748
0.001026
0.006748
0.008834
0.004945
0.012745
0.001582
0.001850
-0.000221
0.012255
0.024472
0.004996
0.011238
0.005011
0.002421
0.012819
0.006072
0.015951
0.008165
0.007653
0.009219
0.004810
0.018066
0.004565
0.007689
0.008736
-0.000089
0.010569
0.009018
0.013701
0.009032
0.003844
0.007229
0.008275
0.014777
0.006471
0.006219
0.018176
0.013767
0.003124
0.004430
0.019504
0.021330
0.003673
-0.003853
0.001869
0.006292
0.007079
0.018516
0.016705
0.003724
0.004511
0.000881
0.012059
0.019340
0.009216
0.002729
0.006114
0.012355
0.005868
0.013669
0.014196
0.006150
0.006158
0.012399
0.013186
0.006439
0.013720
0.004116
0.006721
0.010365
0.010113
0.013497
0.000256
0.014032
0.008584
0.010409
0.016651
0.000033
0.015627
0.001087
0.004731
0.019546
0.006045
0.013066
-0.001214
0.015159
0.015945
0.000626
0.013362
-0.004295
0.021430
0.017021
0.001962
0.020153
-0.001400
0.016791
0.016798
0.004596
0.011098
-0.000844
0.019945
0.015796
0.040481
0.104392
0.119986
0.116097
-0.004949
-0.139243
-0.218726
-0.283141
-0.355610
-0.518219
-0.145960
0.784026
1.083289
0.001352
-0.947064
-0.452193
0.643527
1.162036
-0.447755
-0.383065
1.421050
-0.693476
-2.607199
-1.763976
1.897238
1.988166
-4.765084
-1.858763
4.020893
0.139667
-2.621687
0.997704
4.557348
-0.431539
-0.180593
4.970925
-0.979373
-6.378179
-5.062953
3.557023
1.673953
-5.457263
4.841091
-1.876829
-9.392246
-0.595886
1.771671
12.983638
8.225687
-2.438150
-0.221779
-6.058038
0.385060
-2.384348
-9.645708
2.723017
11.042698
7.361756
-13.777850
-12.310139
10.743472
2.713969
-9.323015
6.563525
24.289240
5.835143
-23.051083
-15.068584
8.058542
6.069226
-18.129959
-10.826761
29.386518
17.344859
-24.323381
-15.267510
5.315682
5.387646
-3.727698
-3.657812
22.444987
25.610559
1.231613
-9.191157
-8.093099
-8.059581
-11.716105
-3.124184
9.558604
6.610475
-4.580956
-3.652269
4.040586
-8.345010
-9.964673
9.322784
7.384383
-7.035477
-1.015026
14.267287
9.482060
-4.823501
-18.744341
-24.828162
-3.849339
15.027680
12.225542
15.066920
23.819119
8.921801
-26.718461
-30.601246
-1.394188
12.372104
15.324404
9.777789
-5.232270
-3.316454
4.003890
-5.462924
-16.269374
-3.340323
11.954718
-4.493690
-13.794770
10.428588
22.327129
5.078887
-12.210919
-9.792188
-3.911233
-6.969765
-3.129309
13.739164
24.509261
5.855659
-13.940153
-5.915572
2.425930
-11.740394
-27.042694
-9.981992
11.855373
5.882215
0.951516
11.911246
17.615556
7.189670
-6.480752
-12.493136
-3.539354
12.699174
5.986449
-15.693480
-14.528402
9.517014
17.655635
0.900437
-4.786974
4.286562
2.410505
-7.234770
-2.537071
10.549920
10.840092
3.475342
-9.249774
-20.435490
-15.094859
-2.444282
5.557700
-0.450787
-10.052162
-6.327044
4.571640
12.997567
10.047360
4.981840
6.102498
-1.969088
-9.136671
-0.367068
1.600443
-1.151560
8.394238
15.508843
7.335168
-10.311043
-7.979594
8.917713
2.747389
-8.909031
0.041113
7.454195
-5.522899
-18.721578
-15.775512
-4.125311
2.827457
1.579006
0.450051
1.474593
3.635113
-1.083093
-4.029664
5.151676
10.486073
14.542139
8.145035
-9.217766
-8.292716
0.533258
3.637784
-0.112517
-4.453536
1.077507
0.935420
-1.923608
2.053487
3.162715
-1.724342
-8.658652
-7.925312
-1.393113
4.592010
6.700056
-0.374530
-5.737747
-6.419637
-4.674751
-0.646221
-0.272144
8.621111
12.385195
-1.791260
-6.917047
-1.570700
2.128441
-0.922298
-6.237717
0.963651
13.630594
12.975200
2.898445
0.580519
0.761327
-9.399854
-17.672242
-3.847242
11.033466
6.203038
4.523889
5.930554
2.639008
-4.782372
-10.555507
1.832961
3.719943
-4.460487
1.834282
-3.611022
-9.927597
0.223986
15.472010
18.466133
-9.723128
-22.186916
7.874008
21.781095
-3.395087
-22.985681
-8.591523
10.371999
-0.683052
-10.710191
6.286349
15.524319
11.140437
3.555143
-3.704660
-4.077943
-8.960584
-12.437347
-7.399348
-1.576582
-3.111040
-14.607181
-11.391473
5.647928
10.135733
12.294174
18.792863
22.483951
14.961521
-9.302087
-23.299300
-5.788415
12.719470
-3.023921
-18.124120
5.072624
28.718512
15.172521
-10.545023
-5.926294
7.016525
-3.414298
-5.308278
6.510773
5.581841
-4.334116
-13.543756
-8.229102
7.287784
8.001381
0.782883
-0.185275
2.474264
1.736782
-12.247962
-21.623856
-1.562283
20.822419
16.341903
2.389890
-2.815127
8.217079
26.480520
28.861585
32.681259
50.096549
52.936109
35.963743
20.318545
25.255753
45.694772
56.098593
37.942452
4.785597
-17.025256
-27.157602
-32.544978
-38.382796
-43.448056
-43.231400
-43.587278
-54.818194
-78.508228
-99.058155
-112.564402
-119.462084
-110.560516
-95.047787
-83.755031
-81.550610
-74.966197
-35.843435
29.819312
91.507309
125.667933
143.213108
149.567104
120.436434
52.648258
-29.792799
-75.113413
-43.648689
56.454187
165.570065
214.365386
208.490421
174.119918
113.030187
-0.381763
-172.309903
-293.360148
-301.388871
-264.519100
-204.176975
-84.780934
33.979708
70.921955
54.072720
7.461046
-28.955671
-0.053584
67.369109
141.876007
193.606216
193.203319
146.993510
57.037029
-55.224137
-161.608252
-231.164167
-183.051783
-57.834283
19.879743
68.448804
94.384310
70.120702
55.124411
65.426402
68.464427
48.995665
13.553088
-8.126841
-11.195504
-2.437850
9.965166
15.468674
11.154410
-17.714931
-62.619652
-90.589408
-97.101590
-88.493304
-71.984354
-63.303851
-49.831620
-16.381729
23.009636
64.194197
98.040239
109.255323
106.011834
86.626719
58.129369
41.104270
24.252178
7.638035
0.373557
-18.639307
-54.287363
-87.094307
-83.057983
-23.849757
46.438985
80.851846
65.084816
14.153156
-37.387666
-75.928268
-91.345906
-75.935007
-39.285261
0.316518
16.877941
4.181400
-11.630831
-11.833704
0.307982
24.197275
53.161967
72.732313
74.951022
58.301291
28.680693
-7.834477
-40.377234
-54.350808
-54.482504
-54.732396
-50.582294
-35.791207
-14.869014
3.605361
12.390811
18.407365
23.922043
19.247998
3.586954
-12.615192
-22.208774
-27.467303
-26.214162
-17.207128
-2.300184
18.579407
42.044235
63.784446
72.601847
61.780070
32.260523
-9.175741
-36.365405
-36.370593
-20.432100
1.184200
19.682734
24.893480
15.773720
5.327831
-6.223122
-24.372769
-39.633246
-43.492651
-35.343120
-24.546786
-14.780182
1.396781
19.383566
26.984981
23.550302
14.176746
5.755769
5.094400
7.213876
13.328624
21.468544
11.100586
-15.348212
-38.144636
-49.305933
-42.655798
-18.659219
6.792334
16.162008
11.610055
8.437224
14.245962
26.406352
36.526503
39.626613
28.881209
4.214697
-18.467687
-29.618074
-27.131023
-16.173631
-4.635132
5.529959
6.515796
-3.125064
-12.135720
-17.473999
-15.786781
0.987395
21.886208
27.734951
16.193610
1.039378
-8.246635
-17.152084
-26.616560
-28.905131
-24.334980
-17.577039
-6.349486
10.760054
28.034548
37.047037
35.121884
28.112761
17.904302
5.732497
-2.453387
-5.711163
-5.929623
-5.616592
-7.971925
-13.518800
-18.703295
-16.716821
-7.545872
0.803423
5.977801
12.985121
22.598200
25.910543
16.482955
0.042599
-10.937898
-9.652546
-4.968874
-5.065241
-9.083626
-14.015624
-14.099003
-10.581701
-7.086740
-3.739588
-0.856646
0.605610
-1.427348
-1.768939
3.080727
7.793493
7.257074
0.429010
-7.034452
-13.278032
-20.042452
-22.694962
-17.757754
-7.155209
1.964825
3.927919
3.826356
6.864121
8.917616
4.385924
-6.344933
-14.938917
-14.320136
-5.525335
7.201355
18.206805
26.671698
31.136383
26.207762
17.728337
12.414736
8.153985
4.843995
4.538772
7.897614
10.507017
7.142475
-0.524128
-9.318655
-17.532075
-23.765264
-27.497381
-28.330198
-23.997736
-12.895133
-0.134673
7.668065
11.260700
12.945839
10.467895
5.984261
5.031430
8.585878
13.114987
13.244360
10.614969
8.813207
5.459836
-1.361474
-8.163820
-7.799095
-2.758498
-3.002935
-7.333564
-8.049224
-3.199040
2.046516
3.989348
6.435875
10.333221
13.398002
15.655676
15.249661
10.325717
3.125402
-2.983876
-6.827435
-8.919880
-9.578391
-8.829985
-6.616472
-4.912110
-6.357466
-9.235457
-12.003046
-15.822186
-19.912268
-20.870814
-17.434820
-9.490508
2.307242
12.468697
16.431765
12.438318
5.741959
5.903803
10.134435
10.351870
5.696528
1.440454
0.479050
-2.793273
-7.467319
-7.195072
-3.190700
2.227603
7.168447
11.107876
12.987843
10.913063
8.600073
5.214749
-3.903452
-14.557677
-20.407964
-20.473679
-17.324732
-10.038938
3.148845
13.359136
15.192865
14.866600
14.028847
8.990603
2.559469
1.899400
3.004211
-1.859467
-6.752239
-6.528829
-6.961599
-8.954552
-6.698177
-1.169991
0.007296
-2.709897
-0.160501
6.111409
7.043213
5.238334
5.986221
5.135999
0.850571
-1.599838
-1.979875
-4.067904
-5.609376
-2.543036
1.580051
1.486021
0.590599
-0.049209
-3.837956
-7.063261
-6.970515
-6.628650
-6.566557
-5.790355
-6.532512
-8.466757
-8.457138
-5.944889
-2.275102
2.108794
6.771165
8.043269
5.093840
1.751639
-0.406788
-2.342591
-3.369197
-1.776017
0.765327
1.615303
2.112252
3.030029
2.736755
3.222274
5.780502
7.306142
7.429281
8.202106
8.908949
8.029114
5.213727
1.128581
-2.606913
-5.432690
-6.712053
-5.136277
-3.158896
-3.283579
-2.627910
-0.079293
2.354505
4.103288
4.668297
3.528171
1.659388
1.210252
0.760597
-0.484477
1.208456
4.196864
2.468618
-4.161760
-7.709440
-6.559948
-8.102199
-9.447803
-4.997925
0.956804
2.639606
0.495466
0.399618
2.958107
4.770274
6.611276
7.838180
7.626474
7.198379
5.331155
2.961015
1.321870
0.724925
1.084714
-2.388152
-5.978434
-1.304894
5.941675
6.918160
1.438566
-4.371976
-6.524688
-7.567400
-7.723255
-7.850015
-9.298229
-6.284103
0.192245
1.844654
-0.237660
-1.479876
-3.377493
-6.309517
-6.499142
-4.005856
-1.429184
1.954855
5.315515
4.997563
0.864620
-1.344202
2.262460
6.049404
4.785107
2.921001
5.336355
8.039276
5.908905
3.933097
5.820078
6.170516
4.578649
3.239798
0.674051
-2.516704
-4.953085
-6.177637
-7.070461
-7.673381
-6.446477
-4.298686
-2.324422
-0.694874
0.854146
3.765143
6.987345
7.841997
6.360533
4.611505
3.174721
2.152011
2.386591
1.962393
0.145305
-1.372527
-2.334191
-2.723839
-2.922816
-1.471730
2.072587
4.022173
2.931404
-0.344037
-3.107989
-1.933299
0.750399
0.681567
-1.441791
-2.716218
-1.475027
2.199696
4.119668
1.178293
-1.033907
0.759038
1.740458
-1.065577
-5.353083
-6.387483
-4.045124
-1.801737
-0.546258
-2.236319
-5.410189
-4.646456
-2.696091
-3.829463
-5.172989
-4.516801
-4.285857
-6.513643
-7.085391
-3.289615
-0.219119
1.333797
4.076463
5.820830
5.361043
3.058963
-0.927729
-5.290050
-8.437943
-8.795640
-6.925024
-5.048694
-3.195223
-0.985087
1.063991
2.142566
1.149210
1.000109
3.114130
4.549110
6.038383
7.234114
5.337017
2.333296
0.448408
