EVENT_NAME: 202504131443
EVENT_ID: 18606
EVENT_DATE_YYYYMMDD: 20250413
EVENT_TIME_HHMMSS: 144302
EVENT_LATITUDE_DEGREE: 40.80278
EVENT_LONGITUDE_DEGREE: 36.16944
EVENT_DEPTH_KM: 6.21
HYPOCENTER_REFERENCE: AFAD
MAGNITUDE_W: 4.6
MAGNITUDE_W_REFERENCE: AFAD
MAGNITUDE_L: 
MAGNITUDE_L_REFERENCE: 
FOCAL_MECHANISM: 
NETWORK: TK
STATION_CODE: 0509
STATION_NAME: 
STATION_LATITUDE_DEGREE: 40.76096
STATION_LONGITUDE_DEGREE: 36.32186
STATION_ELEVATION_M: 214.0
LOCATION: Amasya_Tasova_Turkiye
SENSOR_DEPTH_M: 
VS30_M/S: 373
SITE_CLASSIFICATION_EC8: B
MORPHOLOGIC_CLASSIFICATION: 
EPICENTRAL_DISTANCE_KM: 13.65
EARTHQUAKE_BACKAZIMUTH_DEGREE: 
DATE_TIME_FIRST_SAMPLE_YYYYMMDD_HHMMSS: 20250413_144234
DATE_TIME_FIRST_SAMPLE_PRECISION: millisecond
SAMPLING_INTERVAL_S: 0.01
NDATA: 10501
DURATION_S: 
STREAM: HNZ
UNITS: cm/s^2
INSTRUMENT: sensor = AC-73,/GeoSig | digitizer = 
INSTRUMENT_ANALOG/DIGITAL: 
INSTRUMENTAL_FREQUENCY_HZ: 
INSTRUMENTAL_DAMPING: 
FULL_SCALE_G: 
N_BIT_DIGITAL_CONVERTER: 
PGA_CM/S^2: 78.771
TIME_PGA_S: 
BASELINE_CORRECTION: -
FILTER_TYPE: BUTTERWORTH
FILTER_ORDER: 
LOW_CUT_FREQUENCY_HZ: 
HIGH_CUT_FREQUENCY_HZ: 
LATE/NORMAL_TRIGGERED: 
DATABASE_VERSION: 
HEADER_FORMAT: DYNA 1.2
DATA_TYPE: Acceleration
PROCESSING: Unprocessed
DATA_TIMESTAMP_YYYYMMDD_HHMMSS: 
DATA_LICENSE: U (unknown license)
DATA_CITATION: Turkish Accelerometric Archive v 1.0 - Disaster And Emergency Management Presidency, Earthquake Department
DATA_CREATOR: AFAD
ORIGINAL_DATA_MEDIATOR_CITATION: : AFAD - Disaster And Emergency Management Presidency
ORIGINAL_DATA_MEDIATOR: AFAD PROCESS SERVICE
ORIGINAL_DATA_CREATOR_CITATION: AFAD PROCESS SERVICE
ORIGINAL_DATA_CREATOR: network: TK
USER1: GuestUser
USER2: 
USER3: 
USER4: 
USER5: 
[...]
-0.000604
-0.003980
-0.004759
0.003035
0.007452
-0.004497
-0.015926
-0.010470
-0.000858
-0.002675
-0.007090
-0.001375
-0.001894
-0.000854
0.000186
-0.009425
-0.008385
-0.001110
-0.004746
-0.009422
-0.001368
-0.003445
-0.010718
-0.001885
0.003831
0.001753
-0.005000
-0.005259
-0.003959
-0.011492
-0.008374
0.002537
0.004356
-0.008372
-0.013047
-0.002915
0.005139
0.010335
-0.001094
-0.020836
-0.017199
-0.004729
-0.002130
0.007482
0.005405
-0.004985
-0.004725
-0.010179
-0.010179
-0.005242
0.000993
0.001254
-0.008357
-0.006018
0.000996
-0.000302
-0.010692
-0.002119
0.004376
-0.014846
-0.004195
0.006976
-0.011986
-0.013544
-0.002373
0.002563
0.004902
-0.001592
-0.012501
-0.002369
0.002827
-0.011979
-0.009121
0.000491
-0.001586
-0.006002
-0.007040
0.001014
0.004132
-0.005219
-0.006777
-0.003659
-0.010932
-0.013269
0.002058
0.011151
-0.002876
-0.011188
-0.008330
-0.003393
0.003621
-0.005210
-0.007287
-0.002351
-0.010923
-0.008844
-0.003907
-0.003387
-0.001308
-0.004944
-0.003125
0.001552
-0.003383
-0.004941
-0.002862
-0.010395
-0.011173
-0.000522
0.002336
0.003896
0.003377
-0.008312
-0.015844
-0.008570
0.001821
-0.002334
-0.012984
-0.005969
0.010397
0.001306
-0.012202
0.000268
-0.002848
-0.011420
-0.007782
-0.007002
0.004688
0.003650
-0.007000
-0.004921
-0.001543
-0.004140
-0.004659
-0.005178
-0.010632
-0.009592
-0.005175
0.009372
0.009373
-0.016603
-0.017641
-0.003093
0.001583
0.001064
-0.001792
-0.004389
-0.005428
-0.008024
-0.011661
-0.004906
0.003148
0.007825
0.002890
-0.020229
-0.019969
0.000554
0.005231
0.000815
-0.009055
-0.012172
-0.000741
0.002897
-0.004376
-0.005415
-0.004115
-0.005413
-0.000217
-0.003853
-0.015802
-0.008527
0.009398
0.006281
-0.012421
-0.018395
-0.004367
0.006025
-0.002807
-0.011378
-0.003325
0.003950
0.001612
-0.006440
-0.016830
-0.006698
0.004473
-0.003060
-0.001500
-0.004357
-0.009032
-0.000978
-0.004874
-0.007471
-0.006172
-0.003573
0.002922
-0.008767
-0.010844
0.003184
0.002925
-0.008504
-0.015517
-0.003827
0.003967
-0.007202
-0.006942
0.000333
-0.006421
-0.003303
-0.002782
-0.010834
0.001895
-0.003040
-0.012651
-0.005116
-0.006414
-0.003037
-0.003555
-0.000697
0.006317
-0.005891
-0.008748
-0.005890
-0.014461
0.000346
0.012037
-0.009264
-0.010821
-0.001469
0.000350
-0.000168
-0.011338
-0.008999
-0.003803
-0.007179
-0.006139
-0.005879
0.001915
0.006851
-0.006656
-0.008473
-0.000680
-0.004056
-0.005614
-0.009250
-0.007171
0.003740
0.000104
-0.011065
-0.003791
0.000366
-0.007166
-0.006126
-0.010282
-0.004306
0.002448
-0.011578
-0.008980
0.006607
0.001412
-0.009237
-0.005340
-0.001443
0.001156
0.000117
-0.007935
-0.011051
-0.007673
-0.001958
-0.001957
0.001161
-0.001436
-0.006111
-0.001175
-0.010266
-0.011304
0.003244
0.001686
-0.005587
-0.011041
-0.007144
0.002728
0.002209
-0.006622
-0.011817
-0.001945
0.000394
-0.005580
-0.007657
-0.010254
-0.004798
0.002736
-0.000381
-0.005056
-0.001158
-0.008951
-0.009989
0.003000
-0.000376
-0.006610
-0.012064
-0.007907
-0.000893
0.003265
0.003006
-0.010242
-0.005046
-0.002967
-0.012318
-0.008161
0.002231
0.012103
-0.007639
-0.020367
0.000156
0.001455
-0.002700
-0.003998
-0.006855
0.000419
-0.007633
-0.014646
-0.004774
0.004319
0.004579
-0.004512
-0.005810
-0.006069
-0.015939
-0.007366
0.011078
0.001727
-0.012819
-0.006064
-0.001388
-0.007621
-0.004503
-0.001125
-0.006060
-0.002683
-0.002162
-0.004240
-0.008655
-0.012031
0.001218
0.004076
-0.003976
-0.010210
-0.008910
0.002780
0.001742
-0.008129
-0.014103
-0.006309
0.003304
0.000447
-0.004228
-0.008903
-0.006565
0.002268
-0.005524
-0.016434
-0.001106
0.010584
-0.003702
-0.011755
-0.009156
-0.002661
0.003834
-0.001880
-0.007854
-0.005516
-0.004995
-0.002916
-0.005513
-0.011487
0.000203
0.004620
-0.004471
-0.008367
-0.012782
-0.006547
0.005144
-0.001610
-0.012260
-0.003686
0.000211
-0.007581
-0.001606
0.002032
-0.004981
-0.007578
-0.002902
0.000216
-0.005498
-0.013550
-0.009653
0.000999
-0.004975
-0.003935
0.002560
-0.014584
-0.010427
0.004121
-0.005490
-0.002372
0.004123
-0.004449
-0.005487
-0.008863
-0.010681
0.006205
-0.007302
-0.014056
0.010363
-0.007040
-0.004442
0.003871
-0.021325
-0.005998
-0.003660
-0.018206
0.012448
0.006734
-0.016125
0.002059
-0.007811
-0.009629
-0.003394
-0.014563
0.001284
-0.003391
-0.005729
0.005702
-0.007286
-0.005726
-0.005206
-0.009621
-0.003906
-0.011178
-0.008060
0.000773
-0.002863
-0.001304
-0.006758
-0.003640
-0.002341
-0.009354
-0.002859
-0.000520
-0.001558
-0.009351
-0.007272
-0.002335
-0.006491
-0.003892
-0.005450
-0.001293
-0.006748
-0.015579
-0.004668
-0.001030
-0.004407
0.002608
0.005206
-0.008041
-0.008300
-0.001026
-0.006220
-0.005440
-0.012194
-0.006997
0.007550
-0.005437
-0.004397
-0.002059
-0.010371
-0.003876
-0.007512
-0.000757
0.001842
-0.013744
-0.002313
0.000026
-0.004650
0.004963
-0.011142
-0.017376
-0.005426
-0.004646
0.002369
-0.002306
-0.004384
0.002371
-0.005681
-0.002563
-0.006719
-0.013212
0.001336
-0.002560
-0.010352
-0.004377
-0.011650
-0.000998
0.010692
-0.006192
-0.002814
-0.009827
-0.015801
-0.004111
-0.012423
0.000826
0.006023
-0.003069
0.001348
-0.010081
-0.007482
-0.005404
-0.011897
0.001352
0.001872
-0.005660
-0.008517
-0.003061
0.001096
-0.008255
-0.004877
-0.009552
-0.008512
0.007594
-0.007212
-0.009809
-0.000976
-0.007729
0.002403
0.000325
-0.008506
-0.005388
-0.007985
0.001887
-0.002269
-0.013438
-0.002527
-0.006942
-0.005123
0.001892
-0.004602
-0.002523
-0.005380
-0.001223
-0.003040
-0.013171
-0.005117
-0.005116
-0.000699
0.000081
-0.003295
0.000342
-0.008489
-0.003293
-0.004591
-0.007448
-0.001472
-0.006927
0.003205
0.000608
-0.009522
-0.007184
-0.005624
0.004248
0.000872
-0.006141
-0.008738
-0.010816
-0.004321
-0.006398
-0.003020
0.000098
-0.005617
-0.001719
-0.007693
-0.005874
0.001141
0.000362
-0.001196
-0.011586
0.001663
-0.005869
-0.024053
0.012056
0.006602
-0.015478
0.000369
-0.002228
-0.010280
-0.015735
0.005827
0.008426
-0.010017
0.000634
-0.012354
-0.005079
0.008689
-0.007935
-0.013130
-0.017545
-0.001179
0.019084
-0.005074
-0.023777
-0.001695
0.011034
-0.008708
-0.021955
0.008179
0.008180
-0.022472
-0.004288
0.009741
-0.002208
-0.013377
-0.001427
0.000911
-0.013895
-0.000126
0.002732
-0.003502
-0.010774
-0.009735
0.001436
-0.005057
-0.001420
-0.004276
-0.006613
0.004298
-0.012327
-0.018301
0.003780
0.010535
-0.009986
-0.016999
0.009239
0.005603
-0.016477
-0.004267
0.004566
-0.009721
-0.018292
-0.000627
0.007167
-0.007380
-0.004521
0.001974
-0.001662
-0.006857
-0.008935
-0.001660
-0.003738
-0.010231
-0.008931
-0.002956
0.005877
-0.004513
-0.010487
0.002243
0.000944
-0.011004
-0.014640
0.002765
0.009520
-0.008144
-0.011260
-0.000869
-0.001647
-0.014115
-0.008919
0.008486
-0.002683
-0.020087
-0.003201
0.006151
-0.003200
-0.004238
-0.010212
-0.003457
0.000960
-0.004754
-0.004494
-0.004493
0.003301
-0.007349
-0.011764
-0.003191
-0.006827
-0.005528
-0.003708
0.004345
0.000190
-0.004485
-0.003186
-0.008121
-0.009159
-0.012535
-0.001884
0.002533
0.002274
0.000716
-0.006297
-0.004478
-0.008114
-0.003177
-0.007073
-0.007852
-0.000058
-0.003954
-0.005252
-0.004991
0.005141
-0.007328
-0.018497
0.001506
0.004364
-0.002908
-0.009662
-0.001348
0.001250
-0.008361
-0.003944
-0.005242
-0.005241
-0.008617
0.001774
0.004113
-0.007316
-0.003938
-0.014588
-0.004976
-0.000559
-0.002636
0.004898
-0.001856
-0.001595
-0.017700
-0.010426
0.003863
-0.007567
-0.002630
0.004644
0.003866
-0.010161
-0.007563
0.000491
-0.007561
-0.010158
-0.002364
0.004390
-0.009377
-0.008597
0.001276
-0.003400
-0.009114
-0.011191
-0.007294
-0.003396
0.000241
-0.002356
-0.004173
-0.002354
-0.003393
-0.005990
-0.001313
0.002844
-0.009624
-0.013000
0.001028
0.004406
-0.008062
-0.010659
-0.001826
-0.000787
-0.012216
-0.007019
0.004671
-0.007797
-0.009355
-0.004419
-0.004418
-0.000780
-0.006235
-0.008572
-0.002077
0.000522
-0.007271
-0.010647
0.002082
0.003642
-0.009346
-0.006488
-0.000252
-0.006226
-0.011421
-0.005705
0.001050
-0.006743
-0.003885
-0.001546
-0.005442
-0.000765
-0.008038
-0.004660
-0.002062
-0.004139
-0.001541
-0.010112
-0.002838
-0.004136
-0.007512
0.000282
-0.003874
-0.003873
-0.008808
-0.001793
0.001584
-0.007507
0.003664
-0.002570
-0.011141
-0.005945
-0.003347
-0.000488
-0.009320
-0.002565
-0.003863
-0.011655
-0.002563
-0.001003
-0.001782
-0.009055
-0.003339
0.002117
-0.007494
-0.009311
-0.006973
0.000042
-0.001516
-0.009828
-0.006710
0.001084
-0.000474
-0.009305
-0.003590
0.005243
-0.006445
-0.013718
-0.008262
0.004467
0.000571
-0.013196
-0.001245
-0.003063
-0.010076
-0.007218
0.000576
0.004473
-0.011891
-0.008773
0.002138
0.000840
-0.009031
-0.010069
-0.001236
-0.002015
-0.003573
-0.004611
0.000325
-0.007207
-0.006687
0.000588
0.000588
-0.000710
-0.015776
-0.003826
-0.003825
-0.011098
-0.002265
-0.006940
0.000594
-0.007198
-0.005379
0.000077
-0.007455
0.001378
-0.008753
-0.003037
-0.003556
-0.008231
0.004239
-0.009788
-0.001734
-0.006150
-0.008747
0.002944
-0.010823
0.002166
-0.005886
-0.010042
-0.000949
-0.010819
-0.001467
0.001391
0.012822
0.047632
0.121148
0.379101
0.921763
1.841351
3.049545
3.808856
3.564412
1.936690
-0.136279
-2.293413
-5.089324
-7.309842
-7.745477
-1.227052
9.095454
7.529558
-6.508965
-8.242154
3.430639
1.768108
1.464697
5.264363
0.922557
-4.579384
-13.585890
3.685480
13.541957
-13.836826
-9.284605
15.305802
15.574665
5.839243
4.733140
-15.223997
-29.882333
7.345136
14.025918
14.866796
16.162013
-20.684111
0.395496
5.469856
-9.423052
-5.236069
-27.496072
-2.716812
13.841748
7.625957
-14.947070
-16.123570
41.805799
-8.404745
-30.958549
45.231916
28.108097
-24.958365
-30.820088
11.778139
36.346465
-17.051983
-53.224782
8.677260
61.401345
-7.717123
-52.808106
22.587980
50.170945
-7.358116
-43.683660
-19.556684
33.576021
-1.304419
-33.510520
28.736756
27.841328
-1.261034
-7.956621
-27.671652
-6.909224
0.252393
-12.900313
16.678210
31.789847
-14.486730
-30.667062
18.906006
1.596191
-38.619937
6.456761
38.127217
7.279976
-17.060791
3.575648
17.102425
5.921119
-13.405036
-31.183996
-0.206348
17.134900
-8.551218
-9.945147
23.024162
41.624779
-2.680139
-23.443605
-6.849197
-5.886486
14.241582
12.558788
-7.680200
-5.521505
7.073214
13.965449
-19.730956
-29.589770
19.426609
22.916109
-14.989619
-21.570907
9.992263
22.542302
-22.477764
-27.159090
18.096070
21.887683
-10.152684
-25.725673
2.075500
17.268705
-1.313466
-3.598408
24.173670
27.581082
-24.554362
-30.070850
14.744519
16.027267
-5.943092
-14.602285
-3.081717
15.128464
6.531875
-23.921813
-28.984482
3.428918
28.485094
13.507240
-19.304386
-7.454169
23.839359
-3.222764
-25.109737
7.794629
25.556966
3.801956
-17.765499
-18.031244
-7.243748
18.915414
28.754487
8.226114
-7.185037
-10.364629
2.392188
6.670091
-5.347676
-7.603784
8.475759
11.948633
-12.703079
-12.764124
0.791227
-10.324616
-5.151544
13.737159
3.450502
-9.441133
-13.244175
1.547165
31.175564
2.833811
-25.774727
6.009508
10.271566
-22.032209
-24.082838
15.916903
34.143969
7.610999
-13.190653
-11.155869
7.922986
9.011165
-8.464123
-10.591904
-1.520972
5.586093
10.716563
11.698237
-1.496031
1.736295
-1.285356
-15.052679
-5.957329
-2.206760
11.632521
0.769434
-22.198445
-0.268089
10.701766
15.062016
7.017960
-20.124173
-11.907887
4.345702
5.900170
3.880974
4.090609
4.559236
-5.022402
0.930762
2.460552
6.580255
16.742223
-13.262842
-10.924646
9.364480
-10.357825
-14.001367
-8.951945
6.702873
21.627995
5.725877
-1.978659
5.387657
8.152137
-9.157678
-12.006322
13.675642
7.520378
-27.106266
-36.998590
-4.528820
20.824793
8.473480
2.863734
22.677739
8.265926
-21.596005
-4.191633
-6.085360
-7.987140
7.348420
-9.884503
-10.085824
-13.239179
9.337486
67.310237
34.348983
-41.879407
-47.802956
-2.933554
18.492587
-7.806330
-5.441378
36.777064
21.334221
-20.707575
-10.076462
14.119094
7.767443
-25.826352
-26.893749
14.291845
27.691594
5.199874
-25.352527
-14.946375
20.502964
2.246026
-6.555522
17.412475
6.386772
-12.807679
-24.180176
-4.411631
37.215054
19.146449
-29.784984
-24.861291
33.735169
54.856080
3.015736
-22.056025
16.337555
28.055289
-6.585643
-7.743440
2.378783
-32.449443
-57.071541
-32.925081
28.776937
57.178439
7.959180
-24.595533
-20.027466
-3.606845
24.430459
2.472309
-28.069442
-23.033008
-34.170153
-37.221159
-9.608580
3.425672
-4.507462
-1.641412
10.871739
44.574121
68.467564
15.090936
-42.086655
-26.232854
5.655550
-1.903515
-25.714869
-21.628676
17.572011
50.789660
38.935288
4.104205
4.767920
22.800418
-23.909716
-75.650309
-55.311048
-8.493627
19.852025
6.602425
-14.687075
-8.095915
15.744535
33.782228
40.303251
38.728263
18.719431
-7.338419
-25.293764
-11.911160
2.377005
-14.683950
-20.668804
-17.442972
-7.841589
0.897875
-15.277522
-22.583570
6.144724
40.672397
43.557670
28.613846
18.021959
16.835068
26.137974
23.914339
1.781363
-25.390643
-28.414633
-8.886635
-14.303371
-35.399602
-30.216918
-4.962537
1.490945
-8.507105
-6.329188
-1.609934
12.541331
24.014621
13.291031
-4.107366
-20.717358
-8.991052
20.021431
23.890975
-11.453156
-62.942030
-78.770893
-56.279692
-14.503119
22.050504
31.967249
48.779604
61.223397
35.235685
23.476909
3.598482
-45.158385
-26.075894
16.342312
15.144510
4.567171
-12.878764
-8.772829
16.593254
30.379801
15.743806
-16.544383
0.762835
46.121384
57.207356
29.966251
-15.536210
-25.086676
-11.677575
-6.003145
11.014689
24.939694
22.925953
0.542818
-43.718199
-52.087228
-6.301876
22.941803
24.185066
19.292806
11.855834
2.469283
-21.489880
-32.445705
-25.314741
-16.896874
9.774297
23.994141
-4.901963
-31.004753
-36.846474
-21.666777
20.574525
25.137137
6.959168
8.655212
-4.671540
-6.297444
-0.515209
-13.399051
-26.083910
-30.002809
-9.687187
10.451532
-0.611579
-13.166292
8.645089
27.656922
4.161709
-21.805741
-7.766956
29.283089
36.200262
22.401248
20.379194
10.555449
-8.119460
-20.970312
-23.862597
-22.609723
-23.438650
-20.643518
-23.535024
-24.677494
-6.656426
2.966518
1.485306
6.429781
11.103315
12.774680
3.012501
-0.287884
11.325682
14.762968
11.256585
5.370703
0.525721
-1.157851
1.487134
5.776208
0.471692
-2.129910
2.980558
-2.075356
-10.522837
-4.015841
6.663330
2.608051
-6.337929
-10.230071
-10.206951
-1.473462
3.546606
4.432425
12.929523
15.221220
8.971139
1.038005
-0.463208
10.792653
12.100599
5.120044
9.802410
7.599556
-0.817011
3.546876
5.939364
0.954367
3.427903
7.018713
1.471053
-2.143395
-3.000637
-5.036199
2.997988
13.916407
13.314260
2.841868
-9.593351
-6.754317
8.073650
8.330824
-6.750159
-13.977756
-10.356293
-18.960674
-27.671562
-7.177218
16.656478
12.803041
0.022587
0.655129
7.816746
7.144721
-5.876021
-14.602755
-10.244063
-7.191238
-3.075691
6.599986
10.844899
7.660371
1.140909
-4.310637
-1.513426
3.979425
0.483952
-13.539504
-23.561454
-13.447804
-3.033339
-8.408772
-13.987345
-12.438332
-2.593804
9.663993
12.252868
6.826260
5.335957
8.207462
8.486457
6.087216
-1.006340
-4.682613
-0.319764
1.211065
-0.688377
-0.975163
6.113198
14.553406
4.099718
-14.693387
-14.871070
-2.093991
1.576049
-5.082391
-6.687772
-3.780419
-0.784483
2.456935
4.514579
10.490084
11.386553
1.990910
-1.307917
11.502153
24.823971
16.651588
0.254867
-6.090030
-3.593634
2.393301
-0.610167
-6.273945
1.410850
6.917729
-4.939501
-13.781832
-7.375888
2.064957
3.771650
-1.648723
-0.463648
4.136371
1.950661
1.117318
0.227864
-1.362970
3.593454
7.436242
8.647812
9.336985
5.046094
0.820666
-1.707421
-3.251237
-2.741566
-3.813639
-8.086345
-9.942146
-4.217320
-5.209903
-14.725040
-14.321356
-7.786825
-0.365697
2.309941
-4.201728
-2.327742
2.981450
-4.808031
-14.216143
-8.875777
4.767377
4.649182
-5.467065
-5.894647
2.850272
8.750184
2.827934
-6.579918
-8.444032
-8.908760
-9.336862
-5.323405
-0.248265
1.988620
3.957942
4.860646
2.016418
3.041733
6.459796
7.016745
4.726608
0.520663
2.320614
5.598141
2.753393
0.252582
8.114281
18.391847
12.338413
4.538281
9.577312
15.564247
14.576600
4.050955
0.263240
8.256642
6.862194
0.178557
0.656536
1.954610
-3.178716
-8.311523
-8.202938
-8.080066
-6.973962
-3.749169
-1.035864
-1.861414
-7.278930
-9.085634
-6.010988
-8.375679
-6.608978
5.682849
5.966000
-4.387158
-4.531330
0.714739
-2.290027
-9.856365
-8.214874
-1.188338
-1.469149
-1.550456
5.886517
9.427452
1.321830
-1.278993
9.120145
9.766196
1.583682
1.899044
4.170219
-0.490844
-5.605987
-5.095017
-1.177676
-1.249631
-7.009005
-7.434249
-6.062919
-5.722878
2.486134
5.828084
-0.504344
0.796328
7.256305
5.598969
3.211678
4.894732
2.149217
-0.174430
3.509898
3.573802
-1.707074
-2.752910
-2.852401
-5.489332
-5.171892
-4.328676
-2.999429
-0.782026
1.050137
3.241823
1.315105
-3.115023
-3.385703
-2.326098
-2.338826
2.921011
6.878877
0.779723
-4.254631
-1.623673
1.673596
1.642164
0.122507
0.009248
1.187828
2.184569
5.104131
7.455056
6.031254
4.701489
5.401312
5.621079
2.063001
-3.322822
-2.648717
3.313020
3.014025
-0.910329
-2.677548
-4.471783
-2.232560
-0.727448
-3.155004
-0.926431
6.265060
3.108068
-10.733808
-9.405860
1.195899
0.170066
-3.727532
-1.651704
4.070004
4.539411
-0.431559
1.402942
5.715135
2.556585
-3.026665
-3.853254
0.386463
2.131863
-2.280081
-9.127634
-13.886371
-9.166338
-0.845624
-1.236059
-7.205587
-9.431041
-3.455537
1.360092
-1.481538
-1.478420
0.213207
-3.016001
-1.432438
3.041851
0.924981
1.978872
6.343798
2.334239
-2.766356
1.052013
5.399275
2.306447
-0.408935
1.336985
1.749501
2.824173
6.569287
7.013755
2.807810
-0.404773
4.144071
10.849531
7.186506
-1.790127
-1.772202
3.980679
2.177352
-1.282532
2.405692
4.973786
2.450634
0.004895
-0.705058
-2.552286
-3.544609
-0.848968
0.860583
1.554171
2.103327
0.031397
-0.873383
-1.235502
-3.424589
-3.519144
-1.941557
-1.899473
-3.098574
-2.672289
-0.599579
-0.272007
-0.992090
-1.887000
-4.608096
-6.164381
-2.796974
-0.054315
-3.793712
-6.782113
-5.710038
-2.574866
2.158156
0.254557
-4.675888
-3.046866
1.480677
4.487523
4.020715
0.774623
-1.617604
1.404308
6.073166
3.175945
-3.110763
-2.815403
2.595360
2.198691
-1.302496
0.748393
0.016101
-1.650067
0.282887
-3.512361
-4.969414
1.174422
3.630814
1.912172
-0.317958
3.672119
12.021148
8.473981
0.225745
1.207419
4.702374
5.298028
5.438305
5.947456
2.823456
-0.636169
1.703846
2.461338
-0.638245
-1.140900
-2.303113
-1.518345
3.087389
2.944256
3.895277
4.906305
-0.534850
-2.752511
-2.123086
-2.875381
-1.355462
0.649968
-0.407817
-3.026564
-3.954464
-2.527543
-1.498331
-2.547025
-3.683520
-4.347753
-3.913156
-1.790050
-2.539487
-4.870408
-3.243464
-4.738184
-8.358866
-2.801852
3.019349
-0.721867
-5.463459
-3.863791
0.753373
2.434349
0.200063
-1.850825
-3.205269
-4.794285
-2.810156
-0.807843
-1.817831
-1.666903
-0.914347
-0.287779
