EVENT_NAME: 202504131443
EVENT_ID: 18606
EVENT_DATE_YYYYMMDD: 20250413
EVENT_TIME_HHMMSS: 144302
EVENT_LATITUDE_DEGREE: 40.80278
EVENT_LONGITUDE_DEGREE: 36.16944
EVENT_DEPTH_KM: 6.21
HYPOCENTER_REFERENCE: AFAD
MAGNITUDE_W: 4.6
MAGNITUDE_W_REFERENCE: AFAD
MAGNITUDE_L: 
MAGNITUDE_L_REFERENCE: 
FOCAL_MECHANISM: 
NETWORK: TK
STATION_CODE: 0509
STATION_NAME: 
STATION_LATITUDE_DEGREE: 40.76096
STATION_LONGITUDE_DEGREE: 36.32186
STATION_ELEVATION_M: 214.0
LOCATION: Amasya_Tasova_Turkiye
SENSOR_DEPTH_M: 
VS30_M/S: 373
SITE_CLASSIFICATION_EC8: B
MORPHOLOGIC_CLASSIFICATION: 
EPICENTRAL_DISTANCE_KM: 13.65
EARTHQUAKE_BACKAZIMUTH_DEGREE: 
DATE_TIME_FIRST_SAMPLE_YYYYMMDD_HHMMSS: 20250413_144234
DATE_TIME_FIRST_SAMPLE_PRECISION: millisecond
SAMPLING_INTERVAL_S: 0.01
NDATA: 10501
DURATION_S: 
STREAM: HNE
UNITS: cm/s^2
INSTRUMENT: sensor = AC-73,/GeoSig | digitizer = 
INSTRUMENT_ANALOG/DIGITAL: 
INSTRUMENTAL_FREQUENCY_HZ: 
INSTRUMENTAL_DAMPING: 
FULL_SCALE_G: 
N_BIT_DIGITAL_CONVERTER: 
PGA_CM/S^2: 214.922
TIME_PGA_S: 
BASELINE_CORRECTION: -
FILTER_TYPE: BUTTERWORTH
FILTER_ORDER: 
LOW_CUT_FREQUENCY_HZ: 
HIGH_CUT_FREQUENCY_HZ: 
LATE/NORMAL_TRIGGERED: 
DATABASE_VERSION: 
HEADER_FORMAT: DYNA 1.2
DATA_TYPE: Acceleration
PROCESSING: Unprocessed
DATA_TIMESTAMP_YYYYMMDD_HHMMSS: 
DATA_LICENSE: U (unknown license)
DATA_CITATION: Turkish Accelerometric Archive v 1.0 - Disaster And Emergency Management Presidency, Earthquake Department
DATA_CREATOR: AFAD
ORIGINAL_DATA_MEDIATOR_CITATION: : AFAD - Disaster And Emergency Management Presidency
ORIGINAL_DATA_MEDIATOR: AFAD PROCESS SERVICE
ORIGINAL_DATA_CREATOR_CITATION: AFAD PROCESS SERVICE
ORIGINAL_DATA_CREATOR: network: TK
USER1: GuestUser
USER2: 
USER3: 
USER4: 
USER5: 
[...]
-0.029555
-0.048517
-0.039684
-0.026954
-0.035006
-0.043057
-0.028509
-0.017857
-0.036040
-0.047728
-0.042012
-0.033439
-0.024605
-0.029540
-0.043306
-0.034473
-0.021483
-0.038627
-0.047198
-0.031091
-0.024596
-0.038882
-0.046934
-0.037840
-0.033163
-0.025889
-0.024848
-0.036277
-0.040432
-0.037574
-0.029779
-0.037052
-0.041726
-0.027697
-0.032112
-0.038865
-0.031071
-0.031849
-0.038602
-0.035483
-0.029767
-0.037819
-0.039896
-0.027686
-0.028724
-0.040932
-0.044048
-0.035474
-0.026121
-0.030016
-0.032613
-0.031313
-0.038845
-0.038324
-0.037544
-0.028191
-0.018578
-0.037540
-0.047670
-0.038837
-0.031822
-0.034678
-0.029741
-0.028701
-0.041948
-0.029218
-0.020385
-0.039607
-0.049217
-0.034409
-0.030511
-0.039342
-0.028171
-0.029468
-0.035961
-0.032323
-0.032582
-0.032321
-0.046607
-0.039592
-0.018030
-0.027640
-0.041407
-0.041666
-0.035170
-0.026597
-0.028154
-0.048675
-0.041140
-0.016461
-0.030747
-0.043734
-0.038538
-0.029704
-0.031781
-0.041911
-0.029441
-0.027621
-0.040349
-0.043205
-0.035151
-0.030214
-0.037747
-0.030212
-0.033328
-0.038522
-0.025273
-0.031246
-0.035142
-0.037479
-0.044751
-0.039295
-0.025785
-0.023186
-0.044227
-0.039550
-0.023962
-0.041885
-0.041105
-0.026816
-0.027075
-0.030970
-0.039541
-0.033825
-0.035902
-0.042395
-0.030445
-0.036938
-0.040313
-0.025246
-0.028362
-0.038491
-0.033035
-0.025241
-0.037449
-0.050956
-0.035628
-0.016144
-0.026534
-0.053808
-0.053028
-0.029647
-0.013540
-0.020293
-0.052244
-0.050165
-0.019510
-0.032498
-0.049122
-0.030157
-0.018986
-0.029376
-0.039765
-0.038465
-0.037165
-0.040801
-0.032487
-0.029888
-0.042356
-0.034821
-0.022351
-0.025208
-0.027025
-0.044428
-0.058455
-0.034035
-0.019746
-0.037410
-0.039746
-0.026497
-0.025716
-0.032209
-0.043119
-0.047014
-0.031427
-0.020255
-0.026229
-0.043113
-0.049606
-0.028563
-0.018431
-0.041030
-0.047003
-0.031416
-0.032194
-0.027777
-0.032192
-0.055570
-0.044139
-0.014264
-0.013743
-0.044655
-0.062318
-0.035820
-0.008023
-0.019712
-0.051143
-0.057896
-0.028541
-0.011654
-0.038410
-0.054514
-0.033472
-0.021261
-0.031911
-0.042040
-0.036064
-0.029309
-0.040478
-0.037360
-0.029046
-0.038916
-0.029044
-0.031380
-0.043588
-0.031897
-0.032676
-0.035532
-0.031374
-0.033451
-0.033190
-0.026955
-0.030071
-0.045136
-0.042278
-0.026950
-0.025910
-0.042014
-0.037077
-0.019672
-0.031880
-0.047465
-0.041489
-0.025901
-0.029797
-0.042265
-0.035509
-0.027715
-0.022259
-0.031349
-0.045895
-0.038101
-0.028229
-0.032124
-0.044332
-0.036538
-0.020950
-0.028223
-0.032118
-0.039910
-0.045104
-0.031075
-0.026398
-0.035229
-0.041463
-0.028213
-0.026653
-0.044317
-0.040159
-0.031585
-0.031584
-0.028726
-0.029244
-0.043790
-0.048205
-0.022486
-0.015991
-0.038590
-0.039628
-0.035470
-0.039365
-0.025077
-0.025595
-0.038842
-0.037542
-0.043516
-0.036501
-0.027927
-0.030784
-0.025847
-0.042471
-0.042989
-0.019609
-0.035713
-0.048960
-0.035191
-0.027657
-0.029734
-0.029213
-0.031550
-0.043238
-0.034924
-0.026870
-0.043754
-0.044013
-0.026867
-0.027125
-0.032320
-0.027643
-0.032057
-0.038031
-0.038030
-0.042185
-0.036988
-0.027116
-0.024517
-0.025555
-0.039062
-0.045555
-0.039319
-0.032044
-0.015678
-0.026587
-0.053602
-0.049704
-0.023726
-0.014633
-0.035933
-0.043984
-0.041905
-0.040865
-0.026576
-0.026055
-0.039303
-0.037223
-0.024753
-0.024752
-0.035921
-0.044492
-0.041374
-0.024228
-0.024226
-0.042409
-0.048383
-0.035653
-0.018247
-0.024220
-0.040065
-0.041103
-0.043700
-0.033048
-0.015382
-0.031487
-0.051748
-0.037979
-0.016936
-0.027066
-0.050444
-0.041871
-0.024205
-0.028100
-0.032775
-0.042645
-0.044722
-0.024199
-0.029133
-0.047316
-0.034067
-0.020298
-0.026791
-0.039778
-0.045752
-0.037957
-0.026267
-0.017173
-0.029122
-0.048084
-0.041848
-0.032495
-0.030935
-0.037428
-0.035089
-0.025217
-0.029891
-0.025994
-0.038461
-0.052488
-0.033004
-0.022872
-0.033781
-0.044171
-0.036376
-0.028322
-0.029360
-0.032996
-0.040008
-0.030136
-0.023900
-0.032731
-0.038445
-0.029611
-0.019739
-0.041818
-0.053507
-0.037140
-0.032723
-0.029864
-0.022589
-0.023887
-0.041550
-0.044666
-0.029858
-0.039209
-0.038948
-0.024659
-0.030373
-0.036866
-0.035306
-0.031928
-0.027251
-0.027510
-0.037380
-0.038937
-0.037637
-0.045169
-0.043350
-0.029840
-0.011655
-0.018928
-0.046202
-0.043084
-0.033211
-0.043601
-0.040483
-0.025415
-0.026712
-0.027750
-0.019956
-0.033203
-0.052165
-0.047228
-0.040993
-0.034757
-0.017351
-0.015532
-0.028519
-0.044104
-0.037349
-0.028775
-0.053452
-0.036566
-0.018121
-0.038642
-0.036562
-0.038639
-0.032144
-0.019674
-0.032401
-0.039674
-0.033178
-0.031878
-0.050580
-0.038890
-0.008235
-0.026678
-0.038107
-0.043041
-0.046157
-0.013944
-0.019918
-0.042257
-0.051348
-0.047450
-0.021991
-0.028225
-0.029782
-0.022767
-0.034456
-0.040949
-0.049000
-0.045103
-0.027957
-0.015746
-0.025357
-0.043280
-0.040940
-0.035484
-0.025612
-0.030286
-0.041455
-0.031843
-0.038336
-0.040932
-0.031839
-0.024824
-0.016250
-0.034433
-0.051837
-0.053394
-0.041703
-0.012088
-0.010269
-0.027152
-0.040659
-0.039359
-0.034942
-0.044293
-0.044291
-0.041952
-0.022208
-0.015973
-0.040130
-0.034414
-0.040388
-0.046361
-0.023760
-0.030773
-0.035447
-0.031550
-0.038302
-0.029729
-0.032585
-0.034662
-0.027387
-0.033621
-0.039854
-0.041411
-0.038293
-0.032577
-0.027380
-0.032574
-0.039067
-0.033092
-0.034389
-0.036466
-0.032309
-0.033347
-0.033605
-0.031006
-0.032823
-0.034641
-0.038276
-0.036976
-0.023986
-0.032298
-0.042168
-0.036452
-0.033853
-0.019305
-0.029694
-0.048137
-0.033588
-0.029951
-0.030209
-0.040079
-0.051248
-0.026309
-0.017216
-0.033061
-0.039813
-0.039553
-0.029940
-0.040589
-0.044485
-0.020844
-0.028896
-0.035389
-0.034349
-0.043699
-0.030710
-0.029150
-0.035383
-0.034603
-0.034082
-0.030444
-0.038496
-0.038494
-0.029661
-0.034596
-0.035633
-0.032775
-0.032254
-0.034851
-0.036668
-0.031211
-0.037445
-0.034066
-0.023934
-0.033545
-0.034323
-0.037958
-0.042113
-0.036917
-0.032500
-0.017432
-0.030939
-0.043147
-0.031975
-0.043404
-0.037428
-0.023139
-0.021580
-0.030151
-0.047295
-0.037162
-0.035083
-0.034562
-0.022612
-0.028845
-0.030402
-0.038454
-0.040012
-0.032997
-0.035593
-0.025461
-0.030915
-0.038707
-0.037666
-0.038445
-0.031430
-0.038182
-0.024673
-0.014801
-0.039218
-0.045971
-0.039216
-0.024927
-0.042850
-0.041810
-0.007519
-0.047263
-0.043884
-0.013230
-0.053234
-0.048557
-0.002836
-0.004913
-0.062840
-0.064917
-0.018158
-0.019975
-0.028026
-0.037377
-0.043610
-0.028802
-0.023606
-0.038411
-0.039449
-0.021524
-0.026458
-0.050616
-0.055031
-0.025935
-0.010348
-0.032947
-0.052948
-0.030087
-0.014499
-0.047229
-0.046968
-0.020471
-0.019430
-0.038652
-0.052159
-0.035273
-0.034232
-0.025139
-0.013708
-0.043321
-0.043839
-0.026953
-0.028510
-0.036043
-0.032664
-0.020194
-0.038637
-0.049806
-0.039673
-0.025645
-0.014733
-0.034734
-0.043565
-0.035511
-0.035510
-0.029534
-0.026675
-0.031090
-0.042779
-0.038881
-0.027710
-0.031865
-0.032643
-0.030564
-0.027705
-0.037575
-0.046926
-0.026922
-0.016530
-0.032115
-0.051337
-0.050297
-0.027695
-0.013147
-0.025615
-0.047434
-0.036523
-0.022494
-0.033403
-0.032883
-0.030803
-0.037556
-0.038594
-0.035995
-0.037552
-0.031317
-0.019886
-0.026898
-0.031313
-0.031052
-0.045598
-0.049234
-0.028191
-0.017280
-0.031566
-0.037020
-0.029745
-0.031303
-0.038575
-0.038833
-0.033637
-0.034415
-0.028699
-0.024282
-0.035451
-0.045321
-0.040384
-0.028953
-0.028952
-0.028171
-0.032846
-0.040638
-0.034402
-0.026348
-0.031282
-0.042971
-0.032059
-0.023745
-0.036733
-0.037251
-0.032574
-0.035690
-0.033611
-0.023479
-0.027893
-0.042439
-0.039061
-0.034904
-0.032305
-0.024770
-0.027107
-0.039835
-0.047367
-0.035416
-0.028141
-0.027101
-0.028918
-0.034632
-0.036969
-0.036188
-0.027615
-0.037485
-0.041900
-0.031767
-0.029948
-0.027609
-0.038778
-0.036439
-0.032281
-0.031501
-0.025525
-0.038252
-0.036692
-0.032795
-0.029676
-0.031493
-0.038506
-0.031231
-0.036166
-0.028891
-0.024993
-0.040059
-0.044214
-0.036160
-0.023690
-0.029144
-0.031740
-0.034596
-0.044466
-0.041868
-0.032515
-0.021603
-0.027836
-0.035109
-0.035367
-0.039523
-0.032767
-0.026791
-0.031206
-0.038219
-0.038737
-0.033021
-0.029903
-0.027044
-0.034057
-0.041069
-0.031457
-0.030416
-0.040806
-0.039506
-0.028075
-0.030931
-0.034826
-0.023915
-0.030408
-0.041837
-0.041576
-0.032223
-0.018973
-0.028064
-0.033778
-0.036634
-0.038971
-0.025721
-0.033513
-0.045202
-0.035849
-0.022340
-0.032210
-0.048314
-0.029869
-0.020517
-0.033244
-0.036620
-0.036619
-0.035319
-0.028304
-0.024406
-0.032717
-0.039470
-0.032975
-0.036351
-0.039207
-0.029594
-0.032710
-0.033229
-0.031669
-0.029070
-0.028549
-0.035822
-0.029586
-0.033222
-0.034000
-0.031920
-0.037894
-0.030359
-0.031137
-0.032435
-0.036590
-0.037628
-0.031133
-0.039964
-0.027494
-0.019180
-0.035544
-0.040998
-0.033204
-0.026968
-0.040215
-0.036577
-0.024886
-0.031639
-0.033197
-0.031117
-0.033194
-0.038908
-0.031373
-0.033970
-0.043061
-0.032409
-0.030070
-0.031368
-0.025911
-0.029807
-0.046431
-0.044092
-0.025387
-0.025645
-0.032398
-0.034216
-0.036033
-0.035772
-0.032134
-0.031094
-0.034469
-0.031611
-0.033428
-0.036024
-0.032646
-0.033424
-0.030825
-0.032383
-0.030823
-0.031601
-0.033678
-0.031599
-0.040170
-0.034194
-0.029777
-0.033932
-0.026657
-0.030033
-0.033669
-0.043539
-0.040940
-0.025093
-0.032105
-0.027168
-0.030025
-0.036518
-0.037556
-0.045088
-0.024305
-0.024304
-0.033395
-0.040667
-0.040666
-0.024819
-0.034689
-0.030271
-0.035985
-0.033906
-0.021436
-0.035982
-0.029226
-0.034680
-0.013378
0.031823
0.092091
0.237824
0.409014
0.596829
0.659955
0.551891
0.326931
-0.076492
-0.616034
-1.258186
-1.438206
-0.784362
0.340706
0.610609
-0.135451
0.155233
1.320306
1.138727
-1.059710
-1.948384
-0.491070
0.918446
0.141734
-3.218918
-2.253609
1.241346
3.194822
5.467037
1.898050
-3.899770
-6.283424
-2.153329
7.178672
6.989560
-1.019946
-8.047780
-5.059377
2.894541
4.615003
9.355298
-1.664950
-16.612930
-2.152277
10.655455
3.478513
-9.935521
-9.010736
2.425407
10.163195
16.992826
3.615420
-13.086531
-12.561014
-3.762322
4.422272
-0.800935
5.206781
11.095523
-4.672812
-7.484309
7.869435
9.897206
-13.981948
-20.449715
6.767233
17.744102
4.841816
-7.872916
-9.955236
2.546486
6.191848
-0.697787
-0.861961
-7.216988
-6.296360
6.749062
8.818916
2.658716
2.882900
11.593789
-1.801022
-24.222603
-13.702151
8.662282
11.004116
-3.660454
-1.257575
11.828112
0.863974
-14.387677
-10.307459
9.958028
20.680061
3.923559
-17.519726
-16.755479
-0.176138
-0.866867
-5.360118
10.018044
17.810125
6.166168
-6.857431
-1.796838
6.110061
3.397278
2.913326
-6.608565
-15.408294
-7.833901
3.782004
8.286947
3.042179
2.723442
3.426123
-6.415286
-17.167970
-17.912991
3.582769
26.714045
17.704682
-3.761462
-5.200071
5.780954
2.171702
-8.296014
-2.342589
1.129766
-8.796588
-11.902145
-4.186436
3.853466
9.808708
17.700541
12.870107
-7.965833
-19.841246
-14.493347
1.821029
9.802222
0.572314
-1.514423
5.816046
3.494477
-5.005736
-8.496013
-6.958689
-0.240760
12.254468
13.168082
-5.055345
-9.752517
13.622165
22.036136
-3.579843
-19.058535
-6.285352
4.069106
-2.644924
-3.795707
9.700157
16.031288
11.167344
-3.515929
-21.364508
-20.411928
-5.686049
-2.466191
-10.476997
-1.853390
18.317280
17.798520
-0.409062
-7.062306
5.269267
12.104352
4.363449
-3.145480
-6.666150
-11.968846
-9.446213
2.017206
1.863683
-4.309764
1.373498
14.603098
12.106184
-7.364143
-10.535421
7.823349
16.690621
-1.106264
-15.577564
-10.717515
-8.667923
-6.918367
1.222846
11.018797
16.642313
18.925957
12.500532
-12.885810
-27.765211
-8.951842
17.804534
14.800288
-5.836149
-8.040042
0.927761
3.693799
-2.188965
-3.479764
-2.108174
-11.453421
-16.278659
-10.955438
2.005558
19.287060
21.367824
4.300635
-12.106996
-9.540720
1.141828
2.176756
0.038325
-3.433508
-3.057099
7.839500
12.259498
8.214871
-0.208710
-12.148286
-12.022296
-3.131126
1.940897
-0.593944
-0.795784
8.147860
10.729202
5.743945
-2.906156
-12.537670
-14.052911
-5.301238
7.318940
10.800387
4.067134
-2.376995
0.047965
1.964034
-3.193451
-4.347610
1.862987
5.891251
-6.861147
-11.665604
6.188692
14.118711
6.746682
-1.078907
-1.986025
-10.082035
-15.576182
8.491827
24.931412
3.665031
-23.048220
-17.382362
8.870578
13.274731
-4.545273
-9.919926
1.531024
7.177659
6.026876
5.419794
-0.313343
-12.592179
-19.132163
-13.937269
-8.396620
4.524112
26.142224
29.561326
15.788029
3.751559
1.311275
4.872211
4.069262
-1.559967
-15.139734
-27.513647
-19.958217
1.711849
21.427142
23.229691
15.366176
14.411520
7.468372
-8.182807
-19.276050
-17.671186
-5.622504
8.612148
17.074437
5.350730
-13.954642
-16.600664
-8.485169
-1.394209
-4.955403
-10.580475
-6.846531
-5.744583
0.328076
16.409957
18.006508
-5.982009
-27.501406
-16.697544
8.080937
15.889384
-0.130669
-21.673186
-27.439313
-19.254979
-4.631710
1.939708
-14.329465
-34.504029
-25.674165
1.801255
15.445709
16.937053
29.396692
61.178850
93.422879
105.114897
100.350964
93.376644
86.706775
72.315223
20.854664
-66.792462
-139.572396
-189.741895
-214.922240
-202.806277
-178.812822
-142.902130
-78.197943
7.891342
90.144333
140.703491
161.147440
170.191356
166.513784
149.386069
123.337051
79.754296
19.751959
-48.706690
-104.744927
-144.194472
-172.035907
-157.138061
-111.302832
-61.922514
-6.981805
47.568208
97.564183
138.163215
176.955023
194.269256
175.916982
141.511663
56.656811
-59.331030
-123.910785
-147.070374
-161.294373
-176.991012
-197.526657
-191.946264
-140.410628
-40.586752
73.783760
149.659123
175.130933
166.355883
146.414332
118.582509
63.522308
-0.851708
-57.991113
-134.655138
-153.008450
-80.052909
-26.560941
-11.783369
-17.637558
-33.254967
-22.609046
34.974569
111.423506
124.610763
61.424677
-10.830001
-50.778825
-81.095354
-102.840232
-74.100248
-25.661079
9.527710
49.073373
85.352160
113.258799
130.888134
133.038257
124.736508
96.767266
32.444165
-51.650598
-110.491760
-127.310868
-127.982114
-130.883751
-127.267743
-116.755084
-87.880799
-30.244970
28.694128
73.722509
95.784829
86.773907
71.541219
63.902665
59.688667
52.933333
19.783226
-31.060378
-55.001617
-50.170661
-41.012707
-35.576745
-34.492721
-32.080231
-19.102609
-6.209412
-8.184707
-10.480299
-4.453359
10.647888
32.943222
44.610821
41.259002
23.654088
-0.501202
-16.259146
-19.610186
-15.020298
-11.713936
-11.092304
-16.732183
-19.816438
-4.498802
14.333790
26.698872
35.501201
37.146330
36.814084
31.846752
20.683890
10.028360
-4.670240
-17.024410
-20.791083
-18.129992
-4.338508
11.895338
15.989844
11.926513
2.392153
-16.004801
-27.291314
-19.674059
2.100435
26.448477
38.117115
41.194359
36.608889
18.026199
-5.792948
-29.394406
-46.487052
-50.384130
-43.001707
-30.177610
-21.937425
-14.972713
0.470651
14.698549
20.472212
23.974701
22.326198
11.268543
-6.978784
-24.387311
-28.827829
-20.692071
-4.178712
15.293696
26.078594
24.780261
13.414259
0.084390
-2.210942
4.793255
8.419134
5.143428
-0.819346
-7.212300
-14.140901
-20.608149
-24.763698
-24.570168
-16.826405
-3.463023
8.581762
14.734950
16.015621
13.519486
8.208477
0.556674
-12.069475
-24.211932
-29.945329
-25.778087
-10.539941
6.425679
21.547188
34.605599
40.692545
39.565921
33.242846
24.648855
15.234509
2.112977
-13.331944
-24.931740
-30.673449
-31.752275
-28.948050
-23.911356
-15.878468
-7.523724
-3.065540
3.264552
12.793979
19.888316
20.195625
11.202627
-2.029567
-11.901889
-12.659379
-6.669067
-0.634335
2.612280
-0.058421
-3.026818
-1.999684
-0.782658
4.985290
14.246114
17.042546
10.269028
-2.792237
-13.609345
-16.947656
-13.394512
-5.847135
-0.649643
4.364191
15.300016
27.933182
34.145597
32.260443
24.428620
9.919393
-6.012079
-15.314204
-20.964993
-25.599040
-26.609806
-21.113318
-7.320796
7.167132
14.811144
17.411969
17.096348
11.438545
-0.301007
-10.400368
-12.591792
-7.311434
2.250464
8.936442
8.627056
2.128895
-8.324273
-17.165565
-20.395812
-19.013052
-17.029182
-15.336775
-11.309550
-5.583165
0.380650
4.779866
8.418735
12.838473
12.604940
8.280021
6.876481
9.744610
14.280985
17.091185
16.730625
12.089564
3.397640
-6.792381
-13.473420
-13.871648
-10.779337
-6.010207
-4.799415
-7.110073
-5.980330
-2.774240
-0.611648
-0.372138
-2.597592
-5.932266
-8.027835
-9.552687
-9.592950
-2.460947
9.318094
18.327719
22.069197
21.954899
19.115607
12.503667
5.561298
1.088828
-3.616136
-8.824016
-10.678777
-5.108255
2.656550
4.147375
3.051664
4.389483
5.648073
2.732149
-5.034472
-11.274940
-11.656022
-8.356415
-4.049417
-1.926830
-1.483140
0.266676
4.915792
10.547360
12.217167
12.039225
12.507853
9.503087
0.506712
-11.232581
-19.384961
-22.865886
-23.839505
-20.859935
-14.106937
-6.947917
-1.838488
1.437481
4.505373
4.603308
0.310859
-3.454774
-2.207355
2.838691
6.161938
7.717185
8.901741
9.023055
10.499852
13.216015
12.748948
6.717335
0.866783
-0.757042
-2.427106
-5.625401
-8.942931
-11.095129
-12.050045
-11.902234
-9.031508
-7.487690
-9.106059
-7.912672
-1.900020
4.119386
4.983125
4.096269
6.473171
10.487148
13.255265
13.448016
10.717568
2.938478
-6.795126
-11.782461
-12.062232
-9.812877
-6.316364
-3.009742
-1.135756
0.840321
3.910551
7.410701
10.690047
9.202861
3.343996
-1.331614
-4.072193
-6.703409
-8.634802
-8.669870
-7.861722
-5.815508
-1.757370
1.971378
3.446617
4.163585
5.534656
7.414357
8.438114
7.301099
4.795613
2.004119
1.432885
4.530131
7.689203
7.007306
4.441293
3.679647
4.381808
4.570922
3.104258
0.995701
-0.312502
-0.769697
-0.174302
0.382388
-1.624859
-4.119954
-4.667030
-5.549989
-6.668820
-6.668819
-4.702874
-2.077111
-2.124128
-3.562737
-4.192160
-1.755251
2.897762
4.862149
4.544450
3.628500
2.815420
2.150408
1.035214
1.045866
0.070948
-3.221384
-5.569709
-5.402935
-2.714568
-0.327275
0.870789
2.939863
2.215104
-3.057459
-7.479274
-6.498638
-2.313213
-1.621443
-2.629351
-0.655353
2.117440
5.332622
8.555857
9.825877
8.047228
3.269528
-0.903166
-3.105500
-4.588529
-5.394337
-5.575396
-4.399932
-1.509464
0.576756
-0.266199
-1.582196
-0.301006
2.176688
3.225902
2.671553
1.272949
0.582740
1.619485
2.064474
0.784845
0.332585
1.644688
1.487268
-1.471778
-3.218994
-1.624001
0.001645
-3.084169
-8.649234
-9.721306
-7.292969
-5.350663
-3.813859
-2.300694
-1.611262
-2.073133
-1.098472
1.862395
4.002127
6.569441
10.819030
13.028899
10.134536
3.651702
-1.080019
-2.130790
-3.328331
-5.629638
-6.116187
-3.720321
-0.556314
1.776427
3.925511
4.994468
4.538832
3.454810
1.587060
0.238852
0.491870
2.369493
4.767697
4.966163
3.108284
1.770727
1.699810
1.207286
-1.288329
-3.913050
-3.402340
-0.711375
1.559282
1.546294
-2.470797
-6.454639
-5.530373
-2.428711
-1.205190
-2.296485
-3.182042
-1.741093
-0.365607
