EVENT_NAME: 202504220039
EVENT_ID: -1
EVENT_DATE_YYYYMMDD: 20250422
EVENT_TIME_HHMMSS: 003939
EVENT_LATITUDE_DEGREE: 38.19222
EVENT_LONGITUDE_DEGREE: 44.22389
EVENT_DEPTH_KM: 6.95
HYPOCENTER_REFERENCE: AFAD
MAGNITUDE_W: 4
MAGNITUDE_W_REFERENCE: AFAD
MAGNITUDE_L: 
MAGNITUDE_L_REFERENCE: 
FOCAL_MECHANISM: 
NETWORK: TK
STATION_CODE: 6508
STATION_NAME: 
STATION_LATITUDE_DEGREE: 38.65729
STATION_LONGITUDE_DEGREE: 43.97665
STATION_ELEVATION_M: 1994.0
LOCATION: Van_Baskale_Turkiye
SENSOR_DEPTH_M: 
VS30_M/S: None
SITE_CLASSIFICATION_EC8: unknown
MORPHOLOGIC_CLASSIFICATION: 
EPICENTRAL_DISTANCE_KM: 56.02
EARTHQUAKE_BACKAZIMUTH_DEGREE: 
DATE_TIME_FIRST_SAMPLE_YYYYMMDD_HHMMSS: 20250422_003923
DATE_TIME_FIRST_SAMPLE_PRECISION: millisecond
SAMPLING_INTERVAL_S: 0.01
NDATA: 10501
DURATION_S: 
STREAM: HNN
UNITS: cm/s^2
INSTRUMENT: sensor = CMG-5T/GURALP | digitizer = 
INSTRUMENT_ANALOG/DIGITAL: 
INSTRUMENTAL_FREQUENCY_HZ: 
INSTRUMENTAL_DAMPING: 
FULL_SCALE_G: 
N_BIT_DIGITAL_CONVERTER: 
PGA_CM/S^2: 0.279
TIME_PGA_S: 
BASELINE_CORRECTION: -
FILTER_TYPE: BUTTERWORTH
FILTER_ORDER: 
LOW_CUT_FREQUENCY_HZ: 
HIGH_CUT_FREQUENCY_HZ: 
LATE/NORMAL_TRIGGERED: 
DATABASE_VERSION: 
HEADER_FORMAT: DYNA 1.2
DATA_TYPE: Acceleration
PROCESSING: Unprocessed
DATA_TIMESTAMP_YYYYMMDD_HHMMSS: 
DATA_LICENSE: U (unknown license)
DATA_CITATION: Turkish Accelerometric Archive v 1.0 - Disaster And Emergency Management Presidency, Earthquake Department
DATA_CREATOR: AFAD
ORIGINAL_DATA_MEDIATOR_CITATION: : AFAD - Disaster And Emergency Management Presidency
ORIGINAL_DATA_MEDIATOR: AFAD PROCESS SERVICE
ORIGINAL_DATA_CREATOR_CITATION: AFAD PROCESS SERVICE
ORIGINAL_DATA_CREATOR: network: TK
USER1: GuestUser
USER2: 
USER3: 
USER4: 
USER5: 
[...]
0.013018
0.015254
0.017490
0.020685
0.023560
0.026754
0.025796
0.021644
0.013339
0.010145
0.004077
0.001521
-0.000714
-0.001992
-0.000714
0.003758
0.010147
0.013661
0.013341
0.007273
0.000565
-0.009017
-0.011572
-0.017322
-0.020515
-0.022112
-0.019237
-0.013168
-0.007099
0.000248
0.000887
-0.000710
-0.003904
-0.008056
-0.008695
-0.011889
-0.012208
-0.008694
0.000250
0.013346
0.024845
0.032192
0.035067
0.035386
0.030915
0.026763
0.019097
0.012389
0.008876
0.006321
0.009515
0.017501
0.026125
0.031236
0.033472
0.030917
0.025487
0.018460
0.006642
-0.009967
-0.023383
-0.034242
-0.040631
-0.040311
-0.035200
-0.028173
-0.024340
-0.025617
-0.031366
-0.039351
-0.051489
-0.062668
-0.072251
-0.079597
-0.076722
-0.067139
-0.050210
-0.033600
-0.019546
-0.009644
-0.004533
-0.005491
-0.008365
-0.010601
-0.010920
-0.003893
0.002815
0.017508
0.029008
0.037632
0.044021
0.053923
0.065103
0.072130
0.067658
0.056798
0.045300
0.035079
0.023899
0.012720
0.006332
0.006012
0.013040
0.021664
0.026775
0.023262
0.011124
-0.005485
-0.022734
-0.037107
-0.053716
-0.065215
-0.064896
-0.046369
-0.027523
-0.024010
-0.031675
-0.038064
-0.042855
-0.045729
-0.041577
-0.034869
-0.017300
0.010170
0.039876
0.061596
0.066387
0.065429
0.067027
0.063194
0.055848
0.046904
0.039238
0.037003
0.031892
0.025185
0.019435
0.013686
0.014645
0.015603
0.022630
0.029977
0.029658
0.021034
0.005702
-0.008352
-0.022087
-0.035821
-0.036779
-0.025600
-0.010587
-0.002282
-0.009628
-0.032306
-0.060095
-0.080538
-0.089481
-0.091078
-0.090120
-0.084051
-0.071593
-0.052109
-0.025916
-0.005793
-0.003557
-0.018888
-0.036775
-0.037095
-0.018568
0.007943
0.035094
0.061606
0.089715
0.112074
0.123254
0.122615
0.110797
0.099618
0.091952
0.086203
0.079814
0.072788
0.063844
0.056498
0.044680
0.029987
0.014016
0.002198
-0.006107
-0.015689
-0.032618
-0.053060
-0.068712
-0.071906
-0.062323
-0.057851
-0.064878
-0.080529
-0.090750
-0.092986
-0.089472
-0.091388
-0.102887
-0.114386
-0.109914
-0.086916
-0.046988
-0.008019
0.024561
0.050754
0.069280
0.078543
0.075669
0.061934
0.048519
0.045325
0.055547
0.068004
0.076309
0.078545
0.074074
0.058742
0.030314
-0.000350
-0.020473
-0.026222
-0.026861
-0.031332
-0.042831
-0.060079
-0.069662
-0.064870
-0.046024
-0.022387
0.000611
0.020095
0.034789
0.046607
0.047566
0.037664
0.019458
0.005084
0.000612
0.000932
0.003488
0.006043
0.005724
-0.006414
-0.026856
-0.052729
-0.077323
-0.097127
-0.107348
-0.096488
-0.067421
-0.025896
0.011795
0.040543
0.053320
0.054917
0.048209
0.043738
0.045016
0.045016
0.050446
0.054599
0.059390
0.064182
0.072487
0.073765
0.070251
0.056197
0.040226
0.024575
0.011479
-0.009921
-0.032600
-0.052084
-0.069652
-0.078276
-0.082428
-0.078914
-0.075081
-0.073483
-0.082427
-0.093606
-0.099356
-0.096800
-0.090731
-0.088175
-0.085300
-0.072523
-0.056552
-0.031318
0.000943
0.033524
0.061952
0.089102
0.107629
0.113698
0.104755
0.085909
0.065147
0.057801
0.066106
0.077925
0.085591
0.084952
0.076009
0.062274
0.044387
0.025861
-0.000011
-0.028759
-0.051118
-0.061339
-0.049201
-0.015981
0.013405
0.029057
0.028099
0.014045
-0.016938
-0.054310
-0.087848
-0.109888
-0.111165
-0.102222
-0.081779
-0.054628
-0.020450
0.019158
0.050141
0.065793
0.063238
0.050781
0.046309
0.052378
0.068669
0.076654
0.073780
0.064836
0.056532
0.053018
0.052380
0.047589
0.029063
0.000635
-0.033543
-0.064526
-0.089759
-0.109882
-0.119465
-0.120103
-0.112118
-0.097105
-0.073148
-0.047276
-0.023639
-0.013417
-0.029388
-0.058774
-0.082730
-0.087521
-0.072827
-0.049510
-0.023637
0.000958
0.025873
0.043122
0.052385
0.047275
0.036734
0.028749
0.026513
0.031305
0.038332
0.040568
0.041527
0.042166
0.048235
0.062609
0.070914
0.065803
0.047916
0.034501
0.026196
0.018211
0.015017
0.012143
0.007991
0.009268
0.009907
0.019810
0.030351
0.035142
0.032267
0.026199
0.017255
0.009909
0.006715
-0.003826
-0.016921
-0.029059
-0.033211
-0.029059
-0.027142
-0.031933
-0.049181
-0.071221
-0.082081
-0.073137
-0.054291
-0.037362
-0.029057
-0.028098
-0.024584
-0.012766
0.004802
0.017579
0.025245
0.026843
0.036106
0.055591
0.072839
0.083061
0.082422
0.076673
0.070604
0.065813
0.056870
0.043774
0.024290
-0.002860
-0.034802
-0.060674
-0.072812
-0.070256
-0.062590
-0.052369
-0.047577
-0.050771
-0.056840
-0.064825
-0.074407
-0.082393
-0.089100
-0.090697
-0.082073
-0.068976
-0.056519
-0.043423
-0.028410
-0.007009
0.013434
0.023975
0.031961
0.036433
0.049529
0.062625
0.078916
0.088818
0.090415
0.084027
0.073806
0.063585
0.053364
0.039629
0.020464
-0.000936
-0.019462
-0.026170
-0.023295
-0.015629
-0.012754
-0.007323
0.006731
0.041228
0.079878
0.101918
0.100321
0.083712
0.058478
0.034522
0.010566
-0.009238
-0.024570
-0.035429
-0.042776
-0.052678
-0.069287
-0.090049
-0.106019
-0.115921
-0.117518
-0.111768
-0.099630
-0.083979
-0.062897
-0.037343
-0.013068
0.009292
0.027499
0.044747
0.061357
0.071898
0.076370
0.074135
0.072218
0.068066
0.058803
0.046346
0.033570
0.022710
0.018558
0.022071
0.037084
0.050181
0.063916
0.070624
0.063916
0.046668
0.021115
-0.016576
-0.051712
-0.076626
-0.088764
-0.092277
-0.092916
-0.090041
-0.091318
-0.086846
-0.086846
-0.084929
-0.077902
-0.062570
-0.048196
-0.032544
-0.017531
0.002592
0.023035
0.036770
0.042520
0.039006
0.038048
0.038049
0.046354
0.050826
0.062644
0.072546
0.086920
0.102891
0.115029
0.109280
0.088518
0.057535
0.024955
-0.004751
-0.029345
-0.042122
-0.044038
-0.038608
-0.041802
-0.045635
-0.048190
-0.039885
-0.028385
-0.022316
-0.031579
-0.046911
-0.061604
-0.063520
-0.056173
-0.049146
-0.050743
-0.053617
-0.051062
-0.039563
-0.021356
-0.008898
-0.002190
-0.002510
-0.002509
-0.006981
-0.014966
-0.026465
-0.028701
-0.021034
-0.003786
0.009311
0.017935
0.018255
0.014102
0.015380
0.025602
0.047961
0.072556
0.094916
0.113442
0.126219
0.126539
0.117595
0.097792
0.074794
0.055949
0.041894
0.032312
0.026563
0.020494
0.013787
0.006440
-0.004420
-0.020710
-0.039555
-0.063511
-0.082676
-0.095772
-0.103757
-0.101521
-0.101840
-0.097687
-0.092576
-0.078522
-0.057121
-0.035081
-0.014638
-0.003139
0.001333
0.004528
0.015707
0.036470
0.064579
0.085021
0.098118
0.103867
0.109617
0.113770
0.106104
0.084064
0.057234
0.029764
0.006766
-0.010801
-0.021661
-0.024536
-0.027730
-0.034757
-0.045936
-0.058074
-0.072128
-0.083307
-0.101194
-0.125470
-0.148467
-0.164758
-0.166035
-0.152300
-0.129621
-0.103429
-0.073403
-0.041781
-0.017824
0.000702
0.005813
0.005174
0.010924
0.033603
0.071933
0.108027
0.129109
0.138053
0.137414
0.133262
0.119527
0.089822
0.047339
0.012204
-0.004406
-0.002169
0.016357
0.041272
0.059798
0.054368
0.031690
-0.004085
-0.038901
-0.065412
-0.076911
-0.066051
-0.046566
-0.022610
0.000069
0.015082
0.016360
0.006778
-0.007915
-0.017178
-0.018775
-0.013025
-0.000249
0.013167
0.031374
0.045109
0.051817
0.047346
0.032333
0.009335
-0.018134
-0.044965
-0.065727
-0.081697
-0.084252
-0.075628
-0.056463
-0.043047
-0.039214
-0.043047
-0.041449
-0.025159
-0.009827
0.000395
-0.004396
-0.012062
-0.009826
0.008700
0.040642
0.072584
0.098457
0.105165
0.094305
0.076418
0.059809
0.050865
0.045755
0.045435
0.048630
0.056935
0.070670
0.083766
0.092071
0.079934
0.048312
0.002955
-0.035694
-0.061886
-0.082009
-0.102132
-0.125449
-0.138545
-0.134712
-0.116505
-0.096701
-0.078814
-0.070828
-0.073064
-0.077216
-0.072424
-0.059967
-0.041121
-0.020359
0.003597
0.020527
0.036498
0.049275
0.059816
0.061732
0.051831
0.033305
0.010946
-0.003747
-0.008219
-0.003747
0.004878
0.014460
0.022127
0.028196
0.025641
0.020211
0.012545
0.007115
0.003921
0.004560
0.002963
0.001047
-0.002786
-0.005341
-0.007257
-0.011090
-0.016200
-0.025144
-0.032490
-0.037920
-0.036962
-0.028657
-0.013005
0.009035
0.035866
0.059503
0.068128
0.064295
0.055671
0.043853
0.028840
0.005204
-0.019072
-0.037278
-0.036959
-0.024821
-0.007891
0.000733
-0.000864
-0.004696
-0.007571
-0.009807
-0.014917
-0.026416
-0.039512
-0.043025
-0.031845
-0.003417
0.031399
0.067813
0.093047
0.110296
0.113490
0.101672
0.077077
0.047052
0.015750
-0.007567
-0.017150
-0.012997
-0.003414
0.001697
0.001058
-0.001178
-0.002775
-0.013954
-0.028008
-0.041104
-0.043020
-0.029924
-0.009162
0.015434
0.039390
0.056319
0.067180
0.069416
0.063028
0.043863
0.015435
-0.016506
-0.042698
-0.060266
-0.070168
-0.067932
-0.053238
-0.025129
-0.000215
0.012243
0.009688
-0.006283
-0.031197
-0.055473
-0.078790
-0.098913
-0.112328
-0.115841
-0.107536
-0.095079
-0.074636
-0.058665
-0.046208
-0.045888
-0.048443
-0.054831
-0.055789
-0.052914
-0.041096
-0.023208
-0.001488
0.019913
0.039718
0.052814
0.059522
0.061119
0.058245
0.049620
0.038441
0.031414
0.030776
0.038122
0.046747
0.060801
0.076134
0.086994
0.089549
0.083800
0.070385
0.047068
0.015126
-0.014579
-0.036299
-0.050353
-0.059936
-0.062171
-0.068560
-0.072392
-0.072712
-0.066004
-0.058337
-0.050352
-0.042366
-0.041408
-0.043963
-0.043643
-0.032783
-0.012979
0.015450
0.042281
0.067195
0.081250
0.087000
0.084764
0.076459
0.060169
0.039727
0.020882
0.012257
0.021521
0.040367
0.059851
0.070392
0.070073
0.054102
0.032063
0.013217
0.003955
0.005232
0.014815
0.029189
0.039091
0.045480
0.043883
0.033662
0.018330
-0.001154
-0.021277
-0.037887
-0.050663
-0.065995
-0.085798
-0.106880
-0.122531
-0.122211
-0.108796
-0.085478
-0.060563
-0.041398
-0.026066
-0.019677
-0.017761
-0.019996
-0.026384
-0.034370
-0.043313
-0.044271
-0.041716
-0.035327
-0.022870
-0.010093
0.005878
0.016100
0.017058
0.009073
-0.003064
-0.014244
-0.023507
-0.030534
-0.033408
-0.018395
0.012588
0.051238
0.089249
0.114483
0.119274
0.110011
0.098512
0.083181
0.073598
0.074876
0.082543
0.092125
0.094681
0.086696
0.072322
0.047727
0.023132
0.001093
-0.015836
-0.026377
-0.026057
-0.017113
-0.001461
0.013871
0.029522
0.041022
0.042299
0.035911
0.022496
0.005567
-0.009765
-0.020625
-0.023818
-0.019985
-0.011680
-0.000820
-0.000181
-0.016790
-0.046176
-0.080354
-0.112614
-0.135932
-0.149986
-0.157332
-0.155096
-0.144555
-0.129223
-0.121876
-0.118682
-0.122834
-0.130500
-0.134971
-0.129222
-0.104946
-0.064380
-0.012953
0.033043
0.063068
0.072970
0.064027
0.039432
0.015795
-0.008480
-0.020937
-0.030519
-0.030519
-0.030519
-0.033713
-0.038504
-0.037545
-0.029560
-0.014866
0.003340
0.014520
0.023464
0.035922
0.051573
0.070100
0.093417
0.118012
0.143566
0.166564
0.181577
0.177105
0.151233
0.113861
0.075532
0.046145
0.025384
0.010691
0.000470
-0.008793
-0.014543
-0.021250
-0.031152
-0.035943
-0.034984
-0.020930
0.009095
0.052217
0.102365
0.149000
0.182859
0.193400
0.186053
0.168166
0.147085
0.126004
0.112589
0.106200
0.103326
0.095980
0.079689
0.052539
0.017404
-0.015815
-0.044882
-0.069796
-0.087683
-0.098863
-0.107806
-0.118666
-0.139747
-0.171050
-0.204908
-0.233016
-0.247709
-0.251223
-0.247070
-0.240682
-0.233974
-0.233973
-0.237806
-0.241639
-0.239403
-0.231417
-0.213849
-0.189573
-0.160825
-0.129203
-0.088956
-0.050946
-0.014532
0.014855
0.047116
0.079058
0.108764
0.133678
0.149330
0.156038
0.156038
0.154441
0.153483
0.152206
0.154442
0.157956
0.154442
0.142944
0.124098
0.099823
0.071075
0.043606
0.020608
0.009109
0.007832
0.017095
0.035622
0.054467
0.064369
0.066925
0.062773
0.062454
0.072036
0.092479
0.111964
0.127615
0.128893
0.118033
0.097271
0.070441
0.044888
0.022209
0.001128
-0.016120
-0.033369
-0.046464
-0.062754
-0.082558
-0.097570
-0.102042
-0.089265
-0.070100
-0.047741
-0.031450
-0.024742
-0.023464
-0.024103
-0.020589
-0.011326
0.006881
0.027963
0.049364
0.062460
0.062780
0.044573
0.017104
-0.014518
-0.041349
-0.062750
-0.078082
-0.085428
-0.084150
-0.076164
-0.073609
-0.074247
-0.081594
-0.093412
-0.103953
-0.113215
-0.116729
-0.112576
-0.098522
-0.073288
-0.039429
-0.004613
0.035954
0.076200
0.119322
0.158291
0.184802
0.195024
0.191511
0.186400
0.183845
0.188636
0.193747
0.194706
0.181929
0.157654
0.121241
0.074606
0.022541
-0.030481
-0.082866
-0.131736
-0.172941
-0.201368
-0.217020
-0.225963
-0.235226
-0.244808
-0.254390
-0.259820
-0.255029
-0.232989
-0.186034
-0.117999
-0.041977
0.029572
0.084512
0.120926
0.141369
0.146799
0.140411
0.123801
0.095373
0.069182
0.046823
0.032768
0.029894
0.029575
0.028297
0.019673
-0.002366
-0.034308
-0.074873
-0.115439
-0.153449
-0.175489
-0.179641
-0.165587
-0.137797
-0.106813
-0.082857
-0.072955
-0.070399
-0.071038
-0.061455
-0.035582
0.002109
0.041717
0.075895
0.098573
0.113586
0.117739
0.111031
0.097297
0.081645
0.069508
0.065994
0.063759
0.068231
0.074619
0.070786
0.060246
0.050025
0.048428
0.063121
0.084522
0.104646
0.119020
0.130519
0.142018
0.153837
0.163739
0.164059
0.151921
0.130840
0.111036
0.095704
0.083886
0.064721
0.036932
0.003074
-0.029506
-0.055059
-0.072627
-0.078056
-0.076140
-0.071987
-0.064321
-0.057613
-0.052183
-0.060168
-0.088276
-0.131717
-0.182823
-0.224028
-0.247984
-0.242873
-0.214764
-0.164935
-0.108078
-0.051541
-0.002351
0.037576
0.068560
0.095710
0.119667
0.138832
0.157039
0.169816
0.179398
0.182912
0.171414
0.143625
0.101462
0.050036
-0.002987
-0.051538
-0.101686
-0.148640
-0.191761
-0.231369
-0.262032
-0.278322
-0.279280
-0.262990
-0.232006
-0.193676
-0.152791
-0.112544
-0.072617
-0.036522
-0.002664
0.030236
0.066330
0.098272
0.129256
0.148421
0.157365
0.147463
0.126701
0.090927
0.049083
0.002449
-0.042908
-0.076447
-0.084751
-0.068780
-0.029492
0.022893
0.076874
0.128620
0.169186
0.196337
0.204642
0.198892
0.179089
0.149064
0.109137
0.072724
0.039185
0.012035
-0.008407
-0.021823
-0.031405
-0.034918
-0.039390
-0.042264
-0.047694
-0.051208
-0.055679
-0.055998
-0.050568
-0.036833
-0.023417
-0.009363
-0.004571
-0.007446
-0.016709
-0.025333
-0.032040
-0.032040
-0.033637
-0.033637
-0.034595
-0.036830
-0.035872
-0.037469
-0.040024
-0.040982
-0.037788
-0.037468
-0.033635
-0.034593
-0.036190
-0.040022
-0.038425
-0.036828
-0.032995
-0.032994
-0.029481
-0.018940
0.002461
0.024821
0.047819
0.067304
0.081678
0.093496
0.103718
0.109467
0.116495
0.124480
0.132147
0.140452
0.141091
0.131828
0.110108
0.084555
0.060599
0.038879
0.018755
-0.010950
-0.047363
-0.083777
-0.111246
-0.127856
-0.132966
-0.134882
-0.128174
-0.117633
-0.106773
-0.094954
-0.082816
-0.073553
-0.064929
-0.055665
-0.040333
-0.025001
-0.006475
0.013649
0.028342
0.040480
0.046869
0.046869
0.042717
0.037287
0.030579
0.027385
0.026427
0.028025
0.030261
0.037288
0.041121
0.043677
0.045594
0.049746
0.057413
0.071148
0.084244
0.092868
0.092549
0.085203
0.071788
0.053900
0.026750
-0.003594
-0.027231
-0.037452
-0.039687
-0.034577
-0.026910
-0.016689
-0.005828
0.002477
0.006310
0.006949
-0.000078
-0.011896
-0.028506
-0.047990
-0.064280
-0.081528
-0.095902
-0.108359
-0.119858
-0.131676
-0.139661
-0.141258
-0.136147
-0.125925
-0.108996
-0.091428
-0.076415
-0.064597
-0.054056
-0.046070
-0.038723
-0.024349
-0.003906
0.013662
0.029313
0.032508
0.026758
0.013343
-0.000392
-0.011252
-0.017320
-0.016362
-0.006460
0.004081
0.018775
0.028038
0.039218
0.052953
0.067327
0.080742
0.091922
0.099908
0.099269
0.088409
0.069883
0.048163
0.028679
0.013986
0.005682
0.001210
0.000571
-0.000706
-0.007733
-0.025301
-0.044785
-0.065547
-0.082476
-0.087586
-0.079920
-0.061074
-0.031688
0.000893
0.034432
0.065096
0.087456
0.098316
0.100871
0.096400
0.088415
0.081707
0.075000
0.073083
0.072125
0.071167
0.068612
0.066057
0.062224
0.059989
0.052962
0.039866
0.018146
-0.011879
-0.049251
-0.084067
-0.116967
-0.143797
-0.164559
-0.177975
-0.188196
-0.192667
-0.191389
-0.187556
-0.185959
-0.182445
-0.176695
-0.163599
-0.141879
-0.110576
-0.071926
-0.025291
0.023261
0.070215
0.115892
0.152305
0.175304
0.188719
0.194469
0.202455
0.214912
0.229286
0.243341
0.249729
0.245257
0.226412
0.190957
0.137615
0.076926
0.014321
-0.042216
-0.089170
-0.123667
-0.145706
-0.159760
-0.170301
-0.180841
-0.190104
-0.198409
-0.204478
-0.206713
-0.203519
-0.195853
-0.178604
-0.150815
-0.118553
-0.088209
-0.063294
-0.043170
-0.026880
-0.010590
0.007937
0.027741
0.050100
0.075015
0.099930
0.127719
0.155508
0.182020
0.202783
0.219712
0.227378
0.226420
0.217796
0.198951
0.167329
0.130277
0.090989
0.057450
0.029022
0.005705
-0.016654
-0.039652
-0.062969
-0.086925
-0.107687
-0.126532
-0.144419
-0.156237
-0.161667
-0.154959
-0.141544
-0.117587
-0.085965
-0.053065
-0.023039
-0.001958
0.016249
0.031262
0.043400
0.052025
0.053302
0.052344
0.049151
0.046276
0.044679
0.041485
0.041485
0.034139
0.027431
0.014655
0.003156
-0.014411
-0.034534
-0.051144
-0.060407
-0.060087
-0.055296
-0.051143
-0.053698
-0.058809
-0.071266
-0.085959
-0.098416
-0.107998
-0.108317
-0.099693
-0.077014
-0.040920
0.001563
0.045323
0.083653
0.113040
0.126456
0.124859
0.113999
0.102500
0.092598
0.090682
0.091641
0.097390
0.098988
0.096752
0.091003
0.077907
0.062256
0.043730
0.026481
0.013066
0.003803
-0.007057
-0.021111
-0.039637
-0.058163
-0.075411
-0.090423
-0.104797
-0.117893
-0.126517
-0.131627
-0.124919
-0.106712
-0.075409
-0.039634
-0.007054
0.022013
0.044053
0.065454
0.081425
0.099313
0.115603
0.125506
0.125825
0.112729
0.087496
0.052999
0.017863
-0.013120
-0.040590
-0.060393
-0.076683
-0.089460
-0.097125
-0.102875
-0.106388
-0.106068
-0.099360
-0.083709
-0.055281
-0.023658
0.002854
0.021699
0.032240
0.040226
0.046295
0.058114
0.073446
0.087500
0.103152
0.117845
0.130942
0.140524
0.147871
0.144358
0.135095
0.115611
0.093252
0.065463
0.037354
0.009246
-0.015988
-0.038985
-0.056873
-0.072204
-0.082425
-0.088494
-0.097118
-0.106700
-0.118838
-0.128101
-0.136086
-0.138641
-0.137363
-0.131294
-0.123628
-0.115004
-0.105421
-0.098074
-0.090088
-0.079228
-0.069006
-0.055910
-0.043133
-0.027162
-0.007678
0.012446
0.035125
0.053651
0.069941
0.083996
0.095495
0.102203
0.102842
0.095815
0.082719
0.065152
0.042793
0.021073
-0.003522
-0.023326
-0.036102
-0.043449
-0.045684
-0.043768
-0.040573
-0.037379
-0.029074
-0.022047
-0.010547
0.001591
0.017562
0.036408
0.057489
0.078571
0.095181
0.106361
0.108277
0.105083
0.097418
0.089752
0.082725
0.076337
0.067074
0.056533
0.043118
0.033216
0.024912
0.016927
0.007983
0.000637
-0.006390
-0.010223
-0.011181
-0.008945
-0.004473
0.000638
0.003513
0.005430
-0.001278
-0.015332
-0.040246
-0.069632
-0.101893
-0.129043
-0.148208
-0.158749
-0.153638
-0.137347
-0.109558
-0.076658
-0.041841
-0.015329
0.006391
0.019487
0.025876
0.035459
0.041847
0.054305
0.067720
0.078261
0.085608
0.086886
0.081456
0.067083
0.046001
0.017893
-0.011813
-0.042476
-0.071863
-0.094860
-0.106359
-0.106039
-0.100609
-0.091026
-0.087513
-0.086554
-0.092303
-0.101247
-0.108274
-0.114023
-0.116898
-0.114023
-0.104440
-0.084955
-0.051097
-0.011170
0.028757
0.064532
0.097752
0.126819
0.153970
0.177287
0.194536
0.211465
0.227436
0.236699
0.245004
