EVENT_NAME: 202504220039
EVENT_ID: -1
EVENT_DATE_YYYYMMDD: 20250422
EVENT_TIME_HHMMSS: 003939
EVENT_LATITUDE_DEGREE: 38.19222
EVENT_LONGITUDE_DEGREE: 44.22389
EVENT_DEPTH_KM: 6.95
HYPOCENTER_REFERENCE: AFAD
MAGNITUDE_W: 4
MAGNITUDE_W_REFERENCE: AFAD
MAGNITUDE_L: 
MAGNITUDE_L_REFERENCE: 
FOCAL_MECHANISM: 
NETWORK: TK
STATION_CODE: 6508
STATION_NAME: 
STATION_LATITUDE_DEGREE: 38.65729
STATION_LONGITUDE_DEGREE: 43.97665
STATION_ELEVATION_M: 1994.0
LOCATION: Van_Baskale_Turkiye
SENSOR_DEPTH_M: 
VS30_M/S: None
SITE_CLASSIFICATION_EC8: unknown
MORPHOLOGIC_CLASSIFICATION: 
EPICENTRAL_DISTANCE_KM: 56.02
EARTHQUAKE_BACKAZIMUTH_DEGREE: 
DATE_TIME_FIRST_SAMPLE_YYYYMMDD_HHMMSS: 20250422_003923
DATE_TIME_FIRST_SAMPLE_PRECISION: millisecond
SAMPLING_INTERVAL_S: 0.01
NDATA: 10501
DURATION_S: 
STREAM: HNE
UNITS: cm/s^2
INSTRUMENT: sensor = CMG-5T/GURALP | digitizer = 
INSTRUMENT_ANALOG/DIGITAL: 
INSTRUMENTAL_FREQUENCY_HZ: 
INSTRUMENTAL_DAMPING: 
FULL_SCALE_G: 
N_BIT_DIGITAL_CONVERTER: 
PGA_CM/S^2: 0.371
TIME_PGA_S: 
BASELINE_CORRECTION: -
FILTER_TYPE: BUTTERWORTH
FILTER_ORDER: 
LOW_CUT_FREQUENCY_HZ: 
HIGH_CUT_FREQUENCY_HZ: 
LATE/NORMAL_TRIGGERED: 
DATABASE_VERSION: 
HEADER_FORMAT: DYNA 1.2
DATA_TYPE: Acceleration
PROCESSING: Unprocessed
DATA_TIMESTAMP_YYYYMMDD_HHMMSS: 
DATA_LICENSE: U (unknown license)
DATA_CITATION: Turkish Accelerometric Archive v 1.0 - Disaster And Emergency Management Presidency, Earthquake Department
DATA_CREATOR: AFAD
ORIGINAL_DATA_MEDIATOR_CITATION: : AFAD - Disaster And Emergency Management Presidency
ORIGINAL_DATA_MEDIATOR: AFAD PROCESS SERVICE
ORIGINAL_DATA_CREATOR_CITATION: AFAD PROCESS SERVICE
ORIGINAL_DATA_CREATOR: network: TK
USER1: GuestUser
USER2: 
USER3: 
USER4: 
USER5: 
[...]
-0.000835
0.000755
0.001709
0.002663
0.002663
0.000438
0.002664
0.001392
0.000439
0.002346
0.002665
0.002347
0.000439
0.002983
0.000758
0.002983
0.002666
-0.000196
0.002030
0.002030
0.002348
0.001395
0.002031
0.001077
0.002985
0.002031
0.002032
0.002668
0.001714
0.001078
0.000125
0.002668
0.003622
0.001715
0.000761
0.002351
0.002669
0.001398
0.001716
0.002352
0.002352
0.002988
0.001717
0.002989
0.002035
0.002671
0.002989
0.000446
0.001082
0.002036
0.000446
0.000128
0.000447
0.001401
0.002673
0.001401
0.000447
0.001719
0.002355
-0.000188
-0.001142
0.000130
0.001402
0.002356
0.000131
0.001085
0.002675
0.001403
0.000132
0.001086
0.000768
0.001086
0.000768
0.000450
0.000769
0.002040
0.002041
0.001723
0.001723
0.000769
0.001088
0.001088
0.001406
0.002360
0.001406
0.001406
0.001407
0.002043
0.001089
0.002043
0.001407
0.002679
0.003951
0.002680
0.002044
0.002680
0.001408
0.001727
0.001091
0.001409
0.000773
0.001409
0.001092
0.000774
0.001728
0.002364
0.002364
0.002364
0.001411
0.001411
0.001411
0.001093
0.001729
0.001729
0.002048
0.002048
0.001730
0.002048
0.002684
0.001731
0.003003
0.002049
0.001731
0.001413
0.002367
0.003321
0.002368
0.002686
0.002368
0.000779
0.000461
0.000143
0.002051
0.001097
0.001415
0.001098
0.002052
0.001734
0.001734
0.002370
0.002688
0.003324
0.002053
0.000781
0.002053
0.003961
0.002371
0.001100
0.002690
0.002054
0.004280
0.003008
0.003962
0.003326
0.003327
0.003963
0.003327
0.003327
0.003009
0.002056
0.001102
0.000784
0.002374
0.002374
0.001421
0.002375
0.002375
0.001421
0.001104
0.000468
0.000468
-0.001122
-0.001757
-0.003347
-0.002075
-0.000167
-0.002074
-0.001756
-0.000802
0.000470
-0.000802
0.000152
0.000470
0.001106
-0.000483
-0.001437
-0.000483
0.002697
0.001107
0.000471
0.000790
0.001108
0.002380
0.002380
0.002380
0.004924
0.005560
0.004924
0.004606
0.006196
0.007786
0.006833
0.007151
0.007787
0.010648
0.010649
0.010013
0.010649
0.008424
0.009060
0.006516
0.006516
0.006835
0.007153
0.003973
0.001430
0.003020
0.003020
0.001431
0.002703
0.000795
0.000795
0.003339
0.003339
0.002068
0.003340
0.002068
-0.001747
0.000161
0.000797
-0.001111
-0.003972
-0.006198
-0.007151
-0.005243
-0.004607
-0.005243
-0.005879
-0.006197
-0.005560
-0.003971
-0.004288
-0.003652
-0.002698
-0.005560
-0.005877
-0.003651
-0.001744
0.002390
0.003980
0.004616
0.006842
0.008114
0.005570
0.006206
0.004299
0.003981
0.002074
0.002392
0.004617
0.007479
0.007797
0.008751
0.011295
0.011931
0.009070
0.007162
0.007480
0.006209
0.004301
0.002394
0.000486
-0.000467
-0.002057
-0.005236
-0.010323
-0.012866
-0.016364
-0.019861
-0.020497
-0.017635
-0.011912
-0.006824
-0.005552
-0.006188
-0.009049
-0.011911
-0.010639
-0.007777
-0.003644
-0.001418
-0.001100
0.002716
0.007485
0.011619
0.011619
0.005896
0.002717
-0.003006
-0.005867
-0.003006
0.002082
0.008441
0.016390
0.021477
0.027518
0.028790
0.023703
0.014483
0.005898
0.001447
0.001130
0.007171
0.011940
0.014166
0.013848
0.010987
0.007490
0.005264
0.005582
0.003993
0.002085
-0.000458
-0.005863
-0.006499
-0.005863
-0.005545
-0.002365
0.000815
0.007810
0.013533
0.017031
0.016713
0.015123
0.010354
0.010036
0.010990
0.009083
0.003678
-0.002045
-0.006496
-0.008085
-0.006814
-0.006495
-0.005541
-0.001090
0.005269
0.005587
-0.003315
-0.013807
-0.012853
-0.004586
0.004952
0.008768
0.010358
0.011948
0.013856
0.015445
0.010994
0.005907
0.004636
0.005908
0.010041
0.012267
0.012903
0.016083
0.017991
0.019581
0.019581
0.017037
0.013540
0.003048
-0.010623
-0.026521
-0.031925
-0.027156
-0.017300
-0.011576
-0.015074
-0.020479
-0.022386
-0.019524
-0.018252
-0.020160
-0.025883
-0.029380
-0.026836
-0.020159
-0.008713
-0.002672
0.001144
0.006231
0.016406
0.027216
0.033257
0.033893
0.033576
0.035165
0.039935
0.047566
0.048520
0.040889
0.025628
0.009095
-0.009982
-0.021110
-0.026515
-0.033191
-0.033509
-0.029694
-0.025242
-0.020155
-0.022380
-0.030965
-0.035734
-0.033508
-0.025559
-0.012523
-0.002666
0.006236
0.010052
0.012278
0.010052
0.005601
-0.001394
-0.008070
-0.004891
0.006556
0.017366
0.025951
0.027541
0.020228
0.006557
-0.015064
-0.029689
-0.027463
-0.016335
-0.002027
0.009101
0.013235
0.009420
0.003379
-0.003934
-0.007431
-0.002980
0.005605
0.018641
0.034221
0.047257
0.049483
0.038673
0.020550
0.004971
-0.003932
-0.009019
-0.009337
-0.007111
0.003700
0.018325
0.025638
0.020551
0.013875
0.012921
0.012285
0.008788
0.003065
-0.000432
0.002112
0.006563
0.006563
0.000840
-0.012831
-0.031590
-0.048123
-0.060840
-0.067835
-0.068153
-0.059568
-0.040491
-0.018553
-0.000747
0.009109
0.022145
0.035817
0.046945
0.053622
0.056484
0.054895
0.052351
0.049490
0.043449
0.035500
0.024055
0.019921
0.016424
0.014199
0.013245
0.009112
0.007204
0.010384
0.017061
0.020559
0.023738
0.017698
0.010067
0.004026
-0.002015
-0.010281
-0.017911
-0.027450
-0.030629
-0.030629
-0.031900
-0.035080
-0.040803
-0.047479
-0.048115
-0.045571
-0.041756
-0.028084
-0.013140
0.001168
0.012932
0.024060
0.034553
0.042501
0.041866
0.033281
0.017702
0.003713
-0.002964
-0.006461
-0.014092
-0.025220
-0.034440
-0.035076
-0.027445
-0.021404
-0.021403
-0.021403
-0.009957
0.012617
0.033920
0.049500
0.052361
0.050772
0.054905
0.057131
0.060947
0.055224
0.042188
0.025337
0.005307
-0.009319
-0.017585
-0.026805
-0.032210
-0.029667
-0.022036
-0.011543
-0.006456
-0.012815
-0.022671
-0.028076
-0.030301
-0.031891
-0.030301
-0.023942
-0.009316
0.011669
0.023751
0.024069
0.019936
0.014531
0.008490
-0.004228
-0.021714
-0.038565
-0.048422
-0.054462
-0.056370
-0.058913
-0.057959
-0.046831
-0.025528
0.000861
0.031384
0.057138
0.071764
0.076851
0.078123
0.076216
0.070811
0.064452
0.056186
0.052689
0.052689
0.049191
0.041561
0.034566
0.031387
0.030433
0.026300
0.018988
0.010403
0.002773
-0.008037
-0.022663
-0.040468
-0.053503
-0.053821
-0.045554
-0.032518
-0.022662
-0.018846
-0.024251
-0.035697
-0.046189
-0.052548
-0.052230
-0.053501
-0.054455
-0.047142
-0.029655
-0.007716
0.010725
0.014223
0.013269
0.011997
0.017085
0.027259
0.037434
0.039977
0.038706
0.037116
0.037434
0.041250
0.044747
0.038071
0.029804
0.024717
0.025671
0.029169
0.028851
0.012954
-0.010256
-0.026153
-0.035691
-0.037917
-0.036009
-0.028696
-0.017886
-0.003578
0.012638
0.028217
0.032669
0.019951
-0.007074
-0.034735
-0.053176
-0.054130
-0.050950
-0.051904
-0.056991
-0.056673
-0.048724
-0.029329
-0.005483
0.013276
0.024087
0.029810
0.032672
0.039985
0.048569
0.052385
0.053021
0.055883
0.058109
0.062878
0.059063
0.048253
0.022817
-0.009931
-0.034413
-0.041408
-0.034413
-0.020741
-0.009294
-0.001663
0.005332
0.012962
0.018368
0.019322
0.011691
0.001835
-0.006113
-0.009929
-0.014698
-0.028369
-0.044266
-0.054758
-0.051261
-0.043630
-0.027414
-0.011835
0.006288
0.022822
0.042217
0.055889
0.065745
0.071150
0.071468
0.066381
0.056843
0.045715
0.037131
0.022188
0.005019
-0.008017
-0.013422
-0.013104
-0.016283
-0.026775
-0.038221
-0.044580
-0.045215
-0.047441
-0.049030
-0.047759
-0.037584
-0.025502
-0.023594
-0.032496
-0.048394
-0.057614
-0.051573
-0.032178
-0.010557
0.006294
0.019966
0.028233
0.032366
0.031413
0.028233
0.025054
0.023783
0.033639
0.048265
0.057168
0.048583
0.027281
0.004707
-0.013734
-0.019775
-0.017867
-0.012144
-0.008328
-0.006102
-0.003876
-0.003876
-0.008645
-0.012460
-0.009917
0.001848
0.015519
0.026966
0.036186
0.036187
0.031100
0.012023
-0.010869
-0.028356
-0.039802
-0.041391
-0.033761
-0.019453
-0.006417
0.004394
0.011071
0.013932
0.022199
0.032056
0.039051
0.041277
0.037461
0.025380
0.006303
-0.008322
-0.008958
0.005032
0.021565
0.033329
0.045094
0.053996
0.053996
0.043186
0.017751
-0.007685
-0.028351
-0.040433
-0.048699
-0.051879
-0.052514
-0.047109
-0.036617
-0.024216
-0.013406
-0.009273
-0.013724
-0.023898
-0.034390
-0.038205
-0.038841
-0.037251
-0.034707
-0.031527
-0.029620
-0.022942
-0.006091
0.021888
0.059406
0.087704
0.102965
0.109324
0.106145
0.088340
0.060679
0.023480
-0.006407
-0.022304
-0.021668
-0.012448
-0.001001
0.004722
0.006948
0.012035
0.019984
0.025071
0.019666
0.007584
-0.003226
-0.010220
-0.008948
-0.003543
0.004088
0.010129
0.006632
0.002181
-0.011809
-0.031203
-0.058547
-0.084936
-0.102105
-0.105920
-0.107192
-0.108145
-0.105602
-0.101468
-0.089068
-0.061724
-0.023889
0.020306
0.062275
0.088029
0.097568
0.093753
0.079445
0.055282
0.029846
0.006000
-0.006082
-0.006399
0.005683
0.022534
0.032073
0.026032
0.014268
0.007273
0.012997
0.021263
0.024443
0.024761
0.029848
0.038751
0.047018
0.051151
0.045747
0.036844
0.035255
0.042886
0.057829
0.066732
0.063553
0.047338
0.020312
-0.007349
-0.032467
-0.047410
-0.057266
-0.054722
-0.047727
-0.035327
-0.027060
-0.027060
-0.030557
-0.039142
-0.053767
-0.065213
-0.063941
-0.054085
-0.039459
-0.027695
-0.023243
-0.018156
-0.009889
-0.003848
0.004737
0.020634
0.040665
0.063240
0.087722
0.104891
0.112204
0.104255
0.084225
0.061969
0.037487
0.007600
-0.020061
-0.050584
-0.073158
-0.083650
-0.080788
-0.063937
-0.040408
-0.018152
0.003151
0.021592
0.039715
0.047982
0.049890
0.047028
0.044803
0.045121
0.044167
0.043532
0.042578
0.035901
0.024455
0.013645
0.005697
-0.000980
-0.010200
-0.032774
-0.061389
-0.087461
-0.108445
-0.118619
-0.123070
-0.117029
-0.101131
-0.070290
-0.038813
-0.007655
0.016828
0.034633
0.051802
0.066110
0.070561
0.069926
0.061659
0.046716
0.032726
0.021280
0.013968
0.009835
0.013014
0.018420
0.027322
0.027640
0.020328
0.007610
-0.005107
-0.020051
-0.037220
-0.055978
-0.063609
-0.062655
-0.055660
-0.047711
-0.043578
-0.033721
-0.022911
-0.009239
0.007295
0.022556
0.038136
0.049900
0.056577
0.061664
0.066752
0.073747
0.079788
0.085193
0.085829
0.085194
0.082014
0.076609
0.068343
0.058487
0.049902
0.043544
0.037185
0.024785
0.003483
-0.026086
-0.057563
-0.084270
-0.104618
-0.117018
-0.123377
-0.121151
-0.111612
-0.100166
-0.089674
-0.077592
-0.066781
-0.051520
-0.029581
-0.008596
0.014296
0.031465
0.044183
0.059127
0.077250
0.089332
0.097599
0.102369
0.106820
0.107774
0.096010
0.074390
0.049272
0.027652
0.012391
0.006986
0.003807
0.002535
-0.007321
-0.017495
-0.027669
-0.034982
-0.038479
-0.036889
-0.027987
-0.016540
-0.013043
-0.022263
-0.038160
-0.049606
-0.051832
-0.044836
-0.033390
-0.015267
0.006353
0.021297
0.031790
0.029246
0.015257
-0.006999
-0.031163
-0.055009
-0.068998
-0.073767
-0.071542
-0.067408
-0.065182
-0.069315
-0.070587
-0.065818
-0.053418
-0.033387
-0.008587
0.015895
0.049598
0.077577
0.100788
0.118593
0.123998
0.128450
0.125588
0.112871
0.088071
0.064861
0.042923
0.029251
0.027026
0.027980
0.031160
0.030206
0.019714
0.006360
-0.009219
-0.023844
-0.038470
-0.044193
-0.044192
-0.039423
-0.028931
-0.024797
-0.018438
-0.008581
0.001275
0.010178
0.015901
0.013040
0.002548
-0.013032
-0.026703
-0.038149
-0.044508
-0.051185
-0.050548
-0.046415
-0.039420
-0.029245
-0.020979
-0.013030
-0.006035
0.004776
0.013678
0.026396
0.038161
0.048653
0.055012
0.057874
0.058828
0.054695
0.044203
0.029577
0.012726
-0.003807
-0.021612
-0.041960
-0.061355
-0.075662
-0.086472
-0.093149
-0.099508
-0.103005
-0.106184
-0.103322
-0.090286
-0.067394
-0.040686
-0.019384
-0.004758
0.007324
0.020996
0.035304
0.045478
0.047386
0.049294
0.049930
0.045797
0.043890
0.034987
0.018454
0.005419
0.001285
0.002875
0.016229
0.034034
0.055655
0.078229
0.093491
0.101440
0.096671
0.079184
0.056928
0.035308
0.024816
0.022908
0.027042
0.035308
0.045483
0.056293
0.060109
0.059791
0.055658
0.048981
0.043576
0.042623
0.041033
0.048346
0.054069
0.059157
0.058521
0.048665
0.027998
0.000019
-0.028596
-0.053713
-0.069611
-0.080421
-0.081692
-0.076287
-0.070882
-0.061661
-0.048625
-0.033045
-0.017148
-0.004748
0.004155
0.009242
0.003519
-0.013332
-0.039085
-0.063567
-0.077238
-0.077556
-0.068335
-0.052120
-0.032725
-0.013012
-0.000294
0.011788
0.019419
0.021963
0.015604
0.000343
-0.016508
-0.029862
-0.037492
-0.041626
-0.040990
-0.045759
-0.048938
-0.055932
-0.056250
-0.055614
-0.054024
-0.055296
-0.056885
-0.061654
-0.063880
-0.068649
-0.074690
-0.080095
-0.078505
-0.069284
-0.047346
-0.017458
0.016244
0.053444
0.082060
0.107178
0.122439
0.130706
0.129116
0.128481
0.124030
0.124666
0.129117
0.133251
0.126574
0.114810
0.090646
0.062349
0.034052
0.013704
0.005119
0.009571
0.023243
0.045499
0.062668
0.068710
0.061079
0.039459
0.010844
-0.020951
-0.042889
-0.052427
-0.049247
-0.042252
-0.035575
-0.029534
-0.025401
-0.027308
-0.034939
-0.045113
-0.057831
-0.067051
-0.074045
-0.079768
-0.077225
-0.078178
-0.078814
-0.071819
-0.058147
-0.039070
-0.011408
0.011484
0.028335
0.037238
0.037238
0.027700
0.010531
-0.010453
-0.025079
-0.032073
-0.026668
-0.021263
-0.010452
-0.001868
0.004491
0.006717
0.004174
0.001630
-0.004410
-0.009815
-0.013313
-0.014266
-0.011087
-0.001230
0.004493
0.003540
-0.004409
-0.015537
-0.024439
-0.028572
-0.031116
-0.030798
-0.025074
-0.012038
0.001316
0.014987
0.033111
0.057275
0.087480
0.124362
0.160926
0.201305
0.239141
0.269664
0.285562
0.280157
0.250588
0.202578
0.144394
0.081759
0.015308
-0.046691
-0.107737
-0.164649
-0.214885
-0.264484
-0.309632
-0.348104
-0.370996
-0.370678
-0.353190
-0.315673
-0.266391
-0.213293
-0.157970
-0.103601
-0.056863
-0.017437
0.024214
0.062050
0.101157
0.135496
0.165383
0.188275
0.207988
0.216255
0.216255
0.208307
0.196543
0.180646
0.158708
0.132954
0.100206
0.067139
0.026760
-0.013619
-0.053362
-0.088972
-0.122992
-0.155422
-0.185627
-0.211380
-0.226642
-0.231411
-0.222190
-0.198662
-0.164959
-0.127123
-0.084518
-0.044139
-0.009483
0.024856
0.059194
0.091943
0.122466
0.152671
0.189553
0.232158
0.266815
0.291933
0.305922
0.306241
0.293523
0.263954
0.226119
0.180016
0.136776
0.093217
0.056018
0.029628
0.001967
-0.022197
-0.046996
-0.066709
-0.081970
-0.085149
-0.085149
-0.081652
-0.074657
-0.064482
-0.055897
-0.047313
-0.036184
-0.022195
-0.001528
0.016913
0.035672
0.046801
0.056657
0.058247
0.058565
0.050299
0.036945
0.015643
-0.014244
-0.046992
-0.078787
-0.109945
-0.141104
-0.164632
-0.181483
-0.186252
-0.182754
-0.178303
-0.167492
-0.151595
-0.134744
-0.110579
-0.082282
-0.050805
-0.017102
0.014692
0.038539
0.059841
0.076693
0.093862
0.113893
0.132016
0.141554
0.146006
0.144416
0.138376
0.126294
0.101494
0.073515
0.056664
0.041403
0.027095
0.007383
-0.013920
-0.025683
-0.031724
-0.033632
-0.031724
-0.025365
-0.017098
-0.004698
0.008656
0.015333
0.014698
0.005477
-0.009466
-0.021230
-0.024727
-0.027906
-0.031086
-0.034265
-0.040306
-0.050480
-0.068921
-0.092131
-0.116612
-0.134735
-0.148407
-0.151268
-0.142047
-0.129011
-0.111842
-0.101350
-0.093401
-0.078457
-0.060334
-0.033626
-0.005011
0.026148
0.052856
0.079246
0.097051
0.103728
0.105000
0.091964
0.076067
0.062396
0.051903
0.047134
0.049996
0.053812
0.062078
0.069709
0.068438
0.061761
0.042049
0.010572
-0.024084
-0.053971
-0.076545
-0.092442
-0.104206
-0.121375
-0.137272
-0.153169
-0.168748
-0.177333
-0.179876
-0.167158
-0.141086
-0.107702
-0.072727
-0.040615
-0.010409
0.016616
0.049047
0.085929
0.126308
0.159693
0.186719
0.211837
0.224873
0.233775
0.234411
0.232186
0.229961
0.232504
0.239181
0.246812
0.253807
0.255397
0.242997
0.221377
0.191173
0.155245
0.109779
0.063676
0.013759
-0.033933
-0.071450
-0.103881
-0.135357
-0.166198
-0.195449
-0.219295
-0.233920
-0.239643
-0.239007
-0.230422
-0.213571
-0.194812
-0.176689
-0.165878
-0.157294
-0.148391
-0.135991
-0.114052
-0.083847
-0.048237
-0.005314
0.041424
0.093250
0.141896
0.185455
0.215978
0.238552
0.250953
0.258583
0.257948
0.251271
0.232830
0.200082
0.158431
0.108832
0.055417
0.006771
-0.042511
-0.080028
-0.106418
-0.126766
-0.140437
-0.147432
-0.150611
-0.145842
-0.137257
-0.131534
-0.122949
-0.121041
-0.125810
-0.140118
-0.151564
-0.163964
-0.168097
-0.164917
-0.153153
-0.131214
-0.103871
-0.077481
-0.050773
-0.025019
-0.002763
0.018858
0.032848
0.045566
0.052243
0.058602
0.065915
0.076725
0.094530
0.118694
0.144766
0.169248
0.195002
0.216305
0.231249
0.239197
0.241423
0.237926
0.227434
0.211219
0.189599
0.166389
0.145722
0.126328
0.112656
0.094215
0.070052
0.039847
0.007099
-0.026286
-0.058398
-0.089557
-0.120079
-0.140428
-0.158551
-0.172222
-0.185894
-0.203381
-0.223093
-0.241852
-0.258067
-0.258067
-0.247256
-0.226590
-0.205287
-0.186210
-0.166497
-0.145830
-0.124846
-0.103543
-0.081287
-0.057758
-0.030097
0.004242
0.042713
0.080867
0.115524
0.142867
0.163216
0.181975
0.197237
0.203914
0.209319
0.205504
0.194058
0.176253
0.147956
0.111392
0.071013
0.020460
-0.028504
-0.072062
-0.107672
-0.129610
-0.137241
-0.132789
-0.108625
-0.070789
-0.031682
0.004882
0.036041
0.053210
0.059570
0.056708
0.048124
0.039222
0.027776
0.009653
-0.014193
-0.034859
-0.053936
-0.066654
-0.074602
-0.078735
-0.075556
-0.069832
-0.065381
-0.061565
-0.063155
-0.069196
-0.071739
-0.072693
-0.066970
-0.052980
-0.039308
-0.022774
-0.002108
0.013472
0.024282
0.030323
0.031913
0.029052
0.029052
0.029688
0.034776
0.051945
0.075791
0.103135
0.133976
0.161955
0.182940
0.196612
0.200745
0.194704
0.180397
0.166090
0.147967
0.133977
0.119352
0.105680
0.089783
0.070389
0.045589
0.017610
-0.013867
-0.043753
-0.064420
-0.078727
-0.089537
-0.093352
-0.093988
-0.088583
-0.084767
-0.084131
-0.088900
-0.097485
-0.104161
-0.103525
-0.092397
-0.075546
-0.047884
-0.014817
0.012844
0.031603
0.033829
0.019840
-0.009093
-0.049155
-0.092713
-0.123554
-0.145810
-0.155030
-0.155348
-0.148671
-0.141040
-0.134681
-0.129593
-0.125778
-0.113378
-0.097480
-0.079039
-0.057101
-0.034526
-0.012906
0.007443
0.026838
0.050048
0.069761
0.088520
0.103464
0.115864
0.120633
0.118090
0.109824
0.097424
0.084388
0.076440
0.070717
0.070717
0.079302
0.093610
0.111733
0.135261
0.160061
0.177230
0.182954
0.176595
0.158472
0.136852
0.107601
0.072627
0.035427
-0.002726
-0.040244
-0.066315
-0.080305
-0.078715
-0.072674
-0.062499
-0.052007
-0.040878
-0.030068
-0.020211
-0.011945
-0.006857
-0.004631
-0.001770
0.000774
0.008087
0.011585
0.007451
0.000457
-0.009081
-0.017030
-0.025614
-0.029747
-0.032927
-0.034198
-0.038967
-0.047552
-0.057726
-0.061859
-0.059633
-0.049459
-0.034515
-0.015120
0.004593
0.021444
0.028757
0.030347
0.025578
0.012224
0.004276
-0.006852
-0.013529
-0.014800
-0.016708
-0.019887
-0.023066
-0.029425
-0.037692
-0.041507
-0.041507
-0.037055
-0.024973
-0.015116
-0.009711
-0.008757
-0.018613
-0.039598
-0.066941
-0.099689
-0.130530
-0.156919
-0.181083
-0.200160
-0.214149
-0.219872
-0.218918
-0.203656
-0.180128
-0.141656
-0.101277
-0.058990
-0.018928
0.019861
0.052292
0.084087
0.115564
0.148631
0.181061
0.209677
0.236702
0.256415
0.273585
0.285667
0.297749
0.311103
0.320005
0.321277
0.310149
0.289483
0.259914
0.221125
0.175659
0.127013
0.072962
0.026542
