EVENT_NAME: 202504220039
EVENT_ID: -1
EVENT_DATE_YYYYMMDD: 20250422
EVENT_TIME_HHMMSS: 003939
EVENT_LATITUDE_DEGREE: 38.19222
EVENT_LONGITUDE_DEGREE: 44.22389
EVENT_DEPTH_KM: 6.95
HYPOCENTER_REFERENCE: AFAD
MAGNITUDE_W: 4
MAGNITUDE_W_REFERENCE: AFAD
MAGNITUDE_L: 
MAGNITUDE_L_REFERENCE: 
FOCAL_MECHANISM: 
NETWORK: TK
STATION_CODE: 6508
STATION_NAME: 
STATION_LATITUDE_DEGREE: 38.65729
STATION_LONGITUDE_DEGREE: 43.97665
STATION_ELEVATION_M: 1994.0
LOCATION: Van_Baskale_Turkiye
SENSOR_DEPTH_M: 
VS30_M/S: None
SITE_CLASSIFICATION_EC8: unknown
MORPHOLOGIC_CLASSIFICATION: 
EPICENTRAL_DISTANCE_KM: 56.02
EARTHQUAKE_BACKAZIMUTH_DEGREE: 
DATE_TIME_FIRST_SAMPLE_YYYYMMDD_HHMMSS: 20250422_003923
DATE_TIME_FIRST_SAMPLE_PRECISION: millisecond
SAMPLING_INTERVAL_S: 0.01
NDATA: 10501
DURATION_S: 
STREAM: HNZ
UNITS: cm/s^2
INSTRUMENT: sensor = CMG-5T/GURALP | digitizer = 
INSTRUMENT_ANALOG/DIGITAL: 
INSTRUMENTAL_FREQUENCY_HZ: 
INSTRUMENTAL_DAMPING: 
FULL_SCALE_G: 
N_BIT_DIGITAL_CONVERTER: 
PGA_CM/S^2: 0.158
TIME_PGA_S: 
BASELINE_CORRECTION: -
FILTER_TYPE: BUTTERWORTH
FILTER_ORDER: 
LOW_CUT_FREQUENCY_HZ: 
HIGH_CUT_FREQUENCY_HZ: 
LATE/NORMAL_TRIGGERED: 
DATABASE_VERSION: 
HEADER_FORMAT: DYNA 1.2
DATA_TYPE: Acceleration
PROCESSING: Unprocessed
DATA_TIMESTAMP_YYYYMMDD_HHMMSS: 
DATA_LICENSE: U (unknown license)
DATA_CITATION: Turkish Accelerometric Archive v 1.0 - Disaster And Emergency Management Presidency, Earthquake Department
DATA_CREATOR: AFAD
ORIGINAL_DATA_MEDIATOR_CITATION: : AFAD - Disaster And Emergency Management Presidency
ORIGINAL_DATA_MEDIATOR: AFAD PROCESS SERVICE
ORIGINAL_DATA_CREATOR_CITATION: AFAD PROCESS SERVICE
ORIGINAL_DATA_CREATOR: network: TK
USER1: GuestUser
USER2: 
USER3: 
USER4: 
USER5: 
[...]
-0.000101
0.000538
0.000537
-0.000101
0.000218
0.000857
0.001495
0.001495
-0.000102
-0.000741
0.000856
0.001176
-0.000102
-0.000741
-0.000102
0.001495
-0.000422
0.000856
-0.000741
-0.001061
-0.001061
-0.000103
0.001495
0.000217
-0.000103
0.000855
0.001494
-0.000103
0.001175
0.000855
0.000536
0.000855
-0.000103
-0.000742
-0.000103
-0.001700
-0.001381
-0.000742
0.000535
0.000216
-0.001381
-0.000423
-0.000104
-0.000423
-0.000743
0.000535
-0.001701
-0.000743
0.000535
-0.000743
-0.000104
0.001173
0.000534
0.000534
-0.001382
-0.001063
-0.002021
-0.001382
-0.001063
0.000215
-0.000105
-0.000105
0.000214
-0.000424
0.000534
-0.000744
-0.000105
-0.000425
0.000214
-0.000744
-0.000105
-0.001383
-0.002022
-0.000745
0.001491
0.000533
-0.001064
0.000533
0.000852
0.001810
0.001172
-0.000426
0.000852
0.002130
0.002768
0.000213
0.001491
0.001491
0.000852
0.000532
0.000532
0.001810
0.001490
-0.000426
-0.000746
-0.000426
-0.000107
-0.000107
-0.000427
0.001490
0.004365
0.000851
0.003726
0.001809
0.001490
0.000531
0.000531
-0.000427
-0.000108
0.000212
0.000211
0.000211
0.001170
-0.000108
0.000211
0.001489
0.000850
0.002766
0.000211
0.001169
0.000211
0.001488
0.000530
0.002766
0.002127
0.001808
0.001169
0.002127
0.000210
0.001807
0.000849
0.002127
0.000210
0.001807
0.001168
0.001168
0.000529
0.000529
0.000849
0.001168
0.001487
0.001168
0.000848
0.000209
-0.000429
-0.000110
0.000209
0.000529
0.001806
-0.000430
0.000848
0.000848
0.001806
-0.001388
0.001167
0.001167
0.001167
0.002445
-0.000111
0.000528
0.000847
-0.001069
0.001486
0.000847
0.001805
0.000528
0.001805
0.001166
-0.000431
0.000847
-0.000750
0.000208
0.000208
0.000527
-0.000112
0.000527
0.000207
0.001804
0.001485
0.000846
0.001165
0.000846
-0.000432
0.000207
-0.000432
-0.000112
0.000846
0.000207
0.001804
0.000207
0.002123
0.001165
0.001804
0.002442
0.002123
0.000526
0.000845
0.000526
0.000845
-0.000113
-0.000113
0.000206
0.000525
0.000206
-0.000114
-0.000114
0.000844
0.001483
-0.000114
0.000525
0.000844
0.002441
0.000844
0.001483
-0.000114
0.000844
0.000844
0.001163
0.000205
0.000205
-0.000115
-0.000434
0.000524
-0.000434
-0.000115
0.000204
0.001163
0.000843
0.001482
0.000524
0.000204
0.000843
0.000843
0.000204
0.000523
-0.000116
-0.000116
0.002440
-0.000116
0.001162
0.001162
0.001481
0.001162
0.000523
0.000842
-0.000436
-0.000436
0.000203
-0.000116
0.000203
-0.001075
-0.000117
-0.001075
0.000203
0.000203
-0.000436
-0.000117
0.000522
-0.000117
-0.000117
-0.000756
0.000202
-0.000437
-0.001395
-0.000437
-0.000437
0.000202
-0.000117
0.000202
-0.000118
-0.000756
0.000202
0.000202
0.000521
0.000521
-0.001076
0.000521
0.000201
-0.000757
-0.001076
-0.000438
-0.000757
-0.000118
0.000840
0.000840
0.000201
0.000520
0.000201
0.000201
0.000520
0.001159
0.000839
0.001159
0.000200
0.000200
-0.000119
-0.000119
-0.000119
0.000200
-0.001397
-0.001078
-0.000120
-0.001078
-0.000120
-0.000759
-0.000759
0.000200
0.000838
0.001158
-0.000439
0.000199
0.000199
-0.000440
-0.000440
0.000838
-0.000440
0.000518
-0.000121
0.000518
-0.000440
0.002115
0.000518
0.000518
-0.000440
-0.000121
0.000518
0.000198
0.000198
0.000518
0.000837
-0.001080
0.000517
0.000837
0.001795
0.000517
0.001795
0.000517
0.000198
0.001795
0.001475
0.001475
0.001795
0.000517
0.002433
0.000836
0.002114
0.000197
-0.000122
-0.000122
-0.000122
0.000836
0.000516
0.000836
0.000836
0.000835
0.000516
0.002113
0.000516
-0.000123
0.000835
0.002432
0.002752
0.000516
0.002113
-0.001082
0.001793
0.000835
0.002112
0.000835
0.002432
0.001793
0.000196
0.001793
-0.000124
0.002112
0.000515
0.001792
0.001153
0.001792
0.001473
0.000834
0.000195
0.000195
0.001473
-0.000125
0.000514
-0.000444
-0.001083
0.000833
0.001792
0.001472
0.001472
0.001791
0.002750
0.000833
-0.000445
-0.000125
0.000833
0.000833
0.000194
0.001152
0.001152
0.001152
0.000513
0.001471
0.000194
0.001791
0.002429
0.002749
0.003387
0.003387
0.002429
0.002110
0.002748
0.002109
0.001790
0.001790
0.000832
0.001470
0.001151
0.001790
0.002428
0.001790
0.002748
0.001151
-0.000127
0.001470
0.001789
0.001150
0.002109
0.000192
0.001789
0.001789
0.001469
0.000511
0.003386
-0.000128
0.000830
0.001789
0.002108
0.001150
0.001788
0.002747
0.000830
0.001469
0.001149
0.000510
-0.000448
0.001149
0.000830
0.003066
0.000830
0.001149
0.001788
0.000510
0.000190
0.000510
0.000829
0.000829
-0.000449
0.000190
-0.000768
0.000509
0.000829
0.000190
0.001468
0.001467
0.002426
0.000509
0.003064
0.002425
0.002106
0.001148
0.002425
0.001786
0.001467
0.001147
0.001467
0.000828
-0.000130
0.000508
0.001467
0.001786
0.000189
0.002105
0.001786
0.002425
0.000827
0.002424
0.000827
0.002744
0.002424
0.001466
0.002105
0.001785
0.002105
0.001785
0.001146
0.000507
0.002424
0.001146
0.001465
0.002104
0.001146
0.001785
0.001785
0.001465
-0.000452
0.002104
0.001145
0.002104
0.002742
-0.000132
0.001784
0.001784
0.000826
0.000506
0.002103
0.000506
0.001145
0.000506
0.000186
-0.000133
0.001145
0.000825
0.000186
0.001144
0.000186
0.000825
0.000825
0.000825
0.001783
0.001783
0.001783
0.001144
0.001144
0.000824
0.000505
0.001463
0.000505
0.000505
0.002102
0.002102
0.001782
0.000824
0.000824
0.000504
0.000504
0.001782
0.001462
0.000824
0.002740
0.000504
0.001143
0.001143
0.002101
0.001781
0.001462
0.000504
-0.000455
0.000823
0.001142
-0.000135
0.000823
0.000503
0.002100
0.000184
0.001461
0.001781
-0.000455
0.000183
-0.000455
0.001142
0.000183
0.000822
0.000822
0.002100
0.001461
0.002100
0.001141
0.000502
0.000822
0.000822
0.001460
0.001780
0.002099
0.000821
0.001460
0.001460
0.002418
0.001779
0.001140
0.002099
0.002737
0.002737
0.000821
0.001140
0.000501
0.001140
0.001140
0.001140
0.000501
0.000501
0.000501
0.001459
0.001459
0.001778
0.001139
0.003056
0.002098
0.001139
0.000500
0.001139
0.001778
0.001778
0.000820
0.001778
0.000819
0.001778
0.000500
0.001139
0.001777
0.000500
0.000819
0.001777
0.002416
0.001138
0.001777
0.001458
0.001138
0.000180
0.001457
-0.000459
-0.000140
-0.000459
0.002096
0.001138
0.002415
0.002415
0.000818
0.001137
0.000818
0.001137
0.000818
-0.000140
-0.000779
0.000498
0.000498
0.000179
0.000818
-0.000780
0.000179
-0.000141
-0.000141
0.000498
0.000817
0.001137
0.001456
0.003053
0.001136
0.001456
0.002733
0.000817
0.002094
0.002094
0.001775
0.001775
0.001775
0.001136
0.002413
0.001455
0.001455
0.003052
0.002413
0.001455
0.002732
0.002413
0.001135
0.002413
0.002413
0.003052
0.002732
0.003371
0.002093
0.000815
0.002732
0.001774
0.001135
0.001454
0.001773
0.002093
0.001773
0.001454
0.000815
0.001454
0.002731
0.002412
0.001134
0.000176
0.001453
0.002092
0.001773
0.001453
0.001772
-0.000144
0.001134
0.002411
0.002092
0.000495
0.002411
0.001453
0.001453
0.001772
0.001452
0.000814
0.000494
0.001452
0.001452
0.000494
0.001133
0.000494
0.001452
0.002730
0.001132
0.002091
0.002729
0.003049
0.003368
0.002090
0.002729
0.002729
0.000493
0.001771
0.003048
0.001771
0.001771
0.002090
0.001451
0.001770
0.001131
0.003367
0.001131
0.001131
0.001770
0.001770
0.002728
0.002089
0.000173
0.000492
0.000173
0.001770
0.000172
0.001131
0.002089
0.001769
0.001130
0.002089
0.000492
0.002089
0.001769
0.000811
0.001769
0.001130
0.001769
0.000811
0.002088
0.001130
0.001130
0.000491
0.001449
0.001449
0.001130
0.001129
0.001449
0.002407
0.000490
-0.000787
0.002087
0.000810
0.000810
0.001129
0.000490
0.000490
0.001448
0.001448
0.000170
0.000490
0.000809
0.000809
0.002726
0.002087
0.002087
0.001767
0.000809
0.000809
0.000170
-0.000469
0.000170
-0.000150
-0.000150
0.001128
-0.000150
0.000489
0.000489
0.000169
0.000808
0.003044
0.001127
0.001447
0.001447
0.001447
0.001127
0.001766
0.003043
0.001766
0.002085
0.000488
0.002724
0.002724
0.002085
0.002404
-0.000151
0.002723
0.000488
0.001446
0.002404
0.001446
0.001126
0.000168
0.001126
0.001445
0.000487
0.000487
0.000487
0.000806
0.000806
-0.000472
0.001445
0.000806
0.000487
0.001125
-0.000152
0.001125
-0.000153
0.000486
0.002403
-0.000153
0.003041
-0.000153
0.000167
0.001764
-0.000153
0.001125
0.001125
0.000486
-0.001431
-0.000473
0.001124
-0.000473
0.000805
0.000485
0.000485
0.000805
-0.000154
0.000166
0.001443
0.002082
0.001763
0.001443
0.001443
0.002082
0.001123
0.000485
-0.000793
0.000484
0.002081
0.001762
0.001442
-0.000155
0.000484
-0.001113
-0.001752
-0.002391
-0.003669
-0.003349
-0.004627
-0.005905
-0.007182
-0.007502
-0.008141
-0.008141
-0.009738
-0.009099
-0.009099
-0.007822
-0.005905
-0.004628
-0.001433
0.000483
0.001441
0.003038
0.004316
0.004635
0.004954
0.003996
0.003357
0.005274
0.004954
0.005274
0.008787
0.012301
0.016134
0.019328
0.021244
0.021563
0.023160
0.022522
0.021244
0.019647
0.019008
0.019008
0.022841
0.023799
0.024757
0.018369
0.010064
0.007189
0.000162
-0.003991
-0.009101
-0.014532
-0.015490
-0.015809
-0.015809
-0.017407
-0.020920
-0.024753
-0.022837
-0.013574
-0.005908
0.000800
0.000800
0.000800
0.002397
0.003674
0.001438
-0.003034
-0.012616
-0.018685
-0.018046
-0.010380
0.002077
0.009423
0.018686
0.025713
0.030185
0.031463
0.029227
0.022838
0.014534
0.008784
0.004632
0.004951
0.009103
0.009742
0.008464
0.006548
0.005270
0.003992
-0.002077
-0.016770
-0.033060
-0.040087
-0.035935
-0.021561
-0.004952
0.000478
0.001436
0.002395
0.001117
-0.002397
-0.009424
-0.022840
-0.030506
-0.032103
-0.028589
-0.021882
-0.013257
0.000158
0.017726
0.033058
0.041363
0.040085
0.031141
0.015490
0.003352
-0.000801
0.004310
0.010059
0.007504
-0.001440
-0.003037
0.004310
0.011976
0.009740
-0.005273
-0.018689
-0.022841
-0.018050
-0.013259
-0.007190
-0.006551
-0.003357
0.005267
0.017086
0.019641
0.015808
0.002712
-0.008787
-0.017412
-0.019328
-0.009426
-0.001122
-0.000802
-0.003677
0.001114
0.012932
0.020918
0.027945
0.032097
0.031139
0.019320
0.006544
-0.005914
-0.012621
-0.013260
-0.014538
-0.012302
-0.011663
-0.011983
-0.017094
-0.021246
-0.022204
-0.018052
-0.009747
0.005585
0.025069
0.038804
0.039762
0.034332
0.029860
0.030818
0.033693
0.034012
0.035290
0.037526
0.031776
0.011333
-0.019011
-0.044245
-0.048398
-0.032427
-0.005596
0.014208
0.024749
0.029859
0.030498
0.023790
0.000792
-0.032427
-0.054148
-0.040093
-0.005597
0.023470
0.022512
-0.001125
-0.022845
-0.034025
-0.044885
-0.056065
-0.067244
-0.047121
-0.001764
0.038482
0.055731
0.057328
0.062119
0.072660
0.067229
0.031455
-0.009750
-0.024763
-0.010389
0.014206
0.027621
0.022511
0.007179
-0.012945
-0.033707
-0.045525
-0.034346
0.002387
0.038162
0.048383
0.027940
-0.002404
-0.034027
-0.065010
-0.070121
-0.049998
-0.019334
-0.008474
-0.016779
-0.020612
-0.013265
-0.006557
-0.010710
-0.025723
-0.042013
-0.033708
0.003664
0.041355
0.057325
0.047104
0.026342
-0.000489
-0.021890
-0.037542
-0.044569
-0.044888
-0.033709
0.002066
0.046465
0.064352
0.044229
0.019314
0.019953
0.037521
0.046784
0.033368
0.018036
0.016120
0.019633
0.021550
0.010689
-0.006879
-0.025724
-0.030835
-0.024447
-0.018378
-0.021253
-0.021572
-0.005601
0.018994
0.029534
0.027618
0.025701
0.034006
0.041991
0.027617
-0.011032
-0.057347
-0.084817
-0.088970
-0.072999
-0.058306
-0.044252
-0.029878
-0.012310
0.014201
0.044546
0.072016
0.080320
0.071696
0.055725
0.042629
0.033047
0.016437
0.010687
0.016756
0.018673
0.012284
-0.000173
0.000146
0.011645
0.009729
-0.011992
-0.033712
-0.040101
-0.024449
-0.005923
-0.000493
-0.006243
-0.009756
-0.004007
0.009089
0.015797
0.007811
-0.005604
-0.008479
-0.001132
0.003339
-0.008799
-0.025089
-0.027644
-0.015826
0.002700
0.025059
0.045502
0.054765
0.050293
0.039113
0.018032
-0.004966
-0.016785
-0.013910
-0.005605
0.002061
0.006852
0.016115
0.027614
0.029211
0.026336
0.021864
0.016753
0.011323
0.005574
0.003657
0.003976
0.001102
-0.015508
-0.043617
-0.074600
-0.095043
-0.093765
-0.076197
-0.046811
-0.017425
-0.000177
-0.005607
-0.013273
-0.014231
-0.005926
0.003017
0.013877
0.026973
0.051249
0.065303
0.058915
0.026654
-0.010718
-0.029564
-0.032119
-0.027647
-0.022856
-0.014551
0.003655
0.025376
0.046457
0.054442
0.049970
0.045499
0.039749
0.033999
0.023139
0.004932
-0.015830
-0.037231
-0.052243
-0.058312
-0.069811
-0.087060
-0.109738
-0.117085
-0.102392
-0.065340
-0.018066
0.022500
0.049011
0.057955
0.064024
0.066898
0.055080
0.045178
0.046136
0.049330
0.039748
0.014514
-0.002096
0.013875
0.050927
0.073286
0.060190
0.016430
-0.020623
-0.025414
-0.002416
0.018027
0.020582
0.009083
0.003972
0.008763
0.005888
-0.002736
-0.016471
-0.031483
-0.043302
-0.047774
-0.040427
-0.022540
-0.008486
0.007804
0.032399
0.055397
0.061786
0.045495
0.021220
0.000457
-0.024776
-0.056718
-0.075883
-0.074286
-0.056718
-0.039789
-0.031804
-0.025735
-0.016792
-0.001460
0.017386
0.031760
0.038787
0.035592
0.030801
0.026649
0.012594
-0.008487
-0.025416
-0.023181
-0.004016
0.018663
0.036870
0.053160
0.063700
0.062103
0.053160
0.053479
0.057312
0.051562
0.035272
0.020898
0.015787
0.014829
0.009080
-0.010405
-0.042027
-0.083551
-0.120284
-0.123479
-0.099522
-0.068539
-0.050013
-0.035320
-0.014558
0.016745
0.047409
0.064018
0.062102
0.043256
0.028563
0.024091
0.029202
0.023772
-0.007212
-0.067582
-0.126993
-0.157977
-0.150311
-0.116453
-0.075887
-0.032766
0.006203
0.043894
0.072961
0.086376
0.080627
0.069128
0.075836
0.103625
0.128220
0.131733
0.120873
0.102347
0.074557
0.041977
0.005883
-0.025739
-0.053529
-0.072374
-0.074930
-0.063111
-0.039155
-0.018713
-0.013921
-0.019671
-0.030851
-0.033406
-0.027976
-0.022227
-0.015838
-0.019671
-0.033726
-0.042989
-0.044905
-0.034684
-0.021269
-0.014242
-0.004020
0.013547
0.037184
0.049003
0.056349
0.063696
0.069764
0.061779
0.044850
0.026324
0.005881
-0.024783
-0.045865
-0.041712
-0.015520
0.011950
0.023768
0.018338
0.013546
0.017379
0.031114
0.039100
0.028559
0.004283
-0.006577
0.002047
0.002686
-0.027020
-0.070461
-0.083557
-0.062475
-0.033728
-0.018396
-0.014883
-0.008494
0.000769
0.009712
0.004282
-0.019994
-0.045547
-0.062157
-0.060240
-0.057685
-0.053213
-0.053213
-0.050977
-0.042034
-0.023827
0.000129
0.023766
0.041014
0.058902
0.082219
0.103300
0.110647
0.099787
0.079983
0.057624
0.043569
0.034625
0.026001
0.017057
0.006197
0.002364
0.003642
0.001086
-0.007538
-0.023828
-0.035966
-0.041077
-0.036605
-0.024467
0.000766
0.032708
0.058581
0.063691
0.041971
0.006196
-0.027981
-0.051299
-0.063437
-0.063117
-0.047466
-0.024149
-0.015205
-0.023510
-0.038203
-0.038523
-0.022232
0.003001
0.026638
0.042289
0.061135
0.079342
0.087966
0.073273
0.029512
-0.020636
-0.057688
-0.070146
-0.060563
-0.046509
-0.033732
-0.024469
-0.012970
-0.005624
-0.004027
-0.003069
0.004917
0.020249
0.030150
0.030789
0.022804
0.015138
0.016735
0.017693
0.014179
0.009388
0.011304
0.025359
0.045801
0.066883
0.066563
0.047398
0.023122
0.003957
-0.017444
-0.050663
-0.076216
-0.065995
-0.017763
0.043245
0.083811
0.085728
0.046439
-0.015847
-0.075578
-0.112630
-0.115825
-0.087397
-0.035332
0.022802
0.060493
0.061132
0.029190
-0.015848
-0.042359
-0.041720
-0.026708
-0.021917
-0.025111
-0.027347
-0.011696
0.013219
0.031745
0.033661
0.018968
0.004594
-0.001475
0.003636
0.015454
0.030467
0.033341
0.030147
0.019287
0.012579
0.010024
0.013857
0.009065
-0.006267
-0.023835
-0.034375
-0.032139
-0.027348
-0.021599
-0.015849
-0.002753
0.010981
0.025036
0.031105
0.023438
0.010023
-0.000837
-0.001476
-0.009142
-0.036612
-0.071109
-0.084525
-0.069193
-0.043640
-0.025752
-0.014892
-0.002116
0.015133
0.026632
0.031742
0.042283
0.062406
0.080293
0.081891
0.068475
0.042922
0.019604
0.004592
-0.003394
-0.005311
-0.011060
-0.019684
-0.027989
-0.019365
-0.002436
0.018965
0.034616
0.042601
0.053142
0.056336
0.041962
0.007785
-0.031503
-0.061529
-0.072069
-0.066639
-0.055460
-0.040128
-0.014255
0.022158
0.055377
0.071029
0.066557
0.039406
0.005868
-0.027991
-0.048753
-0.050669
-0.037573
-0.013937
0.010020
0.017366
0.006825
-0.009784
-0.018409
-0.025755
-0.025436
-0.011382
0.024393
0.068792
0.096581
0.097858
0.076138
0.045793
0.021518
0.006186
-0.003716
-0.007869
-0.011702
-0.012660
-0.019049
-0.034700
-0.064406
-0.095070
-0.109124
-0.106250
-0.089001
-0.079738
-0.070156
-0.048116
-0.013619
0.020239
0.037168
0.033974
0.021197
0.017364
0.023433
0.032696
0.034293
0.023752
0.010337
0.002990
-0.003079
-0.005954
-0.011065
-0.014259
-0.008829
0.001712
0.010336
0.011294
0.011294
0.018641
0.030459
0.026307
0.006822
-0.012024
-0.017134
-0.014260
-0.012343
-0.010427
-0.004677
0.005225
0.014168
0.017682
0.020876
0.027264
0.035249
0.032375
0.015765
-0.006594
-0.021926
-0.023523
-0.021288
-0.026398
-0.040772
-0.045563
-0.032148
-0.007553
0.006182
0.005543
-0.004998
-0.015858
-0.024482
-0.022566
-0.015219
0.003307
0.034929
0.066551
0.088910
0.094659
0.085077
0.063995
0.038123
0.020235
0.005223
-0.007874
-0.017456
-0.027039
-0.033427
-0.040774
-0.048759
-0.058342
-0.060897
-0.048440
-0.024164
0.001389
0.017999
0.031095
0.042274
0.047065
0.035566
0.018318
0.011929
0.021512
0.038760
0.046745
0.045148
0.047384
0.052495
0.052495
0.046106
0.021831
-0.006917
-0.029596
-0.033748
-0.030873
-0.035026
-0.032471
-0.013306
0.018636
0.042592
0.048022
0.040037
0.028857
0.010970
-0.009154
-0.022889
-0.031513
-0.039818
-0.053553
-0.072718
-0.089966
-0.089966
-0.067607
-0.044290
-0.028958
-0.025125
-0.017459
-0.004683
0.005219
0.005539
0.000108
0.000428
0.002025
0.003302
0.004261
0.017676
0.038757
0.051854
0.047382
0.029814
0.017676
0.016079
0.023425
0.039396
0.045145
0.038757
0.015759
-0.002128
-0.011711
-0.020655
-0.035667
-0.049083
-0.059304
-0.061540
-0.055791
-0.042695
-0.033751
-0.020975
-0.000532
0.033965
0.067504
0.097848
0.107430
0.100084
0.075169
0.042589
0.012883
-0.005963
-0.012032
-0.009157
-0.005005
-0.007241
-0.008518
-0.010115
-0.013310
-0.015865
-0.017782
-0.016185
-0.007241
-0.004366
-0.000853
0.002661
0.009049
0.012562
0.017034
0.013521
0.009368
-0.000214
-0.012033
-0.021296
-0.027046
-0.040781
-0.063140
-0.078472
-0.076875
-0.056752
-0.025129
0.008729
0.033004
0.034921
0.020547
0.001382
-0.007881
-0.014270
-0.020019
-0.022894
-0.018103
-0.002771
0.014797
0.030448
0.035559
0.029170
0.018630
0.008089
-0.002133
-0.013312
-0.032477
-0.051323
-0.066016
-0.072085
-0.070488
-0.069530
-0.061225
-0.040782
-0.005008
0.033641
0.056959
0.069097
0.073568
0.073568
0.072290
0.065902
0.063666
0.071971
0.090178
0.104551
0.099121
0.067818
0.022461
-0.011078
-0.032798
-0.049088
-0.060907
-0.058032
-0.033118
0.000421
0.023419
0.028210
0.017350
-0.002454
-0.017786
-0.029285
-0.030243
-0.025772
-0.015550
-0.005329
0.002337
0.005531
-0.000858
-0.018106
-0.035674
-0.042701
-0.033438
-0.024175
-0.023856
-0.028008
-0.028647
-0.011079
0.017987
0.039708
0.045457
0.036194
0.032680
0.038430
0.043540
0.037471
0.018626
-0.007247
-0.035995
-0.060590
